<?xml version="1.0" encoding="UTF-8"?>
<gpx version="1.1" creator="mapy-pipeline (Babia Gora 01)" xmlns="http://www.topografix.com/GPX/1/1">
  <metadata>
    <name>Zawoja Markowa – Schronisko PTTK – Przełęcz Brona / Perć Akademików – Diablak</name>
    <desc>Wejście na Diablaka — TYLKO PODEJŚCIE, bez drogi powrotnej. 6.3 km, przewyższenie +991 m. Wysokości z modelu terenu (DEM 25 m), wartości przybliżone.</desc>
    <link href="https://bgpn.gov.pl/turystyka-piesza"><text>Babiogorski Park Narodowy - szlaki</text></link>
  </metadata>
  <trk>
    <name>Zawoja Markowa – Schronisko PTTK – Przełęcz Brona / Perć Akademików – Diablak (wejscie)</name>
    <desc>Wejście na Diablaka — TYLKO PODEJŚCIE, bez drogi powrotnej. 6.3 km, przewyższenie +991 m. Wysokości z modelu terenu (DEM 25 m), wartości przybliżone.</desc>
    <trkseg>
      <trkpt lat="49.608131" lon="19.517577"><ele>720.0</ele></trkpt>
      <trkpt lat="49.608185" lon="19.517691"><ele>722.1</ele></trkpt>
      <trkpt lat="49.608055" lon="19.517773"><ele>722.1</ele></trkpt>
      <trkpt lat="49.607860" lon="19.517892"><ele>722.1</ele></trkpt>
      <trkpt lat="49.607436" lon="19.518640"><ele>722.3</ele></trkpt>
      <trkpt lat="49.607084" lon="19.519005"><ele>723.1</ele></trkpt>
      <trkpt lat="49.606726" lon="19.519234"><ele>723.1</ele></trkpt>
      <trkpt lat="49.606076" lon="19.519537"><ele>724.6</ele></trkpt>
      <trkpt lat="49.605624" lon="19.519760"><ele>725.4</ele></trkpt>
      <trkpt lat="49.605381" lon="19.519765"><ele>726.5</ele></trkpt>
      <trkpt lat="49.605151" lon="19.519594"><ele>726.5</ele></trkpt>
      <trkpt lat="49.604929" lon="19.519397"><ele>728.1</ele></trkpt>
      <trkpt lat="49.604573" lon="19.518860"><ele>729.6</ele></trkpt>
      <trkpt lat="49.604470" lon="19.518564"><ele>729.6</ele></trkpt>
      <trkpt lat="49.604335" lon="19.518000"><ele>731.2</ele></trkpt>
      <trkpt lat="49.604293" lon="19.517330"><ele>732.6</ele></trkpt>
      <trkpt lat="49.604213" lon="19.516922"><ele>734.2</ele></trkpt>
      <trkpt lat="49.604077" lon="19.516670"><ele>734.2</ele></trkpt>
      <trkpt lat="49.603927" lon="19.516524"><ele>736.1</ele></trkpt>
      <trkpt lat="49.603502" lon="19.516092"><ele>738.1</ele></trkpt>
      <trkpt lat="49.603356" lon="19.515959"><ele>739.9</ele></trkpt>
      <trkpt lat="49.603258" lon="19.515861"><ele>739.9</ele></trkpt>
      <trkpt lat="49.603203" lon="19.515805"><ele>741.9</ele></trkpt>
      <trkpt lat="49.602999" lon="19.515503"><ele>744.1</ele></trkpt>
      <trkpt lat="49.602740" lon="19.514834"><ele>746.7</ele></trkpt>
      <trkpt lat="49.602203" lon="19.513495"><ele>746.7</ele></trkpt>
      <trkpt lat="49.602125" lon="19.513334"><ele>748.9</ele></trkpt>
      <trkpt lat="49.602041" lon="19.513186"><ele>751.1</ele></trkpt>
      <trkpt lat="49.601783" lon="19.512840"><ele>751.1</ele></trkpt>
      <trkpt lat="49.601640" lon="19.512507"><ele>752.0</ele></trkpt>
      <trkpt lat="49.601452" lon="19.511960"><ele>754.9</ele></trkpt>
      <trkpt lat="49.601327" lon="19.511665"><ele>758.2</ele></trkpt>
      <trkpt lat="49.601140" lon="19.511322"><ele>758.2</ele></trkpt>
      <trkpt lat="49.601000" lon="19.510979"><ele>760.5</ele></trkpt>
      <trkpt lat="49.600897" lon="19.510873"><ele>762.1</ele></trkpt>
      <trkpt lat="49.600807" lon="19.510827"><ele>763.3</ele></trkpt>
      <trkpt lat="49.600752" lon="19.510799"><ele>763.3</ele></trkpt>
      <trkpt lat="49.600616" lon="19.510727"><ele>764.2</ele></trkpt>
      <trkpt lat="49.600312" lon="19.510651"><ele>765.0</ele></trkpt>
      <trkpt lat="49.600124" lon="19.510528"><ele>765.0</ele></trkpt>
      <trkpt lat="49.599836" lon="19.510120"><ele>766.0</ele></trkpt>
      <trkpt lat="49.599679" lon="19.509949"><ele>766.8</ele></trkpt>
      <trkpt lat="49.599519" lon="19.509879"><ele>767.5</ele></trkpt>
      <trkpt lat="49.599328" lon="19.509879"><ele>767.5</ele></trkpt>
      <trkpt lat="49.599182" lon="19.509927"><ele>768.4</ele></trkpt>
      <trkpt lat="49.599062" lon="19.509947"><ele>771.4</ele></trkpt>
      <trkpt lat="49.598980" lon="19.510029"><ele>773.4</ele></trkpt>
      <trkpt lat="49.598657" lon="19.510385"><ele>773.4</ele></trkpt>
      <trkpt lat="49.598449" lon="19.510561"><ele>775.1</ele></trkpt>
      <trkpt lat="49.598185" lon="19.510675"><ele>776.7</ele></trkpt>
      <trkpt lat="49.597995" lon="19.510652"><ele>776.7</ele></trkpt>
      <trkpt lat="49.597833" lon="19.510632"><ele>778.8</ele></trkpt>
      <trkpt lat="49.597521" lon="19.510565"><ele>782.0</ele></trkpt>
      <trkpt lat="49.597149" lon="19.510583"><ele>785.2</ele></trkpt>
      <trkpt lat="49.596953" lon="19.510620"><ele>785.2</ele></trkpt>
      <trkpt lat="49.596728" lon="19.510801"><ele>787.5</ele></trkpt>
      <trkpt lat="49.596594" lon="19.511008"><ele>788.6</ele></trkpt>
      <trkpt lat="49.596299" lon="19.511278"><ele>790.0</ele></trkpt>
      <trkpt lat="49.596141" lon="19.511433"><ele>790.0</ele></trkpt>
      <trkpt lat="49.596040" lon="19.511611"><ele>791.9</ele></trkpt>
      <trkpt lat="49.596003" lon="19.511884"><ele>794.8</ele></trkpt>
      <trkpt lat="49.596010" lon="19.512091"><ele>797.4</ele></trkpt>
      <trkpt lat="49.596029" lon="19.512277"><ele>797.4</ele></trkpt>
      <trkpt lat="49.596093" lon="19.512462"><ele>798.9</ele></trkpt>
      <trkpt lat="49.596119" lon="19.512486"><ele>799.9</ele></trkpt>
      <trkpt lat="49.596156" lon="19.512536"><ele>799.9</ele></trkpt>
      <trkpt lat="49.596179" lon="19.512556"><ele>801.3</ele></trkpt>
      <trkpt lat="49.596157" lon="19.512619"><ele>802.8</ele></trkpt>
      <trkpt lat="49.596147" lon="19.512682"><ele>805.7</ele></trkpt>
      <trkpt lat="49.596166" lon="19.512747"><ele>805.7</ele></trkpt>
      <trkpt lat="49.596194" lon="19.512782"><ele>808.3</ele></trkpt>
      <trkpt lat="49.596267" lon="19.512854"><ele>810.7</ele></trkpt>
      <trkpt lat="49.596354" lon="19.512950"><ele>813.2</ele></trkpt>
      <trkpt lat="49.596497" lon="19.513296"><ele>813.2</ele></trkpt>
      <trkpt lat="49.596609" lon="19.513385"><ele>817.2</ele></trkpt>
      <trkpt lat="49.596871" lon="19.513472"><ele>822.8</ele></trkpt>
      <trkpt lat="49.596955" lon="19.513539"><ele>822.8</ele></trkpt>
      <trkpt lat="49.596966" lon="19.513693"><ele>830.3</ele></trkpt>
      <trkpt lat="49.596854" lon="19.513878"><ele>838.2</ele></trkpt>
      <trkpt lat="49.596547" lon="19.514239"><ele>845.7</ele></trkpt>
      <trkpt lat="49.596490" lon="19.514309"><ele>845.7</ele></trkpt>
      <trkpt lat="49.596224" lon="19.514644"><ele>851.0</ele></trkpt>
      <trkpt lat="49.596029" lon="19.514863"><ele>854.4</ele></trkpt>
      <trkpt lat="49.595733" lon="19.515293"><ele>856.7</ele></trkpt>
      <trkpt lat="49.595618" lon="19.515429"><ele>856.7</ele></trkpt>
      <trkpt lat="49.595455" lon="19.515612"><ele>859.0</ele></trkpt>
      <trkpt lat="49.595195" lon="19.515794"><ele>861.9</ele></trkpt>
      <trkpt lat="49.594977" lon="19.515862"><ele>861.9</ele></trkpt>
      <trkpt lat="49.594822" lon="19.515927"><ele>865.6</ele></trkpt>
      <trkpt lat="49.594222" lon="19.516123"><ele>869.8</ele></trkpt>
      <trkpt lat="49.594152" lon="19.516173"><ele>873.9</ele></trkpt>
      <trkpt lat="49.593733" lon="19.516406"><ele>873.9</ele></trkpt>
      <trkpt lat="49.593332" lon="19.516700"><ele>878.1</ele></trkpt>
      <trkpt lat="49.593049" lon="19.516878"><ele>882.0</ele></trkpt>
      <trkpt lat="49.592923" lon="19.516933"><ele>886.4</ele></trkpt>
      <trkpt lat="49.592712" lon="19.517073"><ele>886.4</ele></trkpt>
      <trkpt lat="49.592537" lon="19.517207"><ele>891.7</ele></trkpt>
      <trkpt lat="49.592457" lon="19.517282"><ele>896.1</ele></trkpt>
      <trkpt lat="49.592371" lon="19.517378"><ele>902.8</ele></trkpt>
      <trkpt lat="49.592317" lon="19.517403"><ele>902.8</ele></trkpt>
      <trkpt lat="49.591819" lon="19.517419"><ele>907.0</ele></trkpt>
      <trkpt lat="49.591684" lon="19.517523"><ele>909.5</ele></trkpt>
      <trkpt lat="49.591571" lon="19.517759"><ele>909.5</ele></trkpt>
      <trkpt lat="49.591501" lon="19.517979"><ele>910.8</ele></trkpt>
      <trkpt lat="49.591411" lon="19.518076"><ele>914.5</ele></trkpt>
      <trkpt lat="49.591299" lon="19.518145"><ele>918.6</ele></trkpt>
      <trkpt lat="49.591233" lon="19.518167"><ele>918.6</ele></trkpt>
      <trkpt lat="49.591174" lon="19.518247"><ele>927.6</ele></trkpt>
      <trkpt lat="49.591094" lon="19.518301"><ele>933.8</ele></trkpt>
      <trkpt lat="49.590986" lon="19.518269"><ele>936.2</ele></trkpt>
      <trkpt lat="49.590910" lon="19.518306"><ele>936.2</ele></trkpt>
      <trkpt lat="49.590821" lon="19.518419"><ele>940.0</ele></trkpt>
      <trkpt lat="49.590686" lon="19.518577"><ele>943.1</ele></trkpt>
      <trkpt lat="49.590634" lon="19.518614"><ele>943.1</ele></trkpt>
      <trkpt lat="49.590603" lon="19.518610"><ele>946.5</ele></trkpt>
      <trkpt lat="49.590570" lon="19.518552"><ele>949.1</ele></trkpt>
      <trkpt lat="49.590524" lon="19.518407"><ele>952.3</ele></trkpt>
      <trkpt lat="49.590480" lon="19.518346"><ele>952.3</ele></trkpt>
      <trkpt lat="49.590449" lon="19.518332"><ele>957.4</ele></trkpt>
      <trkpt lat="49.590411" lon="19.518344"><ele>962.9</ele></trkpt>
      <trkpt lat="49.590266" lon="19.518463"><ele>967.9</ele></trkpt>
      <trkpt lat="49.590121" lon="19.518562"><ele>967.9</ele></trkpt>
      <trkpt lat="49.589751" lon="19.518752"><ele>972.8</ele></trkpt>
      <trkpt lat="49.589611" lon="19.518677"><ele>977.0</ele></trkpt>
      <trkpt lat="49.589475" lon="19.518664"><ele>977.0</ele></trkpt>
      <trkpt lat="49.589338" lon="19.518570"><ele>981.5</ele></trkpt>
      <trkpt lat="49.589136" lon="19.518322"><ele>986.4</ele></trkpt>
      <trkpt lat="49.589006" lon="19.518258"><ele>992.2</ele></trkpt>
      <trkpt lat="49.588943" lon="19.518255"><ele>992.2</ele></trkpt>
      <trkpt lat="49.588893" lon="19.518223"><ele>998.7</ele></trkpt>
      <trkpt lat="49.588799" lon="19.518226"><ele>1005.6</ele></trkpt>
      <trkpt lat="49.588717" lon="19.518186"><ele>1012.8</ele></trkpt>
      <trkpt lat="49.588608" lon="19.518186"><ele>1012.8</ele></trkpt>
      <trkpt lat="49.588549" lon="19.518156"><ele>1019.4</ele></trkpt>
      <trkpt lat="49.588363" lon="19.517859"><ele>1027.2</ele></trkpt>
      <trkpt lat="49.588284" lon="19.517730"><ele>1035.0</ele></trkpt>
      <trkpt lat="49.588211" lon="19.517722"><ele>1035.0</ele></trkpt>
      <trkpt lat="49.588139" lon="19.517696"><ele>1043.4</ele></trkpt>
      <trkpt lat="49.588068" lon="19.517629"><ele>1052.1</ele></trkpt>
      <trkpt lat="49.588022" lon="19.517567"><ele>1052.1</ele></trkpt>
      <trkpt lat="49.587972" lon="19.517443"><ele>1058.9</ele></trkpt>
      <trkpt lat="49.587916" lon="19.517363"><ele>1066.6</ele></trkpt>
      <trkpt lat="49.587831" lon="19.517289"><ele>1074.1</ele></trkpt>
      <trkpt lat="49.587712" lon="19.517012"><ele>1074.1</ele></trkpt>
      <trkpt lat="49.587676" lon="19.516855"><ele>1080.3</ele></trkpt>
      <trkpt lat="49.587582" lon="19.516775"><ele>1085.1</ele></trkpt>
      <trkpt lat="49.587535" lon="19.516719"><ele>1091.9</ele></trkpt>
      <trkpt lat="49.587426" lon="19.516634"><ele>1091.9</ele></trkpt>
      <trkpt lat="49.587243" lon="19.516501"><ele>1100.5</ele></trkpt>
      <trkpt lat="49.587031" lon="19.516343"><ele>1108.1</ele></trkpt>
      <trkpt lat="49.586916" lon="19.516211"><ele>1108.1</ele></trkpt>
      <trkpt lat="49.586725" lon="19.515916"><ele>1117.0</ele></trkpt>
      <trkpt lat="49.586514" lon="19.515745"><ele>1124.7</ele></trkpt>
      <trkpt lat="49.586382" lon="19.515704"><ele>1131.7</ele></trkpt>
      <trkpt lat="49.586149" lon="19.515713"><ele>1131.7</ele></trkpt>
      <trkpt lat="49.585763" lon="19.515713"><ele>1136.9</ele></trkpt>
      <trkpt lat="49.585636" lon="19.515726"><ele>1143.7</ele></trkpt>
      <trkpt lat="49.585531" lon="19.515771"><ele>1150.6</ele></trkpt>
      <trkpt lat="49.585324" lon="19.515971"><ele>1150.6</ele></trkpt>
      <trkpt lat="49.585107" lon="19.516034"><ele>1155.7</ele></trkpt>
      <trkpt lat="49.584911" lon="19.515940"><ele>1159.4</ele></trkpt>
      <trkpt lat="49.584742" lon="19.515836"><ele>1159.4</ele></trkpt>
      <trkpt lat="49.584497" lon="19.515624"><ele>1161.9</ele></trkpt>
      <trkpt lat="49.584132" lon="19.515396"><ele>1164.2</ele></trkpt>
      <trkpt lat="49.584089" lon="19.515294"><ele>1166.5</ele></trkpt>
      <trkpt lat="49.584090" lon="19.515090"><ele>1166.5</ele></trkpt>
      <trkpt lat="49.584067" lon="19.514838"><ele>1168.6</ele></trkpt>
      <trkpt lat="49.584111" lon="19.514617"><ele>1170.6</ele></trkpt>
      <trkpt lat="49.584088" lon="19.514498"><ele>1173.3</ele></trkpt>
      <trkpt lat="49.584018" lon="19.514275"><ele>1173.3</ele></trkpt>
      <trkpt lat="49.584066" lon="19.513932"><ele>1178.8</ele></trkpt>
      <trkpt lat="49.584059" lon="19.513725"><ele>1184.7</ele></trkpt>
      <trkpt lat="49.584043" lon="19.513488"><ele>1189.0</ele></trkpt>
      <trkpt lat="49.584021" lon="19.513359"><ele>1189.0</ele></trkpt>
      <trkpt lat="49.583940" lon="19.513303"><ele>1191.6</ele></trkpt>
      <trkpt lat="49.583908" lon="19.513231"><ele>1194.2</ele></trkpt>
      <trkpt lat="49.583880" lon="19.513054"><ele>1194.2</ele></trkpt>
      <trkpt lat="49.583876" lon="19.512978"><ele>1197.1</ele></trkpt>
      <trkpt lat="49.583858" lon="19.512923"><ele>1202.2</ele></trkpt>
      <trkpt lat="49.583832" lon="19.512840"><ele>1208.3</ele></trkpt>
      <trkpt lat="49.583842" lon="19.512756"><ele>1208.3</ele></trkpt>
      <trkpt lat="49.583880" lon="19.512625"><ele>1214.8</ele></trkpt>
      <trkpt lat="49.583894" lon="19.512495"><ele>1221.9</ele></trkpt>
      <trkpt lat="49.583883" lon="19.512415"><ele>1228.1</ele></trkpt>
      <trkpt lat="49.583866" lon="19.512336"><ele>1228.1</ele></trkpt>
      <trkpt lat="49.583826" lon="19.512183"><ele>1233.9</ele></trkpt>
      <trkpt lat="49.583812" lon="19.512017"><ele>1238.9</ele></trkpt>
      <trkpt lat="49.583785" lon="19.511944"><ele>1238.9</ele></trkpt>
      <trkpt lat="49.583746" lon="19.511705"><ele>1242.7</ele></trkpt>
      <trkpt lat="49.583670" lon="19.511607"><ele>1246.2</ele></trkpt>
      <trkpt lat="49.583590" lon="19.511556"><ele>1250.0</ele></trkpt>
      <trkpt lat="49.583567" lon="19.511540"><ele>1250.0</ele></trkpt>
      <trkpt lat="49.583514" lon="19.511527"><ele>1254.0</ele></trkpt>
      <trkpt lat="49.583438" lon="19.511543"><ele>1256.4</ele></trkpt>
      <trkpt lat="49.583396" lon="19.511570"><ele>1259.2</ele></trkpt>
      <trkpt lat="49.583359" lon="19.511573"><ele>1259.2</ele></trkpt>
      <trkpt lat="49.583259" lon="19.511549"><ele>1263.1</ele></trkpt>
      <trkpt lat="49.583092" lon="19.511485"><ele>1266.9</ele></trkpt>
      <trkpt lat="49.582948" lon="19.511438"><ele>1266.9</ele></trkpt>
      <trkpt lat="49.582915" lon="19.511424"><ele>1271.8</ele></trkpt>
      <trkpt lat="49.582834" lon="19.511416"><ele>1278.3</ele></trkpt>
      <trkpt lat="49.582759" lon="19.511396"><ele>1284.7</ele></trkpt>
      <trkpt lat="49.582680" lon="19.511327"><ele>1284.7</ele></trkpt>
      <trkpt lat="49.582593" lon="19.511278"><ele>1290.6</ele></trkpt>
      <trkpt lat="49.582543" lon="19.511225"><ele>1296.3</ele></trkpt>
      <trkpt lat="49.582447" lon="19.511026"><ele>1304.0</ele></trkpt>
      <trkpt lat="49.582373" lon="19.510968"><ele>1304.0</ele></trkpt>
      <trkpt lat="49.582304" lon="19.510907"><ele>1305.5</ele></trkpt>
      <trkpt lat="49.582298" lon="19.510863"><ele>1308.1</ele></trkpt>
      <trkpt lat="49.582295" lon="19.510843"><ele>1308.1</ele></trkpt>
      <trkpt lat="49.582294" lon="19.510799"><ele>1313.2</ele></trkpt>
      <trkpt lat="49.582278" lon="19.510760"><ele>1316.6</ele></trkpt>
      <trkpt lat="49.582182" lon="19.510670"><ele>1317.0</ele></trkpt>
      <trkpt lat="49.582137" lon="19.510653"><ele>1317.0</ele></trkpt>
      <trkpt lat="49.582092" lon="19.510641"><ele>1318.0</ele></trkpt>
      <trkpt lat="49.582045" lon="19.510626"><ele>1319.4</ele></trkpt>
      <trkpt lat="49.582029" lon="19.510616"><ele>1320.2</ele></trkpt>
      <trkpt lat="49.582013" lon="19.510555"><ele>1320.2</ele></trkpt>
      <trkpt lat="49.581969" lon="19.510508"><ele>1323.6</ele></trkpt>
      <trkpt lat="49.581907" lon="19.510481"><ele>1330.2</ele></trkpt>
      <trkpt lat="49.581873" lon="19.510473"><ele>1336.2</ele></trkpt>
      <trkpt lat="49.581842" lon="19.510479"><ele>1336.2</ele></trkpt>
      <trkpt lat="49.581826" lon="19.510499"><ele>1342.5</ele></trkpt>
      <trkpt lat="49.581789" lon="19.510601"><ele>1353.3</ele></trkpt>
      <trkpt lat="49.581729" lon="19.510586"><ele>1353.3</ele></trkpt>
      <trkpt lat="49.581706" lon="19.510587"><ele>1362.3</ele></trkpt>
      <trkpt lat="49.581681" lon="19.510569"><ele>1372.0</ele></trkpt>
      <trkpt lat="49.581653" lon="19.510555"><ele>1378.4</ele></trkpt>
      <trkpt lat="49.581620" lon="19.510578"><ele>1378.4</ele></trkpt>
      <trkpt lat="49.581607" lon="19.510569"><ele>1389.9</ele></trkpt>
      <trkpt lat="49.581588" lon="19.510423"><ele>1397.8</ele></trkpt>
      <trkpt lat="49.581580" lon="19.510309"><ele>1404.2</ele></trkpt>
      <trkpt lat="49.581558" lon="19.510242"><ele>1404.2</ele></trkpt>
      <trkpt lat="49.581515" lon="19.510188"><ele>1406.3</ele></trkpt>
      <trkpt lat="49.581435" lon="19.510256"><ele>1409.3</ele></trkpt>
      <trkpt lat="49.581298" lon="19.510381"><ele>1409.3</ele></trkpt>
      <trkpt lat="49.581026" lon="19.510721"><ele>1412.1</ele></trkpt>
      <trkpt lat="49.580789" lon="19.510952"><ele>1415.1</ele></trkpt>
      <trkpt lat="49.580506" lon="19.511329"><ele>1417.6</ele></trkpt>
      <trkpt lat="49.579955" lon="19.511954"><ele>1417.6</ele></trkpt>
      <trkpt lat="49.579401" lon="19.512599"><ele>1419.8</ele></trkpt>
      <trkpt lat="49.578862" lon="19.513239"><ele>1421.6</ele></trkpt>
      <trkpt lat="49.577782" lon="19.514508"><ele>1424.0</ele></trkpt>
      <trkpt lat="49.577687" lon="19.514597"><ele>1424.0</ele></trkpt>
      <trkpt lat="49.577610" lon="19.514726"><ele>1426.9</ele></trkpt>
      <trkpt lat="49.577472" lon="19.514891"><ele>1429.9</ele></trkpt>
      <trkpt lat="49.577351" lon="19.514939"><ele>1429.9</ele></trkpt>
      <trkpt lat="49.577192" lon="19.514970"><ele>1433.6</ele></trkpt>
      <trkpt lat="49.576904" lon="19.515121"><ele>1438.3</ele></trkpt>
      <trkpt lat="49.576616" lon="19.515173"><ele>1441.9</ele></trkpt>
      <trkpt lat="49.576496" lon="19.515247"><ele>1441.9</ele></trkpt>
      <trkpt lat="49.576247" lon="19.515373"><ele>1447.0</ele></trkpt>
      <trkpt lat="49.576120" lon="19.515418"><ele>1452.2</ele></trkpt>
      <trkpt lat="49.576050" lon="19.515438"><ele>1457.4</ele></trkpt>
      <trkpt lat="49.575991" lon="19.515429"><ele>1457.4</ele></trkpt>
      <trkpt lat="49.575920" lon="19.515447"><ele>1463.5</ele></trkpt>
      <trkpt lat="49.575877" lon="19.515478"><ele>1469.6</ele></trkpt>
      <trkpt lat="49.575793" lon="19.515510"><ele>1477.3</ele></trkpt>
      <trkpt lat="49.575696" lon="19.515550"><ele>1477.3</ele></trkpt>
      <trkpt lat="49.575566" lon="19.515644"><ele>1485.3</ele></trkpt>
      <trkpt lat="49.575494" lon="19.515641"><ele>1493.8</ele></trkpt>
      <trkpt lat="49.575336" lon="19.515798"><ele>1493.8</ele></trkpt>
      <trkpt lat="49.575275" lon="19.515874"><ele>1502.5</ele></trkpt>
      <trkpt lat="49.575179" lon="19.515970"><ele>1509.5</ele></trkpt>
      <trkpt lat="49.575116" lon="19.516053"><ele>1514.6</ele></trkpt>
      <trkpt lat="49.574986" lon="19.516179"><ele>1514.6</ele></trkpt>
      <trkpt lat="49.574814" lon="19.516413"><ele>1518.3</ele></trkpt>
      <trkpt lat="49.574687" lon="19.516607"><ele>1521.4</ele></trkpt>
      <trkpt lat="49.574533" lon="19.516700"><ele>1526.8</ele></trkpt>
      <trkpt lat="49.574403" lon="19.516839"><ele>1526.8</ele></trkpt>
      <trkpt lat="49.574284" lon="19.516992"><ele>1532.7</ele></trkpt>
      <trkpt lat="49.574180" lon="19.517123"><ele>1539.9</ele></trkpt>
      <trkpt lat="49.574048" lon="19.517245"><ele>1539.9</ele></trkpt>
      <trkpt lat="49.573973" lon="19.517376"><ele>1548.8</ele></trkpt>
      <trkpt lat="49.573881" lon="19.517494"><ele>1556.3</ele></trkpt>
      <trkpt lat="49.573788" lon="19.517585"><ele>1563.3</ele></trkpt>
      <trkpt lat="49.573754" lon="19.517668"><ele>1563.3</ele></trkpt>
      <trkpt lat="49.573671" lon="19.517783"><ele>1569.8</ele></trkpt>
      <trkpt lat="49.573607" lon="19.517923"><ele>1575.4</ele></trkpt>
      <trkpt lat="49.573518" lon="19.518061"><ele>1580.3</ele></trkpt>
      <trkpt lat="49.573386" lon="19.518359"><ele>1580.3</ele></trkpt>
      <trkpt lat="49.573330" lon="19.518478"><ele>1584.2</ele></trkpt>
      <trkpt lat="49.573276" lon="19.518668"><ele>1587.3</ele></trkpt>
      <trkpt lat="49.573234" lon="19.518789"><ele>1587.3</ele></trkpt>
      <trkpt lat="49.573182" lon="19.519149"><ele>1591.9</ele></trkpt>
      <trkpt lat="49.573158" lon="19.519335"><ele>1596.0</ele></trkpt>
      <trkpt lat="49.573119" lon="19.519526"><ele>1598.9</ele></trkpt>
      <trkpt lat="49.573073" lon="19.519647"><ele>1598.9</ele></trkpt>
      <trkpt lat="49.572972" lon="19.519798"><ele>1600.3</ele></trkpt>
      <trkpt lat="49.572894" lon="19.520014"><ele>1601.6</ele></trkpt>
      <trkpt lat="49.572851" lon="19.520387"><ele>1602.1</ele></trkpt>
      <trkpt lat="49.572639" lon="19.520964"><ele>1602.1</ele></trkpt>
      <trkpt lat="49.572540" lon="19.521137"><ele>1602.1</ele></trkpt>
      <trkpt lat="49.572436" lon="19.521268"><ele>1602.2</ele></trkpt>
      <trkpt lat="49.572306" lon="19.521404"><ele>1602.2</ele></trkpt>
      <trkpt lat="49.572269" lon="19.521598"><ele>1602.2</ele></trkpt>
      <trkpt lat="49.572252" lon="19.522111"><ele>1602.4</ele></trkpt>
      <trkpt lat="49.572213" lon="19.522521"><ele>1603.8</ele></trkpt>
      <trkpt lat="49.572173" lon="19.522696"><ele>1603.8</ele></trkpt>
      <trkpt lat="49.572151" lon="19.522807"><ele>1605.3</ele></trkpt>
      <trkpt lat="49.572145" lon="19.522926"><ele>1606.1</ele></trkpt>
      <trkpt lat="49.572154" lon="19.523136"><ele>1607.6</ele></trkpt>
      <trkpt lat="49.572167" lon="19.523317"><ele>1607.6</ele></trkpt>
      <trkpt lat="49.572187" lon="19.523484"><ele>1607.6</ele></trkpt>
      <trkpt lat="49.572182" lon="19.523620"><ele>1608.9</ele></trkpt>
      <trkpt lat="49.572185" lon="19.523855"><ele>1611.7</ele></trkpt>
      <trkpt lat="49.572183" lon="19.523926"><ele>1611.7</ele></trkpt>
      <trkpt lat="49.572171" lon="19.523970"><ele>1615.9</ele></trkpt>
      <trkpt lat="49.572136" lon="19.524001"><ele>1619.3</ele></trkpt>
      <trkpt lat="49.572104" lon="19.524034"><ele>1619.3</ele></trkpt>
      <trkpt lat="49.572127" lon="19.524105"><ele>1622.8</ele></trkpt>
      <trkpt lat="49.572143" lon="19.524272"><ele>1625.8</ele></trkpt>
      <trkpt lat="49.572125" lon="19.524310"><ele>1628.2</ele></trkpt>
      <trkpt lat="49.572117" lon="19.524406"><ele>1628.2</ele></trkpt>
      <trkpt lat="49.572106" lon="19.524587"><ele>1630.5</ele></trkpt>
      <trkpt lat="49.572144" lon="19.524677"><ele>1633.6</ele></trkpt>
      <trkpt lat="49.572180" lon="19.525095"><ele>1639.0</ele></trkpt>
      <trkpt lat="49.572176" lon="19.525488"><ele>1639.0</ele></trkpt>
      <trkpt lat="49.572181" lon="19.525604"><ele>1644.9</ele></trkpt>
      <trkpt lat="49.572205" lon="19.525727"><ele>1648.7</ele></trkpt>
      <trkpt lat="49.572265" lon="19.525789"><ele>1648.7</ele></trkpt>
      <trkpt lat="49.572402" lon="19.526252"><ele>1652.8</ele></trkpt>
      <trkpt lat="49.572467" lon="19.526396"><ele>1658.3</ele></trkpt>
      <trkpt lat="49.572486" lon="19.526569"><ele>1665.3</ele></trkpt>
      <trkpt lat="49.572531" lon="19.526681"><ele>1665.3</ele></trkpt>
      <trkpt lat="49.572602" lon="19.526879"><ele>1672.6</ele></trkpt>
      <trkpt lat="49.572770" lon="19.527355"><ele>1677.4</ele></trkpt>
      <trkpt lat="49.572815" lon="19.527573"><ele>1682.7</ele></trkpt>
      <trkpt lat="49.572917" lon="19.527976"><ele>1682.7</ele></trkpt>
      <trkpt lat="49.572917" lon="19.528022"><ele>1686.3</ele></trkpt>
      <trkpt lat="49.572904" lon="19.528130"><ele>1687.8</ele></trkpt>
      <trkpt lat="49.572913" lon="19.528232"><ele>1687.8</ele></trkpt>
      <trkpt lat="49.572959" lon="19.528324"><ele>1687.8</ele></trkpt>
      <trkpt lat="49.572985" lon="19.528393"><ele>1688.0</ele></trkpt>
      <trkpt lat="49.572997" lon="19.528553"><ele>1690.1</ele></trkpt>
      <trkpt lat="49.572993" lon="19.528722"><ele>1690.1</ele></trkpt>
      <trkpt lat="49.572988" lon="19.528772"><ele>1693.9</ele></trkpt>
      <trkpt lat="49.572992" lon="19.528796"><ele>1698.3</ele></trkpt>
      <trkpt lat="49.573064" lon="19.528867"><ele>1703.1</ele></trkpt>
      <trkpt lat="49.573025" lon="19.528909"><ele>1703.1</ele></trkpt>
      <trkpt lat="49.573064" lon="19.528966"><ele>1706.0</ele></trkpt>
      <trkpt lat="49.572978" lon="19.529060"><ele>1709.7</ele></trkpt>
      <trkpt lat="49.573038" lon="19.529179"><ele>1710.6</ele></trkpt>
      <trkpt lat="49.573087" lon="19.529446"><ele>1710.6</ele></trkpt>
      <trkpt lat="49.572941" lon="19.529333"><ele>1710.6</ele></trkpt>
    </trkseg>
  </trk>
</gpx>
