<?xml version="1.0" encoding="UTF-8"?>
<gpx version="1.1" creator="W Dobrym Kierunku" xmlns="http://www.topografix.com/GPX/1/1">
  <metadata>
    <name>Zawoja Piesze wędrówki</name>
    <desc>Własny ślad GPS autora; plik uproszczony do co 10. punktu, z zachowanym czasem i wysokością.</desc>
    <time>2026-03-08T08:54:28.000Z</time>
  </metadata>
  <trk>
    <name>Zawoja Piesze wędrówki</name>
    <trkseg>
      <trkpt lat="49.60840095765888690948486328125" lon="19.51773737557232379913330078125"><ele>715</ele><time>2026-03-08T08:54:28.000Z</time></trkpt>
      <trkpt lat="49.608249664306640625" lon="19.517768807709217071533203125"><ele>715.5999755859375</ele><time>2026-03-08T08:55:27.000Z</time></trkpt>
      <trkpt lat="49.60786216892302036285400390625" lon="19.5178293250501155853271484375"><ele>718</ele><time>2026-03-08T08:55:54.000Z</time></trkpt>
      <trkpt lat="49.60768799297511577606201171875" lon="19.5179966278374195098876953125"><ele>719.5999755859375</ele><time>2026-03-08T08:56:10.000Z</time></trkpt>
      <trkpt lat="49.6075507812201976776123046875" lon="19.5183567143976688385009765625"><ele>721.5999755859375</ele><time>2026-03-08T08:56:32.000Z</time></trkpt>
      <trkpt lat="49.60722883231937885284423828125" lon="19.51887060888111591339111328125"><ele>724.4000244140625</ele><time>2026-03-08T08:57:02.000Z</time></trkpt>
      <trkpt lat="49.606890119612216949462890625" lon="19.5191737823188304901123046875"><ele>727.79998779296875</ele><time>2026-03-08T08:57:33.000Z</time></trkpt>
      <trkpt lat="49.60651737637817859649658203125" lon="19.519343934953212738037109375"><ele>730.4000244140625</ele><time>2026-03-08T08:58:00.000Z</time></trkpt>
      <trkpt lat="49.606340937316417694091796875" lon="19.51951014809310436248779296875"><ele>731.79998779296875</ele><time>2026-03-08T08:58:19.000Z</time></trkpt>
      <trkpt lat="49.60610733367502689361572265625" lon="19.5196136645972728729248046875"><ele>734.20001220703125</ele><time>2026-03-08T08:58:43.000Z</time></trkpt>
      <trkpt lat="49.6057768352329730987548828125" lon="19.51975540257990360260009765625"><ele>736.4000244140625</ele><time>2026-03-08T08:59:07.000Z</time></trkpt>
      <trkpt lat="49.60547131486237049102783203125" lon="19.51976780779659748077392578125"><ele>738.4000244140625</ele><time>2026-03-08T08:59:28.000Z</time></trkpt>
      <trkpt lat="49.60516302846372127532958984375" lon="19.51954074203968048095703125"><ele>741.5999755859375</ele><time>2026-03-08T08:59:51.000Z</time></trkpt>
      <trkpt lat="49.60490084253251552581787109375" lon="19.5192948170006275177001953125"><ele>745.4000244140625</ele><time>2026-03-08T09:00:18.000Z</time></trkpt>
      <trkpt lat="49.60456640459597110748291015625" lon="19.51897211372852325439453125"><ele>749</ele><time>2026-03-08T09:00:39.000Z</time></trkpt>
      <trkpt lat="49.60439139045774936676025390625" lon="19.5185515098273754119873046875"><ele>752.4000244140625</ele><time>2026-03-08T09:01:02.000Z</time></trkpt>
      <trkpt lat="49.60424554534256458282470703125" lon="19.5180757530033588409423828125"><ele>755</ele><time>2026-03-08T09:01:28.000Z</time></trkpt>
      <trkpt lat="49.6042530052363872528076171875" lon="19.517332278192043304443359375"><ele>758.4000244140625</ele><time>2026-03-08T09:02:07.000Z</time></trkpt>
      <trkpt lat="49.604101963341236114501953125" lon="19.51688242144882678985595703125"><ele>760.5999755859375</ele><time>2026-03-08T09:02:31.000Z</time></trkpt>
      <trkpt lat="49.6037068404257297515869140625" lon="19.51654094271361827850341796875"><ele>763.5999755859375</ele><time>2026-03-08T09:03:06.000Z</time></trkpt>
      <trkpt lat="49.603416658937931060791015625" lon="19.5161080174148082733154296875"><ele>767</ele><time>2026-03-08T09:03:37.000Z</time></trkpt>
      <trkpt lat="49.60319973528385162353515625" lon="19.51584306545555591583251953125"><ele>769.4000244140625</ele><time>2026-03-08T09:04:03.000Z</time></trkpt>
      <trkpt lat="49.60288214497268199920654296875" lon="19.51554483734071254730224609375"><ele>772</ele><time>2026-03-08T09:04:33.000Z</time></trkpt>
      <trkpt lat="49.60283721797168254852294921875" lon="19.51544727198779582977294921875"><ele>772.5999755859375</ele><time>2026-03-08T09:05:12.000Z</time></trkpt>
      <trkpt lat="49.60287426598370075225830078125" lon="19.51533897779881954193115234375"><ele>772.79998779296875</ele><time>2026-03-08T09:06:08.000Z</time></trkpt>
      <trkpt lat="49.60269589908421039581298828125" lon="19.51496422290802001953125"><ele>776</ele><time>2026-03-08T09:06:31.000Z</time></trkpt>
      <trkpt lat="49.60255734622478485107421875" lon="19.5145563594996929168701171875"><ele>779.79998779296875</ele><time>2026-03-08T09:07:02.000Z</time></trkpt>
      <trkpt lat="49.60242927074432373046875" lon="19.51423625461757183074951171875"><ele>782</ele><time>2026-03-08T09:07:21.000Z</time></trkpt>
      <trkpt lat="49.6022024564445018768310546875" lon="19.513781704008579254150390625"><ele>784.5999755859375</ele><time>2026-03-08T09:07:47.000Z</time></trkpt>
      <trkpt lat="49.60204194299876689910888671875" lon="19.5134663768112659454345703125"><ele>786.20001220703125</ele><time>2026-03-08T09:08:09.000Z</time></trkpt>
      <trkpt lat="49.6018098480999469757080078125" lon="19.51314476318657398223876953125"><ele>788.4000244140625</ele><time>2026-03-08T09:08:37.000Z</time></trkpt>
      <trkpt lat="49.601573646068572998046875" lon="19.51272365637123584747314453125"><ele>791.5999755859375</ele><time>2026-03-08T09:09:08.000Z</time></trkpt>
      <trkpt lat="49.60144414566457271575927734375" lon="19.512363485991954803466796875"><ele>794.79998779296875</ele><time>2026-03-08T09:09:45.000Z</time></trkpt>
      <trkpt lat="49.60126410238444805145263671875" lon="19.51190306805074214935302734375"><ele>797.20001220703125</ele><time>2026-03-08T09:10:09.000Z</time></trkpt>
      <trkpt lat="49.60104600526392459869384765625" lon="19.51142647303640842437744140625"><ele>800</ele><time>2026-03-08T09:10:36.000Z</time></trkpt>
      <trkpt lat="49.60086629725992679595947265625" lon="19.51106940396130084991455078125"><ele>802.20001220703125</ele><time>2026-03-08T09:11:15.000Z</time></trkpt>
      <trkpt lat="49.6005468629300594329833984375" lon="19.51088215224444866180419921875"><ele>807.4000244140625</ele><time>2026-03-08T09:11:50.000Z</time></trkpt>
      <trkpt lat="49.6000597067177295684814453125" lon="19.51052248477935791015625"><ele>812.4000244140625</ele><time>2026-03-08T09:12:22.000Z</time></trkpt>
      <trkpt lat="49.5997130312025547027587890625" lon="19.5101617276668548583984375"><ele>815.5999755859375</ele><time>2026-03-08T09:12:53.000Z</time></trkpt>
      <trkpt lat="49.5993968658149242401123046875" lon="19.50996483676135540008544921875"><ele>820.79998779296875</ele><time>2026-03-08T09:13:34.000Z</time></trkpt>
      <trkpt lat="49.59900819696485996246337890625" lon="19.510150663554668426513671875"><ele>826.4000244140625</ele><time>2026-03-08T09:14:18.000Z</time></trkpt>
      <trkpt lat="49.598801247775554656982421875" lon="19.510466493666172027587890625"><ele>830.79998779296875</ele><time>2026-03-08T09:14:43.000Z</time></trkpt>
      <trkpt lat="49.59841576404869556427001953125" lon="19.5106775499880313873291015625"><ele>837.5999755859375</ele><time>2026-03-08T09:15:19.000Z</time></trkpt>
      <trkpt lat="49.5980574376881122589111328125" lon="19.51073178090155124664306640625"><ele>844</ele><time>2026-03-08T09:15:49.000Z</time></trkpt>
      <trkpt lat="49.59786951541900634765625" lon="19.51075516641139984130859375"><ele>849.79998779296875</ele><time>2026-03-08T09:16:15.000Z</time></trkpt>
      <trkpt lat="49.5974945090711116790771484375" lon="19.510662294924259185791015625"><ele>856.5999755859375</ele><time>2026-03-08T09:16:46.000Z</time></trkpt>
      <trkpt lat="49.59719217382371425628662109375" lon="19.5107100717723369598388671875"><ele>861.5999755859375</ele><time>2026-03-08T09:17:34.000Z</time></trkpt>
      <trkpt lat="49.5969671197235584259033203125" lon="19.51082867570221424102783203125"><ele>866.4000244140625</ele><time>2026-03-08T09:18:09.000Z</time></trkpt>
      <trkpt lat="49.5966506190598011016845703125" lon="19.5110688172280788421630859375"><ele>871.4000244140625</ele><time>2026-03-08T09:18:54.000Z</time></trkpt>
      <trkpt lat="49.596479125320911407470703125" lon="19.51127978973090648651123046875"><ele>876</ele><time>2026-03-08T09:19:28.000Z</time></trkpt>
      <trkpt lat="49.5962657220661640167236328125" lon="19.51147592626512050628662109375"><ele>881.20001220703125</ele><time>2026-03-08T09:20:06.000Z</time></trkpt>
      <trkpt lat="49.59614460356533527374267578125" lon="19.51182662509381771087646484375"><ele>888.79998779296875</ele><time>2026-03-08T09:20:48.000Z</time></trkpt>
      <trkpt lat="49.5959398336708545684814453125" lon="19.51228762976825237274169921875"><ele>892.79998779296875</ele><time>2026-03-08T09:21:28.000Z</time></trkpt>
      <trkpt lat="49.59610152058303356170654296875" lon="19.51274595223367214202880859375"><ele>895.5999755859375</ele><time>2026-03-08T09:22:05.000Z</time></trkpt>
      <trkpt lat="49.5962694101035594940185546875" lon="19.51281300745904445648193359375"><ele>903.4000244140625</ele><time>2026-03-08T09:22:45.000Z</time></trkpt>
      <trkpt lat="49.59638717584311962127685546875" lon="19.51300688087940216064453125"><ele>910.20001220703125</ele><time>2026-03-08T09:23:18.000Z</time></trkpt>
      <trkpt lat="49.59654760546982288360595703125" lon="19.51315079815685749053955078125"><ele>918.20001220703125</ele><time>2026-03-08T09:23:56.000Z</time></trkpt>
      <trkpt lat="49.5968283154070377349853515625" lon="19.51324467547237873077392578125"><ele>925.4000244140625</ele><time>2026-03-08T09:24:30.000Z</time></trkpt>
      <trkpt lat="49.5970013178884983062744140625" lon="19.513494037091732025146484375"><ele>930.4000244140625</ele><time>2026-03-08T09:25:00.000Z</time></trkpt>
      <trkpt lat="49.5969550497829914093017578125" lon="19.5137424767017364501953125"><ele>934.5999755859375</ele><time>2026-03-08T09:25:54.000Z</time></trkpt>
      <trkpt lat="49.59690568037331104278564453125" lon="19.513833336532115936279296875"><ele>935.79998779296875</ele><time>2026-03-08T09:26:47.000Z</time></trkpt>
      <trkpt lat="49.5967783592641353607177734375" lon="19.51412175782024860382080078125"><ele>939.79998779296875</ele><time>2026-03-08T09:27:26.000Z</time></trkpt>
      <trkpt lat="49.59663192741572856903076171875" lon="19.51428084634244441986083984375"><ele>942</ele><time>2026-03-08T09:27:51.000Z</time></trkpt>
      <trkpt lat="49.59639706648886203765869140625" lon="19.5145684294402599334716796875"><ele>946</ele><time>2026-03-08T09:28:25.000Z</time></trkpt>
      <trkpt lat="49.59626513533294200897216796875" lon="19.51485693454742431640625"><ele>951.4000244140625</ele><time>2026-03-08T09:28:58.000Z</time></trkpt>
      <trkpt lat="49.59613940678536891937255859375" lon="19.51493077911436557769775390625"><ele>956.4000244140625</ele><time>2026-03-08T09:29:34.000Z</time></trkpt>
      <trkpt lat="49.596000351011753082275390625" lon="19.5151581801474094390869140625"><ele>963.79998779296875</ele><time>2026-03-08T09:30:13.000Z</time></trkpt>
      <trkpt lat="49.59573246538639068603515625" lon="19.5154783688485622406005859375"><ele>970.5999755859375</ele><time>2026-03-08T09:30:54.000Z</time></trkpt>
      <trkpt lat="49.59524924866855144500732421875" lon="19.5158589072525501251220703125"><ele>978.4000244140625</ele><time>2026-03-08T09:31:50.000Z</time></trkpt>
      <trkpt lat="49.59488916210830211639404296875" lon="19.5159913413226604461669921875"><ele>985.79998779296875</ele><time>2026-03-08T09:32:38.000Z</time></trkpt>
      <trkpt lat="49.5946610905230045318603515625" lon="19.516106508672237396240234375"><ele>993.4000244140625</ele><time>2026-03-08T09:33:17.000Z</time></trkpt>
      <trkpt lat="49.59439177997410297393798828125" lon="19.51620482839643955230712890625"><ele>997.79998779296875</ele><time>2026-03-08T09:33:45.000Z</time></trkpt>
      <trkpt lat="49.5942309312522411346435546875" lon="19.51631940901279449462890625"><ele>1004.20001220703125</ele><time>2026-03-08T09:34:25.000Z</time></trkpt>
      <trkpt lat="49.59404057823121547698974609375" lon="19.51641186140477657318115234375"><ele>1010.5999755859375</ele><time>2026-03-08T09:35:00.000Z</time></trkpt>
      <trkpt lat="49.5938316173851490020751953125" lon="19.51649702154099941253662109375"><ele>1017.4000244140625</ele><time>2026-03-08T09:35:35.000Z</time></trkpt>
      <trkpt lat="49.59354654885828495025634765625" lon="19.51668863184750080108642578125"><ele>1022.79998779296875</ele><time>2026-03-08T09:36:14.000Z</time></trkpt>
      <trkpt lat="49.59336214698851108551025390625" lon="19.516769684851169586181640625"><ele>1028.4000244140625</ele><time>2026-03-08T09:36:54.000Z</time></trkpt>
      <trkpt lat="49.59324966184794902801513671875" lon="19.516904465854167938232421875"><ele>1034.800048828125</ele><time>2026-03-08T09:37:27.000Z</time></trkpt>
      <trkpt lat="49.59308621473610401153564453125" lon="19.51694168150424957275390625"><ele>1040.199951171875</ele><time>2026-03-08T09:38:15.000Z</time></trkpt>
      <trkpt lat="49.592742137610912322998046875" lon="19.5170846767723560333251953125"><ele>1049.800048828125</ele><time>2026-03-08T09:39:08.000Z</time></trkpt>
      <trkpt lat="49.5925290696322917938232421875" lon="19.517225325107574462890625"><ele>1056.5999755859375</ele><time>2026-03-08T09:39:46.000Z</time></trkpt>
      <trkpt lat="49.592390097677707672119140625" lon="19.51744685880839824676513671875"><ele>1063.199951171875</ele><time>2026-03-08T09:40:33.000Z</time></trkpt>
      <trkpt lat="49.592143334448337554931640625" lon="19.5175061188638210296630859375"><ele>1069.800048828125</ele><time>2026-03-08T09:41:17.000Z</time></trkpt>
      <trkpt lat="49.591905958950519561767578125" lon="19.51751458458602428436279296875"><ele>1075.4000244140625</ele><time>2026-03-08T09:42:00.000Z</time></trkpt>
      <trkpt lat="49.59170856513082981109619140625" lon="19.5175372995436191558837890625"><ele>1081.800048828125</ele><time>2026-03-08T09:42:42.000Z</time></trkpt>
      <trkpt lat="49.5915805734694004058837890625" lon="19.51763930730521678924560546875"><ele>1085</ele><time>2026-03-08T09:43:13.000Z</time></trkpt>
      <trkpt lat="49.59151594899594783782958984375" lon="19.5179500244557857513427734375"><ele>1090.5999755859375</ele><time>2026-03-08T09:43:47.000Z</time></trkpt>
      <trkpt lat="49.59142710082232952117919921875" lon="19.51813568361103534698486328125"><ele>1094.800048828125</ele><time>2026-03-08T09:44:54.000Z</time></trkpt>
      <trkpt lat="49.59136725403368473052978515625" lon="19.51817507855594158172607421875"><ele>1099.199951171875</ele><time>2026-03-08T09:46:39.000Z</time></trkpt>
      <trkpt lat="49.59112736396491527557373046875" lon="19.5184056647121906280517578125"><ele>1104.800048828125</ele><time>2026-03-08T09:47:10.000Z</time></trkpt>
      <trkpt lat="49.59107539616525173187255859375" lon="19.518367610871791839599609375"><ele>1106.199951171875</ele><time>2026-03-08T09:47:39.000Z</time></trkpt>
      <trkpt lat="49.5910920761525630950927734375" lon="19.5183692872524261474609375"><ele>1106.800048828125</ele><time>2026-03-08T09:48:43.000Z</time></trkpt>
      <trkpt lat="49.590904824435710906982421875" lon="19.51835528947412967681884765625"><ele>1113.199951171875</ele><time>2026-03-08T09:49:15.000Z</time></trkpt>
      <trkpt lat="49.59082175977528095245361328125" lon="19.51846475712954998016357421875"><ele>1118</ele><time>2026-03-08T09:49:49.000Z</time></trkpt>
      <trkpt lat="49.59063232876360416412353515625" lon="19.5186822675168514251708984375"><ele>1124.5999755859375</ele><time>2026-03-08T09:50:27.000Z</time></trkpt>
      <trkpt lat="49.59048044867813587188720703125" lon="19.5184130407869815826416015625"><ele>1130.5999755859375</ele><time>2026-03-08T09:50:55.000Z</time></trkpt>
      <trkpt lat="49.59040719084441661834716796875" lon="19.518422596156597137451171875"><ele>1135.5999755859375</ele><time>2026-03-08T09:51:30.000Z</time></trkpt>
      <trkpt lat="49.59025564603507518768310546875" lon="19.51857288368046283721923828125"><ele>1139.800048828125</ele><time>2026-03-08T09:52:07.000Z</time></trkpt>
      <trkpt lat="49.58999429829418659210205078125" lon="19.5187275297939777374267578125"><ele>1147.5999755859375</ele><time>2026-03-08T09:52:44.000Z</time></trkpt>
      <trkpt lat="49.5898233912885189056396484375" lon="19.51880523003637790679931640625"><ele>1153.199951171875</ele><time>2026-03-08T09:53:12.000Z</time></trkpt>
      <trkpt lat="49.58971937187016010284423828125" lon="19.51874672435224056243896484375"><ele>1156.4000244140625</ele><time>2026-03-08T09:53:36.000Z</time></trkpt>
      <trkpt lat="49.5894076488912105560302734375" lon="19.5187580399215221405029296875"><ele>1163.199951171875</ele><time>2026-03-08T09:54:21.000Z</time></trkpt>
      <trkpt lat="49.5892390049993991851806640625" lon="19.51852024532854557037353515625"><ele>1165.5999755859375</ele><time>2026-03-08T09:54:44.000Z</time></trkpt>
      <trkpt lat="49.5889942534267902374267578125" lon="19.51832058839499950408935546875"><ele>1166.5999755859375</ele><time>2026-03-08T09:55:44.000Z</time></trkpt>
      <trkpt lat="49.5888071693480014801025390625" lon="19.5182735659182071685791015625"><ele>1167.199951171875</ele><time>2026-03-08T09:56:14.000Z</time></trkpt>
      <trkpt lat="49.588590748608112335205078125" lon="19.51823006384074687957763671875"><ele>1168.5999755859375</ele><time>2026-03-08T09:57:05.000Z</time></trkpt>
      <trkpt lat="49.5883629284799098968505859375" lon="19.5179791934788227081298828125"><ele>1173.4000244140625</ele><time>2026-03-08T09:57:36.000Z</time></trkpt>
      <trkpt lat="49.5881781913340091705322265625" lon="19.51782236807048320770263671875"><ele>1179.4000244140625</ele><time>2026-03-08T09:58:11.000Z</time></trkpt>
      <trkpt lat="49.58798096515238285064697265625" lon="19.51753403060138225555419921875"><ele>1182</ele><time>2026-03-08T09:58:42.000Z</time></trkpt>
      <trkpt lat="49.58782439120113849639892578125" lon="19.51739338226616382598876953125"><ele>1187.4000244140625</ele><time>2026-03-08T09:59:13.000Z</time></trkpt>
      <trkpt lat="49.58771022967994213104248046875" lon="19.5170816592872142791748046875"><ele>1192</ele><time>2026-03-08T09:59:47.000Z</time></trkpt>
      <trkpt lat="49.58772338926792144775390625" lon="19.5168731175363063812255859375"><ele>1193.800048828125</ele><time>2026-03-08T10:00:42.000Z</time></trkpt>
      <trkpt lat="49.5861447416245937347412109375" lon="19.51760393567383289337158203125"><ele>1194.4000244140625</ele><time>2026-03-08T10:02:32.000Z</time></trkpt>
      <trkpt lat="49.588262178003787994384765625" lon="19.516804218292236328125"><ele>1192</ele><time>2026-03-08T10:16:47.000Z</time></trkpt>
      <trkpt lat="49.5879815518856048583984375" lon="19.51662844978272914886474609375"><ele>1193.199951171875</ele><time>2026-03-08T10:19:36.000Z</time></trkpt>
      <trkpt lat="49.58752733655273914337158203125" lon="19.5167644880712032318115234375"><ele>1193.5999755859375</ele><time>2026-03-08T10:20:10.000Z</time></trkpt>
      <trkpt lat="49.58775633014738559722900390625" lon="19.51658251695334911346435546875"><ele>1193.4000244140625</ele><time>2026-03-08T10:21:47.000Z</time></trkpt>
      <trkpt lat="49.58768608979880809783935546875" lon="19.51656441204249858856201171875"><ele>1193.199951171875</ele><time>2026-03-08T10:22:15.000Z</time></trkpt>
      <trkpt lat="49.58731661550700664520263671875" lon="19.5171044580638408660888671875"><ele>1192.4000244140625</ele><time>2026-03-08T10:24:01.000Z</time></trkpt>
      <trkpt lat="49.58824776113033294677734375" lon="19.516678489744663238525390625"><ele>1191.5999755859375</ele><time>2026-03-08T10:25:09.000Z</time></trkpt>
      <trkpt lat="49.58768961019814014434814453125" lon="19.51687554828822612762451171875"><ele>1192</ele><time>2026-03-08T10:25:53.000Z</time></trkpt>
      <trkpt lat="49.587597660720348358154296875" lon="19.51677831821143627166748046875"><ele>1195.4000244140625</ele><time>2026-03-08T10:26:41.000Z</time></trkpt>
      <trkpt lat="49.5873420126736164093017578125" lon="19.516624510288238525390625"><ele>1200.5999755859375</ele><time>2026-03-08T10:27:15.000Z</time></trkpt>
      <trkpt lat="49.587128944694995880126953125" lon="19.5165844447910785675048828125"><ele>1207.199951171875</ele><time>2026-03-08T10:27:49.000Z</time></trkpt>
      <trkpt lat="49.5869193971157073974609375" lon="19.5163423754274845123291015625"><ele>1213.800048828125</ele><time>2026-03-08T10:28:26.000Z</time></trkpt>
      <trkpt lat="49.58680079318583011627197265625" lon="19.51609066687524318695068359375"><ele>1219.5999755859375</ele><time>2026-03-08T10:28:56.000Z</time></trkpt>
      <trkpt lat="49.58658336661756038665771484375" lon="19.51585982926189899444580078125"><ele>1225.800048828125</ele><time>2026-03-08T10:29:40.000Z</time></trkpt>
      <trkpt lat="49.586282037198543548583984375" lon="19.51582428999245166778564453125"><ele>1233</ele><time>2026-03-08T10:30:25.000Z</time></trkpt>
      <trkpt lat="49.58594634197652339935302734375" lon="19.5158119685947895050048828125"><ele>1238.199951171875</ele><time>2026-03-08T10:31:08.000Z</time></trkpt>
      <trkpt lat="49.58564962260425090789794921875" lon="19.51590023003518581390380859375"><ele>1242.5999755859375</ele><time>2026-03-08T10:31:42.000Z</time></trkpt>
      <trkpt lat="49.58544527180492877960205078125" lon="19.5159423910081386566162109375"><ele>1247.5999755859375</ele><time>2026-03-08T10:32:13.000Z</time></trkpt>
      <trkpt lat="49.5851147733628749847412109375" lon="19.5160409621894359588623046875"><ele>1252</ele><time>2026-03-08T10:32:52.000Z</time></trkpt>
      <trkpt lat="49.58482953719794750213623046875" lon="19.51598941348493099212646484375"><ele>1257.199951171875</ele><time>2026-03-08T10:33:28.000Z</time></trkpt>
      <trkpt lat="49.58462183363735675811767578125" lon="19.51584734022617340087890625"><ele>1263.199951171875</ele><time>2026-03-08T10:33:59.000Z</time></trkpt>
      <trkpt lat="49.58433718420565128326416015625" lon="19.51564173214137554168701171875"><ele>1268.4000244140625</ele><time>2026-03-08T10:34:37.000Z</time></trkpt>
      <trkpt lat="49.584194608032703399658203125" lon="19.5154515467584133148193359375"><ele>1272.800048828125</ele><time>2026-03-08T10:35:14.000Z</time></trkpt>
      <trkpt lat="49.5841310732066631317138671875" lon="19.51509841717779636383056640625"><ele>1278.800048828125</ele><time>2026-03-08T10:35:50.000Z</time></trkpt>
      <trkpt lat="49.58412243984639644622802734375" lon="19.51484595425426959991455078125"><ele>1285</ele><time>2026-03-08T10:36:22.000Z</time></trkpt>
      <trkpt lat="49.58411791361868381500244140625" lon="19.5145945809781551361083984375"><ele>1289.800048828125</ele><time>2026-03-08T10:36:53.000Z</time></trkpt>
      <trkpt lat="49.58408505655825138092041015625" lon="19.514421410858631134033203125"><ele>1294.5999755859375</ele><time>2026-03-08T10:37:28.000Z</time></trkpt>
      <trkpt lat="49.5840633474290370941162109375" lon="19.5141335763037204742431640625"><ele>1300.199951171875</ele><time>2026-03-08T10:37:58.000Z</time></trkpt>
      <trkpt lat="49.58405815064907073974609375" lon="19.5135351084172725677490234375"><ele>1304.4000244140625</ele><time>2026-03-08T10:38:42.000Z</time></trkpt>
      <trkpt lat="49.583917669951915740966796875" lon="19.51315582729876041412353515625"><ele>1309.5999755859375</ele><time>2026-03-08T10:39:20.000Z</time></trkpt>
      <trkpt lat="49.58385924808681011199951171875" lon="19.51275399886071681976318359375"><ele>1315</ele><time>2026-03-08T10:39:52.000Z</time></trkpt>
      <trkpt lat="49.58385698497295379638671875" lon="19.512343369424343109130859375"><ele>1317.199951171875</ele><time>2026-03-08T10:40:24.000Z</time></trkpt>
      <trkpt lat="49.58370015956461429595947265625" lon="19.51171648688614368438720703125"><ele>1316.800048828125</ele><time>2026-03-08T10:41:08.000Z</time></trkpt>
      <trkpt lat="49.58339698612689971923828125" lon="19.5117051713168621063232421875"><ele>1317.199951171875</ele><time>2026-03-08T10:41:46.000Z</time></trkpt>
      <trkpt lat="49.58320244215428829193115234375" lon="19.51164926402270793914794921875"><ele>1323.5999755859375</ele><time>2026-03-08T10:42:17.000Z</time></trkpt>
      <trkpt lat="49.5829787291586399078369140625" lon="19.5115620084106922149658203125"><ele>1328.199951171875</ele><time>2026-03-08T10:42:49.000Z</time></trkpt>
      <trkpt lat="49.5828845165669918060302734375" lon="19.51156158931553363800048828125"><ele>1333</ele><time>2026-03-08T10:43:12.000Z</time></trkpt>
      <trkpt lat="49.58277630619704723358154296875" lon="19.51151297427713871002197265625"><ele>1340.199951171875</ele><time>2026-03-08T10:43:46.000Z</time></trkpt>
      <trkpt lat="49.5826417766511440277099609375" lon="19.5114238746464252471923828125"><ele>1347.199951171875</ele><time>2026-03-08T10:44:24.000Z</time></trkpt>
      <trkpt lat="49.582549072802066802978515625" lon="19.51134793460369110107421875"><ele>1351</ele><time>2026-03-08T10:44:49.000Z</time></trkpt>
      <trkpt lat="49.5824556984007358551025390625" lon="19.5111911930143833160400390625"><ele>1357.4000244140625</ele><time>2026-03-08T10:45:27.000Z</time></trkpt>
      <trkpt lat="49.5823971927165985107421875" lon="19.5110104791820049285888671875"><ele>1361.800048828125</ele><time>2026-03-08T10:46:16.000Z</time></trkpt>
      <trkpt lat="49.58229954354465007781982421875" lon="19.5108295977115631103515625"><ele>1369.4000244140625</ele><time>2026-03-08T10:47:21.000Z</time></trkpt>
      <trkpt lat="49.58214850164949893951416015625" lon="19.5107325352728366851806640625"><ele>1378.5999755859375</ele><time>2026-03-08T10:48:03.000Z</time></trkpt>
      <trkpt lat="49.58203886635601520538330078125" lon="19.51066397130489349365234375"><ele>1383.4000244140625</ele><time>2026-03-08T10:48:29.000Z</time></trkpt>
      <trkpt lat="49.58198756910860538482666015625" lon="19.51056129299104213714599609375"><ele>1384.5999755859375</ele><time>2026-03-08T10:50:12.000Z</time></trkpt>
      <trkpt lat="49.58180048502981662750244140625" lon="19.51062348671257495880126953125"><ele>1394.4000244140625</ele><time>2026-03-08T10:51:20.000Z</time></trkpt>
      <trkpt lat="49.5817670412361621856689453125" lon="19.510637484490871429443359375"><ele>1398.199951171875</ele><time>2026-03-08T10:52:05.000Z</time></trkpt>
      <trkpt lat="49.58174516446888446807861328125" lon="19.51063086278736591339111328125"><ele>1399.800048828125</ele><time>2026-03-08T10:53:57.000Z</time></trkpt>
      <trkpt lat="49.58157752640545368194580078125" lon="19.5102819241583347320556640625"><ele>1405.4000244140625</ele><time>2026-03-08T10:54:59.000Z</time></trkpt>
      <trkpt lat="49.58145909011363983154296875" lon="19.51035912148654460906982421875"><ele>1407.199951171875</ele><time>2026-03-08T10:56:18.000Z</time></trkpt>
      <trkpt lat="49.58123805932700634002685546875" lon="19.51049792580306529998779296875"><ele>1410.800048828125</ele><time>2026-03-08T10:57:34.000Z</time></trkpt>
      <trkpt lat="49.58073933608829975128173828125" lon="19.511092118918895721435546875"><ele>1414.5999755859375</ele><time>2026-03-08T10:58:40.000Z</time></trkpt>
      <trkpt lat="49.58051168359816074371337890625" lon="19.51134122908115386962890625"><ele>1417.199951171875</ele><time>2026-03-08T10:59:08.000Z</time></trkpt>
      <trkpt lat="49.580228626728057861328125" lon="19.51168161816895008087158203125"><ele>1422.199951171875</ele><time>2026-03-08T10:59:42.000Z</time></trkpt>
      <trkpt lat="49.57998429425060749053955078125" lon="19.51199962757527828216552734375"><ele>1427</ele><time>2026-03-08T11:00:16.000Z</time></trkpt>
      <trkpt lat="49.5798046700656414031982421875" lon="19.51217279769480228424072265625"><ele>1430.5999755859375</ele><time>2026-03-08T11:00:39.000Z</time></trkpt>
      <trkpt lat="49.57968321628868579864501953125" lon="19.51233993284404277801513671875"><ele>1432.800048828125</ele><time>2026-03-08T11:00:58.000Z</time></trkpt>
      <trkpt lat="49.5793406479060649871826171875" lon="19.51270504854619503021240234375"><ele>1440.199951171875</ele><time>2026-03-08T11:01:46.000Z</time></trkpt>
      <trkpt lat="49.579086340963840484619140625" lon="19.51300210319459438323974609375"><ele>1446.800048828125</ele><time>2026-03-08T11:02:31.000Z</time></trkpt>
      <trkpt lat="49.57890319637954235076904296875" lon="19.513214416801929473876953125"><ele>1452</ele><time>2026-03-08T11:03:02.000Z</time></trkpt>
      <trkpt lat="49.5786823332309722900390625" lon="19.51345221139490604400634765625"><ele>1458.4000244140625</ele><time>2026-03-08T11:03:47.000Z</time></trkpt>
      <trkpt lat="49.57850539125502109527587890625" lon="19.5137263834476470947265625"><ele>1465.199951171875</ele><time>2026-03-08T11:04:34.000Z</time></trkpt>
      <trkpt lat="49.57846482284367084503173828125" lon="19.51375379227101802825927734375"><ele>1467.4000244140625</ele><time>2026-03-08T11:05:47.000Z</time></trkpt>
      <trkpt lat="49.5783797465264797210693359375" lon="19.51386141590774059295654296875"><ele>1472</ele><time>2026-03-08T11:06:52.000Z</time></trkpt>
      <trkpt lat="49.578201211988925933837890625" lon="19.5140685327351093292236328125"><ele>1481.199951171875</ele><time>2026-03-08T11:07:42.000Z</time></trkpt>
      <trkpt lat="49.57812066189944744110107421875" lon="19.5141610689461231231689453125"><ele>1491.4000244140625</ele><time>2026-03-08T11:08:56.000Z</time></trkpt>
      <trkpt lat="49.57810222171247005462646484375" lon="19.51418143697082996368408203125"><ele>1498</ele><time>2026-03-08T11:09:43.000Z</time></trkpt>
      <trkpt lat="49.5780810154974460601806640625" lon="19.5142053253948688507080078125"><ele>1504.5999755859375</ele><time>2026-03-08T11:10:24.000Z</time></trkpt>
      <trkpt lat="49.57777298055589199066162109375" lon="19.51456046663224697113037109375"><ele>1510.199951171875</ele><time>2026-03-08T11:10:49.000Z</time></trkpt>
      <trkpt lat="49.57749470137059688568115234375" lon="19.51488400809466838836669921875"><ele>1515.199951171875</ele><time>2026-03-08T11:11:20.000Z</time></trkpt>
      <trkpt lat="49.57749201916158199310302734375" lon="19.51487327925860881805419921875"><ele>1516.5999755859375</ele><time>2026-03-08T11:11:53.000Z</time></trkpt>
      <trkpt lat="49.57727693952620029449462890625" lon="19.51495206914842128753662109375"><ele>1518.199951171875</ele><time>2026-03-08T11:13:52.000Z</time></trkpt>
      <trkpt lat="49.57704492844641208648681640625" lon="19.5150837488472461700439453125"><ele>1521.5999755859375</ele><time>2026-03-08T11:14:39.000Z</time></trkpt>
      <trkpt lat="49.5768193714320659637451171875" lon="19.51500319875776767730712890625"><ele>1524.4000244140625</ele><time>2026-03-08T11:15:29.000Z</time></trkpt>
      <trkpt lat="49.5765776373445987701416015625" lon="19.51501057483255863189697265625"><ele>1531.199951171875</ele><time>2026-03-08T11:16:11.000Z</time></trkpt>
      <trkpt lat="49.576457440853118896484375" lon="19.51522598974406719207763671875"><ele>1536</ele><time>2026-03-08T11:16:54.000Z</time></trkpt>
      <trkpt lat="49.57622584886848926544189453125" lon="19.515411145985126495361328125"><ele>1543.5999755859375</ele><time>2026-03-08T11:17:30.000Z</time></trkpt>
      <trkpt lat="49.57607614807784557342529296875" lon="19.515434615314006805419921875"><ele>1550.4000244140625</ele><time>2026-03-08T11:18:04.000Z</time></trkpt>
      <trkpt lat="49.57596165128052234649658203125" lon="19.51547124423086643218994140625"><ele>1557.4000244140625</ele><time>2026-03-08T11:18:46.000Z</time></trkpt>
      <trkpt lat="49.57574254833161830902099609375" lon="19.51556948013603687286376953125"><ele>1562.800048828125</ele><time>2026-03-08T11:19:14.000Z</time></trkpt>
      <trkpt lat="49.5756100304424762725830078125" lon="19.5156336016952991485595703125"><ele>1566.199951171875</ele><time>2026-03-08T11:19:36.000Z</time></trkpt>
      <trkpt lat="49.57548270933330059051513671875" lon="19.51563251204788684844970703125"><ele>1571.5999755859375</ele><time>2026-03-08T11:20:11.000Z</time></trkpt>
      <trkpt lat="49.5753592438995838165283203125" lon="19.5157635211944580078125"><ele>1574.199951171875</ele><time>2026-03-08T11:21:09.000Z</time></trkpt>
      <trkpt lat="49.57517107017338275909423828125" lon="19.51600768603384494781494140625"><ele>1580</ele><time>2026-03-08T11:21:46.000Z</time></trkpt>
      <trkpt lat="49.5749674737453460693359375" lon="19.5161861367523670196533203125"><ele>1584.5999755859375</ele><time>2026-03-08T11:22:30.000Z</time></trkpt>
      <trkpt lat="49.5748502947390079498291015625" lon="19.516407586634159088134765625"><ele>1587.800048828125</ele><time>2026-03-08T11:23:22.000Z</time></trkpt>
      <trkpt lat="49.5745787210762500762939453125" lon="19.51664387248456478118896484375"><ele>1592.5999755859375</ele><time>2026-03-08T11:23:55.000Z</time></trkpt>
      <trkpt lat="49.57427613437175750732421875" lon="19.51696774922311305999755859375"><ele>1596.5999755859375</ele><time>2026-03-08T11:24:40.000Z</time></trkpt>
      <trkpt lat="49.57402761094272136688232421875" lon="19.5173230580985546112060546875"><ele>1599.4000244140625</ele><time>2026-03-08T11:25:30.000Z</time></trkpt>
      <trkpt lat="49.573587477207183837890625" lon="19.51800911687314510345458984375"><ele>1601</ele><time>2026-03-08T11:26:35.000Z</time></trkpt>
      <trkpt lat="49.57339494489133358001708984375" lon="19.51830147765576839447021484375"><ele>1602</ele><time>2026-03-08T11:27:15.000Z</time></trkpt>
      <trkpt lat="49.573116414248943328857421875" lon="19.51929406262934207916259765625"><ele>1601</ele><time>2026-03-08T11:28:27.000Z</time></trkpt>
      <trkpt lat="49.57290192134678363800048828125" lon="19.52012454159557819366455078125"><ele>1604.199951171875</ele><time>2026-03-08T11:29:18.000Z</time></trkpt>
      <trkpt lat="49.57257829606533050537109375" lon="19.5208370871841907501220703125"><ele>1607.4000244140625</ele><time>2026-03-08T11:30:09.000Z</time></trkpt>
      <trkpt lat="49.57229339517652988433837890625" lon="19.5215317793190479278564453125"><ele>1612.5999755859375</ele><time>2026-03-08T11:31:02.000Z</time></trkpt>
      <trkpt lat="49.57226254977285861968994140625" lon="19.5218305103480815887451171875"><ele>1619.4000244140625</ele><time>2026-03-08T11:31:37.000Z</time></trkpt>
      <trkpt lat="49.57222868688404560089111328125" lon="19.5221151597797870635986328125"><ele>1623</ele><time>2026-03-08T11:32:09.000Z</time></trkpt>
      <trkpt lat="49.57218862138688564300537109375" lon="19.52274204231798648834228515625"><ele>1628.5999755859375</ele><time>2026-03-08T11:33:02.000Z</time></trkpt>
      <trkpt lat="49.57214738242328166961669921875" lon="19.5235042087733745574951171875"><ele>1632.4000244140625</ele><time>2026-03-08T11:33:54.000Z</time></trkpt>
      <trkpt lat="49.572179652750492095947265625" lon="19.5238394849002361297607421875"><ele>1637.5999755859375</ele><time>2026-03-08T11:34:41.000Z</time></trkpt>
      <trkpt lat="49.57213145680725574493408203125" lon="19.5240716636180877685546875"><ele>1642.4000244140625</ele><time>2026-03-08T11:35:23.000Z</time></trkpt>
      <trkpt lat="49.57216917537152767181396484375" lon="19.524483717978000640869140625"><ele>1649.199951171875</ele><time>2026-03-08T11:36:07.000Z</time></trkpt>
      <trkpt lat="49.57216791808605194091796875" lon="19.52473886311054229736328125"><ele>1652.4000244140625</ele><time>2026-03-08T11:36:42.000Z</time></trkpt>
      <trkpt lat="49.5721654035151004791259765625" lon="19.5249814353883266448974609375"><ele>1657.800048828125</ele><time>2026-03-08T11:37:25.000Z</time></trkpt>
      <trkpt lat="49.5721754617989063262939453125" lon="19.525093249976634979248046875"><ele>1662.5999755859375</ele><time>2026-03-08T11:38:01.000Z</time></trkpt>
      <trkpt lat="49.57215995527803897857666015625" lon="19.52544101513922214508056640625"><ele>1673</ele><time>2026-03-08T11:38:56.000Z</time></trkpt>
      <trkpt lat="49.57221996970474720001220703125" lon="19.525936804711818695068359375"><ele>1679.5999755859375</ele><time>2026-03-08T11:39:45.000Z</time></trkpt>
      <trkpt lat="49.57237939350306987762451171875" lon="19.52635757625102996826171875"><ele>1684</ele><time>2026-03-08T11:40:39.000Z</time></trkpt>
      <trkpt lat="49.57246706821024417877197265625" lon="19.52668203972280025482177734375"><ele>1687.800048828125</ele><time>2026-03-08T11:41:28.000Z</time></trkpt>
      <trkpt lat="49.57268533296883106231689453125" lon="19.52735426835715770721435546875"><ele>1690</ele><time>2026-03-08T11:42:18.000Z</time></trkpt>
      <trkpt lat="49.572840817272663116455078125" lon="19.5279060490429401397705078125"><ele>1688</ele><time>2026-03-08T11:42:55.000Z</time></trkpt>
      <trkpt lat="49.5729740895330905914306640625" lon="19.52834048308432102203369140625"><ele>1692.199951171875</ele><time>2026-03-08T11:43:29.000Z</time></trkpt>
      <trkpt lat="49.57300066016614437103271484375" lon="19.5287360250949859619140625"><ele>1698.5999755859375</ele><time>2026-03-08T11:44:08.000Z</time></trkpt>
      <trkpt lat="49.573039971292018890380859375" lon="19.52888958156108856201171875"><ele>1704.5999755859375</ele><time>2026-03-08T11:44:43.000Z</time></trkpt>
      <trkpt lat="49.57301993854343891143798828125" lon="19.52889385633170604705810546875"><ele>1708.4000244140625</ele><time>2026-03-08T11:45:07.000Z</time></trkpt>
      <trkpt lat="49.57299378700554370880126953125" lon="19.529019333422183990478515625"><ele>1712.199951171875</ele><time>2026-03-08T11:45:28.000Z</time></trkpt>
      <trkpt lat="49.57298976369202136993408203125" lon="19.52909301035106182098388671875"><ele>1716.199951171875</ele><time>2026-03-08T11:45:44.000Z</time></trkpt>
      <trkpt lat="49.573002420365810394287109375" lon="19.5292682759463787078857421875"><ele>1717</ele><time>2026-03-08T11:46:11.000Z</time></trkpt>
      <trkpt lat="49.57298196852207183837890625" lon="19.5292464829981327056884765625"><ele>1719.4000244140625</ele><time>2026-03-08T11:46:45.000Z</time></trkpt>
      <trkpt lat="49.57306109368801116943359375" lon="19.52944756485521793365478515625"><ele>1720</ele><time>2026-03-08T11:47:34.000Z</time></trkpt>
      <trkpt lat="49.57297098822891712188720703125" lon="19.52942694537341594696044921875"><ele>1717.4000244140625</ele><time>2026-03-08T11:48:26.000Z</time></trkpt>
      <trkpt lat="49.57314197905361652374267578125" lon="19.52948494814336299896240234375"><ele>1720</ele><time>2026-03-08T11:49:03.000Z</time></trkpt>
      <trkpt lat="49.57312303595244884490966796875" lon="19.529519565403461456298828125"><ele>1720.5999755859375</ele><time>2026-03-08T11:51:09.000Z</time></trkpt>
      <trkpt lat="49.5731259696185588836669921875" lon="19.52959139831364154815673828125"><ele>1719</ele><time>2026-03-08T11:52:43.000Z</time></trkpt>
      <trkpt lat="49.57321557216346263885498046875" lon="19.529578574001789093017578125"><ele>1720.800048828125</ele><time>2026-03-08T11:53:37.000Z</time></trkpt>
      <trkpt lat="49.57315958105027675628662109375" lon="19.52950137667357921600341796875"><ele>1721.4000244140625</ele><time>2026-03-08T11:55:30.000Z</time></trkpt>
      <trkpt lat="49.57316176034510135650634765625" lon="19.5295006223022937774658203125"><ele>1720</ele><time>2026-03-08T11:57:22.000Z</time></trkpt>
      <trkpt lat="49.57316108979284763336181640625" lon="19.5295031368732452392578125"><ele>1722</ele><time>2026-03-08T11:59:16.000Z</time></trkpt>
      <trkpt lat="49.5731343515217304229736328125" lon="19.5293772406876087188720703125"><ele>1722.199951171875</ele><time>2026-03-08T12:01:01.000Z</time></trkpt>
      <trkpt lat="49.5729690603911876678466796875" lon="19.5290525257587432861328125"><ele>1718</ele><time>2026-03-08T12:01:45.000Z</time></trkpt>
      <trkpt lat="49.5730577409267425537109375" lon="19.528996534645557403564453125"><ele>1712.5999755859375</ele><time>2026-03-08T12:02:08.000Z</time></trkpt>
      <trkpt lat="49.57303368486464023590087890625" lon="19.52881858684122562408447265625"><ele>1705.4000244140625</ele><time>2026-03-08T12:03:24.000Z</time></trkpt>
      <trkpt lat="49.57305698655545711517333984375" lon="19.5286959595978260040283203125"><ele>1700.4000244140625</ele><time>2026-03-08T12:04:13.000Z</time></trkpt>
      <trkpt lat="49.57298808731138706207275390625" lon="19.52859713695943355560302734375"><ele>1700.5999755859375</ele><time>2026-03-08T12:04:56.000Z</time></trkpt>
      <trkpt lat="49.57296730019152164459228515625" lon="19.52834702096879482269287109375"><ele>1697.5999755859375</ele><time>2026-03-08T12:05:43.000Z</time></trkpt>
      <trkpt lat="49.57283712923526763916015625" lon="19.52785315923392772674560546875"><ele>1694</ele><time>2026-03-08T12:06:22.000Z</time></trkpt>
      <trkpt lat="49.57261408679187297821044921875" lon="19.5270510949194431304931640625"><ele>1698</ele><time>2026-03-08T12:07:10.000Z</time></trkpt>
      <trkpt lat="49.57242432050406932830810546875" lon="19.5265216939151287078857421875"><ele>1693.5999755859375</ele><time>2026-03-08T12:07:45.000Z</time></trkpt>
      <trkpt lat="49.57220018841326236724853515625" lon="19.52586296014487743377685546875"><ele>1687.199951171875</ele><time>2026-03-08T12:08:30.000Z</time></trkpt>
      <trkpt lat="49.57216481678187847137451171875" lon="19.52549046836793422698974609375"><ele>1680</ele><time>2026-03-08T12:09:08.000Z</time></trkpt>
      <trkpt lat="49.5721781440079212188720703125" lon="19.52526985667645931243896484375"><ele>1670.5999755859375</ele><time>2026-03-08T12:09:38.000Z</time></trkpt>
      <trkpt lat="49.57218174822628498077392578125" lon="19.52510691247880458831787109375"><ele>1667.199951171875</ele><time>2026-03-08T12:09:58.000Z</time></trkpt>
      <trkpt lat="49.572184346616268157958984375" lon="19.52490172348916530609130859375"><ele>1660.199951171875</ele><time>2026-03-08T12:10:24.000Z</time></trkpt>
      <trkpt lat="49.57216766662895679473876953125" lon="19.52471874654293060302734375"><ele>1656.800048828125</ele><time>2026-03-08T12:10:42.000Z</time></trkpt>
      <trkpt lat="49.57217588089406490325927734375" lon="19.5247088558971881866455078125"><ele>1656.4000244140625</ele><time>2026-03-08T12:11:14.000Z</time></trkpt>
      <trkpt lat="49.572176970541477203369140625" lon="19.52469603158533573150634765625"><ele>1655</ele><time>2026-03-08T12:11:27.000Z</time></trkpt>
      <trkpt lat="49.5721932314336299896240234375" lon="19.5245737396180629730224609375"><ele>1654</ele><time>2026-03-08T12:12:09.000Z</time></trkpt>
      <trkpt lat="49.572095163166522979736328125" lon="19.52409152872860431671142578125"><ele>1649.199951171875</ele><time>2026-03-08T12:13:13.000Z</time></trkpt>
      <trkpt lat="49.57214486785233020782470703125" lon="19.52384996227920055389404296875"><ele>1643.5999755859375</ele><time>2026-03-08T12:13:34.000Z</time></trkpt>
      <trkpt lat="49.5721323788166046142578125" lon="19.5233603753149509429931640625"><ele>1637.4000244140625</ele><time>2026-03-08T12:14:17.000Z</time></trkpt>
      <trkpt lat="49.5721898786723613739013671875" lon="19.5224353484809398651123046875"><ele>1631.4000244140625</ele><time>2026-03-08T12:15:11.000Z</time></trkpt>
      <trkpt lat="49.5722596161067485809326171875" lon="19.5219109766185283660888671875"><ele>1626</ele><time>2026-03-08T12:15:46.000Z</time></trkpt>
      <trkpt lat="49.572286270558834075927734375" lon="19.52160947956144809722900390625"><ele>1621</ele><time>2026-03-08T12:16:30.000Z</time></trkpt>
      <trkpt lat="49.57240437157452106475830078125" lon="19.521281160414218902587890625"><ele>1615</ele><time>2026-03-08T12:17:10.000Z</time></trkpt>
      <trkpt lat="49.57271031104028224945068359375" lon="19.52057163231074810028076171875"><ele>1611.800048828125</ele><time>2026-03-08T12:18:32.000Z</time></trkpt>
      <trkpt lat="49.573008120059967041015625" lon="19.5196622796356678009033203125"><ele>1606.800048828125</ele><time>2026-03-08T12:19:28.000Z</time></trkpt>
      <trkpt lat="49.573231078684329986572265625" lon="19.5187919028103351593017578125"><ele>1608.199951171875</ele><time>2026-03-08T12:20:20.000Z</time></trkpt>
      <trkpt lat="49.57350458018481731414794921875" lon="19.51808589510619640350341796875"><ele>1607.800048828125</ele><time>2026-03-08T12:21:08.000Z</time></trkpt>
      <trkpt lat="49.57404638640582561492919921875" lon="19.51728106476366519927978515625"><ele>1605.199951171875</ele><time>2026-03-08T12:22:15.000Z</time></trkpt>
      <trkpt lat="49.5744456164538860321044921875" lon="19.51676054857671260833740234375"><ele>1600.5999755859375</ele><time>2026-03-08T12:23:04.000Z</time></trkpt>
      <trkpt lat="49.5747342891991138458251953125" lon="19.51653105206787586212158203125"><ele>1597.4000244140625</ele><time>2026-03-08T12:23:33.000Z</time></trkpt>
      <trkpt lat="49.57496671937406063079833984375" lon="19.516226537525653839111328125"><ele>1591.4000244140625</ele><time>2026-03-08T12:24:14.000Z</time></trkpt>
      <trkpt lat="49.57523209042847156524658203125" lon="19.51590693555772304534912109375"><ele>1585.800048828125</ele><time>2026-03-08T12:24:52.000Z</time></trkpt>
      <trkpt lat="49.5754430629312992095947265625" lon="19.515685401856899261474609375"><ele>1578.800048828125</ele><time>2026-03-08T12:25:24.000Z</time></trkpt>
      <trkpt lat="49.57564699463546276092529296875" lon="19.51561457477509975433349609375"><ele>1572.4000244140625</ele><time>2026-03-08T12:25:57.000Z</time></trkpt>
      <trkpt lat="49.57586458884179592132568359375" lon="19.515507034957408905029296875"><ele>1565</ele><time>2026-03-08T12:26:45.000Z</time></trkpt>
      <trkpt lat="49.576092995703220367431640625" lon="19.51547225005924701690673828125"><ele>1557.5999755859375</ele><time>2026-03-08T12:27:20.000Z</time></trkpt>
      <trkpt lat="49.5763345621526241302490234375" lon="19.51537217013537883758544921875"><ele>1549.800048828125</ele><time>2026-03-08T12:27:56.000Z</time></trkpt>
      <trkpt lat="49.5765524916350841522216796875" lon="19.5150270871818065643310546875"><ele>1541.5999755859375</ele><time>2026-03-08T12:28:37.000Z</time></trkpt>
      <trkpt lat="49.57672993652522563934326171875" lon="19.51492642052471637725830078125"><ele>1535</ele><time>2026-03-08T12:29:03.000Z</time></trkpt>
      <trkpt lat="49.5770912803709506988525390625" lon="19.51505483128130435943603515625"><ele>1530</ele><time>2026-03-08T12:29:42.000Z</time></trkpt>
      <trkpt lat="49.57749000750482082366943359375" lon="19.51488836668431758880615234375"><ele>1522.4000244140625</ele><time>2026-03-08T12:30:29.000Z</time></trkpt>
      <trkpt lat="49.57761825062334537506103515625" lon="19.514777474105358123779296875"><ele>1516.199951171875</ele><time>2026-03-08T12:30:55.000Z</time></trkpt>
      <trkpt lat="49.577675499022006988525390625" lon="19.51470044441521167755126953125"><ele>1509.5999755859375</ele><time>2026-03-08T12:31:30.000Z</time></trkpt>
      <trkpt lat="49.5777933485805988311767578125" lon="19.51449525542557239532470703125"><ele>1502</ele><time>2026-03-08T12:32:05.000Z</time></trkpt>
      <trkpt lat="49.577815644443035125732421875" lon="19.514453597366809844970703125"><ele>1496.4000244140625</ele><time>2026-03-08T12:32:43.000Z</time></trkpt>
      <trkpt lat="49.5780267007648944854736328125" lon="19.5142214186489582061767578125"><ele>1488.800048828125</ele><time>2026-03-08T12:33:22.000Z</time></trkpt>
      <trkpt lat="49.57812233828008174896240234375" lon="19.51412946917116641998291015625"><ele>1484.4000244140625</ele><time>2026-03-08T12:33:44.000Z</time></trkpt>
      <trkpt lat="49.5782156288623809814453125" lon="19.51404212974011898040771484375"><ele>1479.199951171875</ele><time>2026-03-08T12:34:01.000Z</time></trkpt>
      <trkpt lat="49.578337334096431732177734375" lon="19.51390139758586883544921875"><ele>1473.199951171875</ele><time>2026-03-08T12:34:34.000Z</time></trkpt>
      <trkpt lat="49.57852651365101337432861328125" lon="19.51366058550775051116943359375"><ele>1464.800048828125</ele><time>2026-03-08T12:34:58.000Z</time></trkpt>
      <trkpt lat="49.578546546399593353271484375" lon="19.51363476924598217010498046875"><ele>1463.199951171875</ele><time>2026-03-08T12:35:40.000Z</time></trkpt>
      <trkpt lat="49.57875500433146953582763671875" lon="19.51336118392646312713623046875"><ele>1458.4000244140625</ele><time>2026-03-08T12:36:41.000Z</time></trkpt>
      <trkpt lat="49.57899657078087329864501953125" lon="19.5130895264446735382080078125"><ele>1451.199951171875</ele><time>2026-03-08T12:37:10.000Z</time></trkpt>
      <trkpt lat="49.57928893156349658966064453125" lon="19.51272918842732906341552734375"><ele>1443.4000244140625</ele><time>2026-03-08T12:37:44.000Z</time></trkpt>
      <trkpt lat="49.579550363123416900634765625" lon="19.5124303735792636871337890625"><ele>1435.4000244140625</ele><time>2026-03-08T12:38:13.000Z</time></trkpt>
      <trkpt lat="49.5799082703888416290283203125" lon="19.51197666116058826446533203125"><ele>1429.199951171875</ele><time>2026-03-08T12:38:53.000Z</time></trkpt>
      <trkpt lat="49.580196775496006011962890625" lon="19.5116377808153629302978515625"><ele>1423.199951171875</ele><time>2026-03-08T12:39:26.000Z</time></trkpt>
      <trkpt lat="49.580489806830883026123046875" lon="19.5113373734056949615478515625"><ele>1418</ele><time>2026-03-08T12:39:51.000Z</time></trkpt>
      <trkpt lat="49.58093664608895778656005859375" lon="19.51083504594862461090087890625"><ele>1413.5999755859375</ele><time>2026-03-08T12:40:33.000Z</time></trkpt>
      <trkpt lat="49.58141743205487728118896484375" lon="19.51031000353395938873291015625"><ele>1409.5999755859375</ele><time>2026-03-08T12:41:22.000Z</time></trkpt>
      <trkpt lat="49.58151415921747684478759765625" lon="19.5103774778544902801513671875"><ele>1410.5999755859375</ele><time>2026-03-08T12:44:00.000Z</time></trkpt>
      <trkpt lat="49.58160619251430034637451171875" lon="19.51044763438403606414794921875"><ele>1408.4000244140625</ele><time>2026-03-08T12:45:40.000Z</time></trkpt>
      <trkpt lat="49.581655561923980712890625" lon="19.51063907705247402191162109375"><ele>1402.199951171875</ele><time>2026-03-08T12:46:00.000Z</time></trkpt>
      <trkpt lat="49.58170317113399505615234375" lon="19.510592557489871978759765625"><ele>1397.4000244140625</ele><time>2026-03-08T12:46:24.000Z</time></trkpt>
      <trkpt lat="49.58168481476604938507080078125" lon="19.510581493377685546875"><ele>1396.5999755859375</ele><time>2026-03-08T12:47:21.000Z</time></trkpt>
      <trkpt lat="49.581746421754360198974609375" lon="19.51048753224313259124755859375"><ele>1390.4000244140625</ele><time>2026-03-08T12:48:32.000Z</time></trkpt>
      <trkpt lat="49.581968374550342559814453125" lon="19.510493986308574676513671875"><ele>1382.5999755859375</ele><time>2026-03-08T12:49:11.000Z</time></trkpt>
      <trkpt lat="49.58208496682345867156982421875" lon="19.510638155043125152587890625"><ele>1378</ele><time>2026-03-08T12:49:55.000Z</time></trkpt>
      <trkpt lat="49.58214799873530864715576171875" lon="19.5106641389429569244384765625"><ele>1374</ele><time>2026-03-08T12:50:20.000Z</time></trkpt>
      <trkpt lat="49.58218420855700969696044921875" lon="19.51068467460572719573974609375"><ele>1369</ele><time>2026-03-08T12:50:41.000Z</time></trkpt>
      <trkpt lat="49.58225830458104610443115234375" lon="19.51073236763477325439453125"><ele>1365.5999755859375</ele><time>2026-03-08T12:51:01.000Z</time></trkpt>
      <trkpt lat="49.5823301374912261962890625" lon="19.51087050139904022216796875"><ele>1361</ele><time>2026-03-08T12:51:20.000Z</time></trkpt>
      <trkpt lat="49.5824379287660121917724609375" lon="19.51097602955996990203857421875"><ele>1356.199951171875</ele><time>2026-03-08T12:51:46.000Z</time></trkpt>
      <trkpt lat="49.5825375057756900787353515625" lon="19.51114945113658905029296875"><ele>1350.199951171875</ele><time>2026-03-08T12:52:49.000Z</time></trkpt>
      <trkpt lat="49.58263968117535114288330078125" lon="19.51127945445477962493896484375"><ele>1343.5999755859375</ele><time>2026-03-08T12:53:22.000Z</time></trkpt>
      <trkpt lat="49.58276976831257343292236328125" lon="19.511348940432071685791015625"><ele>1337.5999755859375</ele><time>2026-03-08T12:53:50.000Z</time></trkpt>
      <trkpt lat="49.5828593708574771881103515625" lon="19.51138221658766269683837890625"><ele>1332</ele><time>2026-03-08T12:54:18.000Z</time></trkpt>
      <trkpt lat="49.58295919932425022125244140625" lon="19.51138724572956562042236328125"><ele>1326.4000244140625</ele><time>2026-03-08T12:54:40.000Z</time></trkpt>
      <trkpt lat="49.582994990050792694091796875" lon="19.51139596290886402130126953125"><ele>1325.199951171875</ele><time>2026-03-08T12:54:58.000Z</time></trkpt>
      <trkpt lat="49.5829733647406101226806640625" lon="19.51147458516061305999755859375"><ele>1323.800048828125</ele><time>2026-03-08T12:56:55.000Z</time></trkpt>
      <trkpt lat="49.58334468305110931396484375" lon="19.5115314982831478118896484375"><ele>1318.5999755859375</ele><time>2026-03-08T12:57:25.000Z</time></trkpt>
      <trkpt lat="49.5835775323212146759033203125" lon="19.511526636779308319091796875"><ele>1314.800048828125</ele><time>2026-03-08T12:57:51.000Z</time></trkpt>
      <trkpt lat="49.58384835161268711090087890625" lon="19.51193894259631633758544921875"><ele>1317.800048828125</ele><time>2026-03-08T12:58:24.000Z</time></trkpt>
      <trkpt lat="49.5839260518550872802734375" lon="19.51258711516857147216796875"><ele>1316.4000244140625</ele><time>2026-03-08T12:59:02.000Z</time></trkpt>
      <trkpt lat="49.58390685729682445526123046875" lon="19.51301635242998600006103515625"><ele>1311.4000244140625</ele><time>2026-03-08T12:59:28.000Z</time></trkpt>
      <trkpt lat="49.584057815372943878173828125" lon="19.5134187676012516021728515625"><ele>1304.5999755859375</ele><time>2026-03-08T13:00:01.000Z</time></trkpt>
      <trkpt lat="49.5840985514223575592041015625" lon="19.51392880640923976898193359375"><ele>1300.199951171875</ele><time>2026-03-08T13:00:32.000Z</time></trkpt>
      <trkpt lat="49.58409444428980350494384765625" lon="19.51441763900220394134521484375"><ele>1292.4000244140625</ele><time>2026-03-08T13:01:12.000Z</time></trkpt>
      <trkpt lat="49.584128558635711669921875" lon="19.5147488079965114593505859375"><ele>1285.199951171875</ele><time>2026-03-08T13:01:42.000Z</time></trkpt>
      <trkpt lat="49.58410584367811679840087890625" lon="19.51500806026160717010498046875"><ele>1277.800048828125</ele><time>2026-03-08T13:02:10.000Z</time></trkpt>
      <trkpt lat="49.58412629552185535430908203125" lon="19.515352137386798858642578125"><ele>1270.5999755859375</ele><time>2026-03-08T13:02:38.000Z</time></trkpt>
      <trkpt lat="49.584546983242034912109375" lon="19.51562278904020786285400390625"><ele>1263</ele><time>2026-03-08T13:03:15.000Z</time></trkpt>
      <trkpt lat="49.58473884500563144683837890625" lon="19.5158310793340206146240234375"><ele>1258.5999755859375</ele><time>2026-03-08T13:03:38.000Z</time></trkpt>
      <trkpt lat="49.58512474782764911651611328125" lon="19.515929482877254486083984375"><ele>1250.800048828125</ele><time>2026-03-08T13:04:16.000Z</time></trkpt>
      <trkpt lat="49.5854359678924083709716796875" lon="19.5158062689006328582763671875"><ele>1246.800048828125</ele><time>2026-03-08T13:04:44.000Z</time></trkpt>
      <trkpt lat="49.585643000900745391845703125" lon="19.515753127634525299072265625"><ele>1241.4000244140625</ele><time>2026-03-08T13:05:13.000Z</time></trkpt>
      <trkpt lat="49.58613225258886814117431640625" lon="19.5157100446522235870361328125"><ele>1236.800048828125</ele><time>2026-03-08T13:05:50.000Z</time></trkpt>
      <trkpt lat="49.58648948930203914642333984375" lon="19.51570057310163974761962890625"><ele>1229</ele><time>2026-03-08T13:06:26.000Z</time></trkpt>
      <trkpt lat="49.58671965636312961578369140625" lon="19.5158989727497100830078125"><ele>1222.800048828125</ele><time>2026-03-08T13:06:51.000Z</time></trkpt>
      <trkpt lat="49.58686667494475841522216796875" lon="19.516136683523654937744140625"><ele>1215.199951171875</ele><time>2026-03-08T13:07:22.000Z</time></trkpt>
      <trkpt lat="49.58709835074841976165771484375" lon="19.5163433812558650970458984375"><ele>1209.800048828125</ele><time>2026-03-08T13:07:56.000Z</time></trkpt>
      <trkpt lat="49.5872840099036693572998046875" lon="19.51646517030894756317138671875"><ele>1203.800048828125</ele><time>2026-03-08T13:08:25.000Z</time></trkpt>
      <trkpt lat="49.58756857551634311676025390625" lon="19.51664663851261138916015625"><ele>1198.4000244140625</ele><time>2026-03-08T13:09:02.000Z</time></trkpt>
      <trkpt lat="49.58772213198244571685791015625" lon="19.51690488494932651519775390625"><ele>1195.800048828125</ele><time>2026-03-08T13:09:56.000Z</time></trkpt>
      <trkpt lat="49.5875130034983158111572265625" lon="19.51679994352161884307861328125"><ele>1193.800048828125</ele><time>2026-03-08T13:12:46.000Z</time></trkpt>
      <trkpt lat="49.5874102413654327392578125" lon="19.5169012807309627532958984375"><ele>1194.5999755859375</ele><time>2026-03-08T13:13:50.000Z</time></trkpt>
      <trkpt lat="49.58774878643453121185302734375" lon="19.5169155299663543701171875"><ele>1193.5999755859375</ele><time>2026-03-08T13:14:50.000Z</time></trkpt>
      <trkpt lat="49.58779840730130672454833984375" lon="19.51725776307284832000732421875"><ele>1189</ele><time>2026-03-08T13:15:35.000Z</time></trkpt>
      <trkpt lat="49.58800024352967739105224609375" lon="19.51747477054595947265625"><ele>1184.5999755859375</ele><time>2026-03-08T13:15:58.000Z</time></trkpt>
      <trkpt lat="49.58821984939277172088623046875" lon="19.51768188737332820892333984375"><ele>1180.4000244140625</ele><time>2026-03-08T13:16:28.000Z</time></trkpt>
      <trkpt lat="49.58835530094802379608154296875" lon="19.51783485710620880126953125"><ele>1174.800048828125</ele><time>2026-03-08T13:16:56.000Z</time></trkpt>
      <trkpt lat="49.58861111663281917572021484375" lon="19.51827968470752239227294921875"><ele>1170.199951171875</ele><time>2026-03-08T13:17:33.000Z</time></trkpt>
      <trkpt lat="49.5886762440204620361328125" lon="19.51859400607645511627197265625"><ele>1169</ele><time>2026-03-08T13:18:21.000Z</time></trkpt>
      <trkpt lat="49.5887129567563533782958984375" lon="19.51882727444171905517578125"><ele>1163.800048828125</ele><time>2026-03-08T13:18:52.000Z</time></trkpt>
      <trkpt lat="49.58883994258940219879150390625" lon="19.51919565908610820770263671875"><ele>1155.5999755859375</ele><time>2026-03-08T13:19:23.000Z</time></trkpt>
      <trkpt lat="49.58888973109424114227294921875" lon="19.5194725133478641510009765625"><ele>1148.800048828125</ele><time>2026-03-08T13:19:48.000Z</time></trkpt>
      <trkpt lat="49.58890817128121852874755859375" lon="19.51975942589342594146728515625"><ele>1145.5999755859375</ele><time>2026-03-08T13:20:10.000Z</time></trkpt>
      <trkpt lat="49.58894857205450534820556640625" lon="19.51989470981061458587646484375"><ele>1141.4000244140625</ele><time>2026-03-08T13:20:37.000Z</time></trkpt>
      <trkpt lat="49.58895527757704257965087890625" lon="19.52019578777253627777099609375"><ele>1136</ele><time>2026-03-08T13:21:02.000Z</time></trkpt>
      <trkpt lat="49.5889104343950748443603515625" lon="19.52037063427269458770751953125"><ele>1131.800048828125</ele><time>2026-03-08T13:21:44.000Z</time></trkpt>
      <trkpt lat="49.588882438838481903076171875" lon="19.52101989649236202239990234375"><ele>1127.5999755859375</ele><time>2026-03-08T13:22:26.000Z</time></trkpt>
      <trkpt lat="49.58878328092396259307861328125" lon="19.5213339664041996002197265625"><ele>1129.4000244140625</ele><time>2026-03-08T13:22:59.000Z</time></trkpt>
      <trkpt lat="49.58880297839641571044921875" lon="19.52184769324958324432373046875"><ele>1129.4000244140625</ele><time>2026-03-08T13:23:40.000Z</time></trkpt>
      <trkpt lat="49.58892904222011566162109375" lon="19.522277601063251495361328125"><ele>1123.5999755859375</ele><time>2026-03-08T13:24:16.000Z</time></trkpt>
      <trkpt lat="49.58910263143479824066162109375" lon="19.52227852307260036468505859375"><ele>1118.5999755859375</ele><time>2026-03-08T13:24:40.000Z</time></trkpt>
      <trkpt lat="49.58939767442643642425537109375" lon="19.52234256081283092498779296875"><ele>1115.199951171875</ele><time>2026-03-08T13:25:21.000Z</time></trkpt>
      <trkpt lat="49.5896641351282596588134765625" lon="19.5228437148034572601318359375"><ele>1112.199951171875</ele><time>2026-03-08T13:26:19.000Z</time></trkpt>
      <trkpt lat="49.58957922644913196563720703125" lon="19.52332106418907642364501953125"><ele>1108</ele><time>2026-03-08T13:27:28.000Z</time></trkpt>
      <trkpt lat="49.5893575251102447509765625" lon="19.523670338094234466552734375"><ele>1101.800048828125</ele><time>2026-03-08T13:28:05.000Z</time></trkpt>
      <trkpt lat="49.58928300999104976654052734375" lon="19.52392891980707645416259765625"><ele>1096.199951171875</ele><time>2026-03-08T13:28:27.000Z</time></trkpt>
      <trkpt lat="49.58922274410724639892578125" lon="19.5240869186818599700927734375"><ele>1092.4000244140625</ele><time>2026-03-08T13:28:55.000Z</time></trkpt>
      <trkpt lat="49.5891806669533252716064453125" lon="19.52445614151656627655029296875"><ele>1086</ele><time>2026-03-08T13:29:21.000Z</time></trkpt>
      <trkpt lat="49.58916482515633106231689453125" lon="19.52449402771890163421630859375"><ele>1083.5999755859375</ele><time>2026-03-08T13:29:50.000Z</time></trkpt>
      <trkpt lat="49.58909290842711925506591796875" lon="19.5246454887092113494873046875"><ele>1081.5999755859375</ele><time>2026-03-08T13:30:18.000Z</time></trkpt>
      <trkpt lat="49.58904043771326541900634765625" lon="19.52511428855359554290771484375"><ele>1076</ele><time>2026-03-08T13:31:11.000Z</time></trkpt>
      <trkpt lat="49.58913666196167469024658203125" lon="19.5254987664520740509033203125"><ele>1070.5999755859375</ele><time>2026-03-08T13:31:47.000Z</time></trkpt>
      <trkpt lat="49.58924210630357265472412109375" lon="19.5259718410670757293701171875"><ele>1065.199951171875</ele><time>2026-03-08T13:32:35.000Z</time></trkpt>
      <trkpt lat="49.58929742686450481414794921875" lon="19.52628507278859615325927734375"><ele>1058.4000244140625</ele><time>2026-03-08T13:33:13.000Z</time></trkpt>
      <trkpt lat="49.5893764682114124298095703125" lon="19.52641616575419902801513671875"><ele>1051.5999755859375</ele><time>2026-03-08T13:33:42.000Z</time></trkpt>
      <trkpt lat="49.58939583040773868560791015625" lon="19.526527561247348785400390625"><ele>1048</ele><time>2026-03-08T13:34:05.000Z</time></trkpt>
      <trkpt lat="49.58945886231958866119384765625" lon="19.52662336640059947967529296875"><ele>1042.5999755859375</ele><time>2026-03-08T13:34:39.000Z</time></trkpt>
      <trkpt lat="49.5895363949239253997802734375" lon="19.52683794312179088592529296875"><ele>1036.199951171875</ele><time>2026-03-08T13:35:38.000Z</time></trkpt>
      <trkpt lat="49.58964779041707515716552734375" lon="19.5269094407558441162109375"><ele>1025.4000244140625</ele><time>2026-03-08T13:36:37.000Z</time></trkpt>
      <trkpt lat="49.589913748204708099365234375" lon="19.527164585888385772705078125"><ele>1016.79998779296875</ele><time>2026-03-08T13:37:18.000Z</time></trkpt>
      <trkpt lat="49.59013863466680049896240234375" lon="19.527468346059322357177734375"><ele>1011.4000244140625</ele><time>2026-03-08T13:37:51.000Z</time></trkpt>
      <trkpt lat="49.590318761765956878662109375" lon="19.52791082672774791717529296875"><ele>1005</ele><time>2026-03-08T13:38:30.000Z</time></trkpt>
      <trkpt lat="49.59044809453189373016357421875" lon="19.52831282280385494232177734375"><ele>998.20001220703125</ele><time>2026-03-08T13:39:00.000Z</time></trkpt>
      <trkpt lat="49.590683877468109130859375" lon="19.52851407229900360107421875"><ele>992</ele><time>2026-03-08T13:39:34.000Z</time></trkpt>
      <trkpt lat="49.59093709476292133331298828125" lon="19.5285447500646114349365234375"><ele>985.20001220703125</ele><time>2026-03-08T13:40:12.000Z</time></trkpt>
      <trkpt lat="49.5910719595849514007568359375" lon="19.52859847806394100189208984375"><ele>978.79998779296875</ele><time>2026-03-08T13:40:40.000Z</time></trkpt>
      <trkpt lat="49.59127807058393955230712890625" lon="19.5286694727838039398193359375"><ele>972.4000244140625</ele><time>2026-03-08T13:41:11.000Z</time></trkpt>
      <trkpt lat="49.59151209332048892974853515625" lon="19.52878438867628574371337890625"><ele>967.5999755859375</ele><time>2026-03-08T13:41:52.000Z</time></trkpt>
      <trkpt lat="49.5917924679815769195556640625" lon="19.52896275557577610015869140625"><ele>961.79998779296875</ele><time>2026-03-08T13:42:25.000Z</time></trkpt>
      <trkpt lat="49.59207016043365001678466796875" lon="19.52914095483720302581787109375"><ele>957.79998779296875</ele><time>2026-03-08T13:42:48.000Z</time></trkpt>
      <trkpt lat="49.59233519621193408966064453125" lon="19.52930976636707782745361328125"><ele>953.79998779296875</ele><time>2026-03-08T13:43:15.000Z</time></trkpt>
      <trkpt lat="49.592689834535121917724609375" lon="19.52947002835571765899658203125"><ele>948.5999755859375</ele><time>2026-03-08T13:43:48.000Z</time></trkpt>
      <trkpt lat="49.59304765798151493072509765625" lon="19.52963431365787982940673828125"><ele>944.79998779296875</ele><time>2026-03-08T13:44:23.000Z</time></trkpt>
      <trkpt lat="49.59337103180587291717529296875" lon="19.52982206828892230987548828125"><ele>942.79998779296875</ele><time>2026-03-08T13:44:54.000Z</time></trkpt>
      <trkpt lat="49.5938460342586040496826171875" lon="19.5301316119730472564697265625"><ele>943.20001220703125</ele><time>2026-03-08T13:45:36.000Z</time></trkpt>
      <trkpt lat="49.59417820908129215240478515625" lon="19.530271254479885101318359375"><ele>940</ele><time>2026-03-08T13:46:05.000Z</time></trkpt>
      <trkpt lat="49.5944619365036487579345703125" lon="19.53056638129055500030517578125"><ele>936.4000244140625</ele><time>2026-03-08T13:46:36.000Z</time></trkpt>
      <trkpt lat="49.59462999366223812103271484375" lon="19.53077777288854122161865234375"><ele>934.20001220703125</ele><time>2026-03-08T13:46:54.000Z</time></trkpt>
      <trkpt lat="49.59486099891364574432373046875" lon="19.53108572401106357574462890625"><ele>931</ele><time>2026-03-08T13:47:20.000Z</time></trkpt>
      <trkpt lat="49.595133326947689056396484375" lon="19.53148939646780490875244140625"><ele>926.79998779296875</ele><time>2026-03-08T13:47:49.000Z</time></trkpt>
      <trkpt lat="49.59558284841477870941162109375" lon="19.53174940310418605804443359375"><ele>924.79998779296875</ele><time>2026-03-08T13:48:29.000Z</time></trkpt>
      <trkpt lat="49.59604620002210140228271484375" lon="19.53213178552687168121337890625"><ele>924.79998779296875</ele><time>2026-03-08T13:49:11.000Z</time></trkpt>
      <trkpt lat="49.5963632874190807342529296875" lon="19.53240671195089817047119140625"><ele>927.20001220703125</ele><time>2026-03-08T13:49:44.000Z</time></trkpt>
      <trkpt lat="49.59661264903843402862548828125" lon="19.53264945186674594879150390625"><ele>923.79998779296875</ele><time>2026-03-08T13:50:09.000Z</time></trkpt>
      <trkpt lat="49.59683208726346492767333984375" lon="19.53295187093317508697509765625"><ele>919</ele><time>2026-03-08T13:50:37.000Z</time></trkpt>
      <trkpt lat="49.59714892320334911346435546875" lon="19.533269293606281280517578125"><ele>913.20001220703125</ele><time>2026-03-08T13:51:12.000Z</time></trkpt>
      <trkpt lat="49.597495682537555694580078125" lon="19.53364849090576171875"><ele>908.5999755859375</ele><time>2026-03-08T13:51:45.000Z</time></trkpt>
      <trkpt lat="49.5978428609669208526611328125" lon="19.53416255302727222442626953125"><ele>902.4000244140625</ele><time>2026-03-08T13:52:27.000Z</time></trkpt>
      <trkpt lat="49.59813346154987812042236328125" lon="19.53426615335047245025634765625"><ele>897.79998779296875</ele><time>2026-03-08T13:52:58.000Z</time></trkpt>
      <trkpt lat="49.5985204540193080902099609375" lon="19.53433605842292308807373046875"><ele>892.20001220703125</ele><time>2026-03-08T13:53:33.000Z</time></trkpt>
      <trkpt lat="49.59883217699825763702392578125" lon="19.53446161933243274688720703125"><ele>887.5999755859375</ele><time>2026-03-08T13:53:59.000Z</time></trkpt>
      <trkpt lat="49.59913359023630619049072265625" lon="19.53439305536448955535888671875"><ele>882.20001220703125</ele><time>2026-03-08T13:54:26.000Z</time></trkpt>
      <trkpt lat="49.59945813752710819244384765625" lon="19.53456739895045757293701171875"><ele>876.5999755859375</ele><time>2026-03-08T13:54:57.000Z</time></trkpt>
      <trkpt lat="49.5999205671250820159912109375" lon="19.53453420661389827728271484375"><ele>871</ele><time>2026-03-08T13:55:34.000Z</time></trkpt>
      <trkpt lat="49.60036857984960079193115234375" lon="19.53457854688167572021484375"><ele>865.5999755859375</ele><time>2026-03-08T13:56:14.000Z</time></trkpt>
      <trkpt lat="49.60083193145692348480224609375" lon="19.53456622548401355743408203125"><ele>862</ele><time>2026-03-08T13:56:49.000Z</time></trkpt>
      <trkpt lat="49.60118782706558704376220703125" lon="19.53477568924427032470703125"><ele>857.5999755859375</ele><time>2026-03-08T13:57:23.000Z</time></trkpt>
      <trkpt lat="49.6015510149300098419189453125" lon="19.53505539335310459136962890625"><ele>854</ele><time>2026-03-08T13:57:55.000Z</time></trkpt>
      <trkpt lat="49.60221058689057826995849609375" lon="19.53478532843291759490966796875"><ele>850.4000244140625</ele><time>2026-03-08T13:58:49.000Z</time></trkpt>
      <trkpt lat="49.6027348749339580535888671875" lon="19.53462271951138973236083984375"><ele>848.5999755859375</ele><time>2026-03-08T13:59:34.000Z</time></trkpt>
      <trkpt lat="49.6033085323870182037353515625" lon="19.53442054800689220428466796875"><ele>849.5999755859375</ele><time>2026-03-08T14:00:24.000Z</time></trkpt>
      <trkpt lat="49.6037675254046916961669921875" lon="19.5345009304583072662353515625"><ele>850.5999755859375</ele><time>2026-03-08T14:00:59.000Z</time></trkpt>
      <trkpt lat="49.6042409352958202362060546875" lon="19.5346663892269134521484375"><ele>854.20001220703125</ele><time>2026-03-08T14:01:38.000Z</time></trkpt>
      <trkpt lat="49.604742340743541717529296875" lon="19.53472070395946502685546875"><ele>859</ele><time>2026-03-08T14:02:19.000Z</time></trkpt>
      <trkpt lat="49.60533150471746921539306640625" lon="19.5344563387334346771240234375"><ele>859.4000244140625</ele><time>2026-03-08T14:03:05.000Z</time></trkpt>
      <trkpt lat="49.60578261874616146087646484375" lon="19.53431040979921817779541015625"><ele>855.20001220703125</ele><time>2026-03-08T14:03:41.000Z</time></trkpt>
      <trkpt lat="49.6061513386666774749755859375" lon="19.53416012227535247802734375"><ele>848.79998779296875</ele><time>2026-03-08T14:04:13.000Z</time></trkpt>
      <trkpt lat="49.60663354955613613128662109375" lon="19.53382560051977634429931640625"><ele>845.5999755859375</ele><time>2026-03-08T14:04:52.000Z</time></trkpt>
      <trkpt lat="49.6070753596723079681396484375" lon="19.53360666520893573760986328125"><ele>848.5999755859375</ele><time>2026-03-08T14:05:29.000Z</time></trkpt>
      <trkpt lat="49.60749621503055095672607421875" lon="19.53347423113882541656494140625"><ele>852.79998779296875</ele><time>2026-03-08T14:06:02.000Z</time></trkpt>
      <trkpt lat="49.6078830398619174957275390625" lon="19.5334552042186260223388671875"><ele>851.79998779296875</ele><time>2026-03-08T14:06:36.000Z</time></trkpt>
      <trkpt lat="49.608471281826496124267578125" lon="19.5334216766059398651123046875"><ele>849.5999755859375</ele><time>2026-03-08T14:07:22.000Z</time></trkpt>
      <trkpt lat="49.609037227928638458251953125" lon="19.5330149866640567779541015625"><ele>850.20001220703125</ele><time>2026-03-08T14:08:11.000Z</time></trkpt>
      <trkpt lat="49.6095275692641735076904296875" lon="19.53269672580063343048095703125"><ele>852.79998779296875</ele><time>2026-03-08T14:08:52.000Z</time></trkpt>
      <trkpt lat="49.6102152206003665924072265625" lon="19.5324508845806121826171875"><ele>852</ele><time>2026-03-08T14:09:46.000Z</time></trkpt>
      <trkpt lat="49.61067547090351581573486328125" lon="19.53215307556092739105224609375"><ele>852</ele><time>2026-03-08T14:10:31.000Z</time></trkpt>
      <trkpt lat="49.61068402044475078582763671875" lon="19.53192190267145633697509765625"><ele>850.4000244140625</ele><time>2026-03-08T14:11:01.000Z</time></trkpt>
      <trkpt lat="49.61068184114992618560791015625" lon="19.53190949745476245880126953125"><ele>849.4000244140625</ele><time>2026-03-08T14:11:07.000Z</time></trkpt>
    </trkseg>
  </trk>
</gpx>
