<?xml version="1.0" encoding="UTF-8"?>
<gpx version="1.1" creator="W Dobrym Kierunku" xmlns="http://www.topografix.com/GPX/1/1">
  <metadata>
    <name>Babia Góra Hiking</name>
    <desc>Własny ślad GPS autora; plik uproszczony do co 10. punktu, z zachowanym czasem i wysokością.</desc>
    <time>2025-05-31T07:15:46.000Z</time>
  </metadata>
  <trk>
    <name>Babia Góra Hiking</name>
    <trkseg>
      <trkpt lat="49.6095196902751922607421875" lon="19.49780973605811595916748046875"><ele>724</ele><time>2025-05-31T07:15:46.000Z</time></trkpt>
      <trkpt lat="49.60922892205417156219482421875" lon="19.49763648211956024169921875"><ele>725</ele><time>2025-05-31T07:16:17.000Z</time></trkpt>
      <trkpt lat="49.60921366699039936065673828125" lon="19.4972970150411128997802734375"><ele>727.20001220703125</ele><time>2025-05-31T07:16:35.000Z</time></trkpt>
      <trkpt lat="49.608978219330310821533203125" lon="19.49686123989522457122802734375"><ele>729.79998779296875</ele><time>2025-05-31T07:17:04.000Z</time></trkpt>
      <trkpt lat="49.60856406949460506439208984375" lon="19.49608826078474521636962890625"><ele>731.5999755859375</ele><time>2025-05-31T07:17:50.000Z</time></trkpt>
      <trkpt lat="49.6083621494472026824951171875" lon="19.495463557541370391845703125"><ele>734.4000244140625</ele><time>2025-05-31T07:18:30.000Z</time></trkpt>
      <trkpt lat="49.6080875582993030548095703125" lon="19.4950801692903041839599609375"><ele>735.5999755859375</ele><time>2025-05-31T07:18:58.000Z</time></trkpt>
      <trkpt lat="49.60792243480682373046875" lon="19.49490222148597240447998046875"><ele>737.79998779296875</ele><time>2025-05-31T07:19:26.000Z</time></trkpt>
      <trkpt lat="49.6077552996575832366943359375" lon="19.49451816268265247344970703125"><ele>739.4000244140625</ele><time>2025-05-31T07:19:57.000Z</time></trkpt>
      <trkpt lat="49.607347436249256134033203125" lon="19.49405346997082233428955078125"><ele>740.20001220703125</ele><time>2025-05-31T07:20:28.000Z</time></trkpt>
      <trkpt lat="49.606837816536426544189453125" lon="19.49343052692711353302001953125"><ele>741.4000244140625</ele><time>2025-05-31T07:21:05.000Z</time></trkpt>
      <trkpt lat="49.60670362226665019989013671875" lon="19.49269476346671581268310546875"><ele>744.20001220703125</ele><time>2025-05-31T07:21:39.000Z</time></trkpt>
      <trkpt lat="49.60636851377785205841064453125" lon="19.49208053760230541229248046875"><ele>747.20001220703125</ele><time>2025-05-31T07:22:21.000Z</time></trkpt>
      <trkpt lat="49.60624563507735729217529296875" lon="19.49164316989481449127197265625"><ele>749</ele><time>2025-05-31T07:22:48.000Z</time></trkpt>
      <trkpt lat="49.60626876913011074066162109375" lon="19.491321556270122528076171875"><ele>750.4000244140625</ele><time>2025-05-31T07:23:15.000Z</time></trkpt>
      <trkpt lat="49.6063525043427944183349609375" lon="19.49090019799768924713134765625"><ele>754.4000244140625</ele><time>2025-05-31T07:23:47.000Z</time></trkpt>
      <trkpt lat="49.6060259453952312469482421875" lon="19.4906370900571346282958984375"><ele>757.5999755859375</ele><time>2025-05-31T07:24:09.000Z</time></trkpt>
      <trkpt lat="49.6058167330920696258544921875" lon="19.49030893854796886444091796875"><ele>762.79998779296875</ele><time>2025-05-31T07:24:37.000Z</time></trkpt>
      <trkpt lat="49.60566007532179355621337890625" lon="19.490075670182704925537109375"><ele>766.4000244140625</ele><time>2025-05-31T07:24:59.000Z</time></trkpt>
      <trkpt lat="49.60542337037622928619384765625" lon="19.4896835647523403167724609375"><ele>772.20001220703125</ele><time>2025-05-31T07:25:29.000Z</time></trkpt>
      <trkpt lat="49.6052766032516956329345703125" lon="19.48924116790294647216796875"><ele>777.5999755859375</ele><time>2025-05-31T07:26:03.000Z</time></trkpt>
      <trkpt lat="49.60497728548943996429443359375" lon="19.48881796561181545257568359375"><ele>781.4000244140625</ele><time>2025-05-31T07:26:28.000Z</time></trkpt>
      <trkpt lat="49.60475332103669643402099609375" lon="19.48841781355440616607666015625"><ele>782.5999755859375</ele><time>2025-05-31T07:26:56.000Z</time></trkpt>
      <trkpt lat="49.6046090684831142425537109375" lon="19.48806510306894779205322265625"><ele>785.5999755859375</ele><time>2025-05-31T07:27:25.000Z</time></trkpt>
      <trkpt lat="49.60432869382202625274658203125" lon="19.487815909087657928466796875"><ele>789.20001220703125</ele><time>2025-05-31T07:27:52.000Z</time></trkpt>
      <trkpt lat="49.60397816263139247894287109375" lon="19.487741477787494659423828125"><ele>794</ele><time>2025-05-31T07:28:16.000Z</time></trkpt>
      <trkpt lat="49.60389618761837482452392578125" lon="19.4876688905060291290283203125"><ele>799</ele><time>2025-05-31T07:28:44.000Z</time></trkpt>
      <trkpt lat="49.60348815657198429107666015625" lon="19.487463869154453277587890625"><ele>802</ele><time>2025-05-31T07:29:15.000Z</time></trkpt>
      <trkpt lat="49.60307844914495944976806640625" lon="19.48727753944694995880126953125"><ele>806.4000244140625</ele><time>2025-05-31T07:29:52.000Z</time></trkpt>
      <trkpt lat="49.60282162763178348541259765625" lon="19.48730452917516231536865234375"><ele>810.5999755859375</ele><time>2025-05-31T07:30:33.000Z</time></trkpt>
      <trkpt lat="49.60263303481042385101318359375" lon="19.487408213317394256591796875"><ele>814.79998779296875</ele><time>2025-05-31T07:31:10.000Z</time></trkpt>
      <trkpt lat="49.60244393907487392425537109375" lon="19.4874962233006954193115234375"><ele>817.5999755859375</ele><time>2025-05-31T07:31:42.000Z</time></trkpt>
      <trkpt lat="49.60183273069560527801513671875" lon="19.48757945559918880462646484375"><ele>822.5999755859375</ele><time>2025-05-31T07:32:23.000Z</time></trkpt>
      <trkpt lat="49.60147784091532230377197265625" lon="19.48769495822489261627197265625"><ele>826.79998779296875</ele><time>2025-05-31T07:33:00.000Z</time></trkpt>
      <trkpt lat="49.60110870189964771270751953125" lon="19.48787768371403217315673828125"><ele>830.4000244140625</ele><time>2025-05-31T07:33:32.000Z</time></trkpt>
      <trkpt lat="49.6008147485554218292236328125" lon="19.48804431594908237457275390625"><ele>834.5999755859375</ele><time>2025-05-31T07:34:12.000Z</time></trkpt>
      <trkpt lat="49.60038249380886554718017578125" lon="19.4883340783417224884033203125"><ele>838.79998779296875</ele><time>2025-05-31T07:34:50.000Z</time></trkpt>
      <trkpt lat="49.60000514052808284759521484375" lon="19.4887223280966281890869140625"><ele>843</ele><time>2025-05-31T07:35:31.000Z</time></trkpt>
      <trkpt lat="49.59982224740087985992431640625" lon="19.4888725318014621734619140625"><ele>846.5999755859375</ele><time>2025-05-31T07:36:03.000Z</time></trkpt>
      <trkpt lat="49.59936828352510929107666015625" lon="19.489311911165714263916015625"><ele>851.5999755859375</ele><time>2025-05-31T07:36:48.000Z</time></trkpt>
      <trkpt lat="49.59920031018555164337158203125" lon="19.48970074765384197235107421875"><ele>855.79998779296875</ele><time>2025-05-31T07:37:28.000Z</time></trkpt>
      <trkpt lat="49.59890275262296199798583984375" lon="19.490212462842464447021484375"><ele>861</ele><time>2025-05-31T07:38:15.000Z</time></trkpt>
      <trkpt lat="49.5986569114029407501220703125" lon="19.49041002430021762847900390625"><ele>864.4000244140625</ele><time>2025-05-31T07:39:03.000Z</time></trkpt>
      <trkpt lat="49.59849438630044460296630859375" lon="19.49024423025548458099365234375"><ele>864.4000244140625</ele><time>2025-05-31T07:39:43.000Z</time></trkpt>
      <trkpt lat="49.5979779772460460662841796875" lon="19.4898934476077556610107421875"><ele>865.5999755859375</ele><time>2025-05-31T07:40:35.000Z</time></trkpt>
      <trkpt lat="49.59770397283136844635009765625" lon="19.48954425752162933349609375"><ele>865.79998779296875</ele><time>2025-05-31T07:41:26.000Z</time></trkpt>
      <trkpt lat="49.5974616520106792449951171875" lon="19.4890854321420192718505859375"><ele>867.4000244140625</ele><time>2025-05-31T07:42:08.000Z</time></trkpt>
      <trkpt lat="49.5972648449242115020751953125" lon="19.48876868002116680145263671875"><ele>871.20001220703125</ele><time>2025-05-31T07:42:41.000Z</time></trkpt>
      <trkpt lat="49.5969949476420879364013671875" lon="19.48832192458212375640869140625"><ele>874</ele><time>2025-05-31T07:43:21.000Z</time></trkpt>
      <trkpt lat="49.59694239310920238494873046875" lon="19.48771356604993343353271484375"><ele>876.20001220703125</ele><time>2025-05-31T07:44:03.000Z</time></trkpt>
      <trkpt lat="49.59690500982105731964111328125" lon="19.48761633597314357757568359375"><ele>878</ele><time>2025-05-31T07:44:53.000Z</time></trkpt>
      <trkpt lat="49.59685488604009151458740234375" lon="19.48766008950769901275634765625"><ele>879</ele><time>2025-05-31T07:47:20.000Z</time></trkpt>
      <trkpt lat="49.59652639925479888916015625" lon="19.48773368261754512786865234375"><ele>883.20001220703125</ele><time>2025-05-31T07:47:50.000Z</time></trkpt>
      <trkpt lat="49.596369154751300811767578125" lon="19.48783040978014469146728515625"><ele>888</ele><time>2025-05-31T07:48:21.000Z</time></trkpt>
      <trkpt lat="49.59604033268988132476806640625" lon="19.487822614610195159912109375"><ele>894.79998779296875</ele><time>2025-05-31T07:49:02.000Z</time></trkpt>
      <trkpt lat="49.5958255045115947723388671875" lon="19.48779319413006305694580078125"><ele>901.4000244140625</ele><time>2025-05-31T07:49:39.000Z</time></trkpt>
      <trkpt lat="49.59553155116736888885498046875" lon="19.48788757435977458953857421875"><ele>906.5999755859375</ele><time>2025-05-31T07:50:12.000Z</time></trkpt>
      <trkpt lat="49.59532770328223705291748046875" lon="19.48790542781352996826171875"><ele>912</ele><time>2025-05-31T07:50:49.000Z</time></trkpt>
      <trkpt lat="49.5950438082218170166015625" lon="19.487832672894001007080078125"><ele>916.5999755859375</ele><time>2025-05-31T07:51:22.000Z</time></trkpt>
      <trkpt lat="49.59479260258376598358154296875" lon="19.48736823163926601409912109375"><ele>921.20001220703125</ele><time>2025-05-31T07:51:58.000Z</time></trkpt>
      <trkpt lat="49.59468598477542400360107421875" lon="19.486934132874011993408203125"><ele>925.4000244140625</ele><time>2025-05-31T07:52:38.000Z</time></trkpt>
      <trkpt lat="49.59497566334903240203857421875" lon="19.4865537621080875396728515625"><ele>929.79998779296875</ele><time>2025-05-31T07:53:11.000Z</time></trkpt>
      <trkpt lat="49.595119915902614593505859375" lon="19.486200548708438873291015625"><ele>933.5999755859375</ele><time>2025-05-31T07:53:45.000Z</time></trkpt>
      <trkpt lat="49.5950889028608798980712890625" lon="19.4857900030910968780517578125"><ele>937</ele><time>2025-05-31T07:54:18.000Z</time></trkpt>
      <trkpt lat="49.595007598400115966796875" lon="19.4852733425796031951904296875"><ele>939.79998779296875</ele><time>2025-05-31T07:55:00.000Z</time></trkpt>
      <trkpt lat="49.5948833785951137542724609375" lon="19.48482130654156208038330078125"><ele>943.20001220703125</ele><time>2025-05-31T07:55:31.000Z</time></trkpt>
      <trkpt lat="49.59472202695906162261962890625" lon="19.48436147533357143402099609375"><ele>947.5999755859375</ele><time>2025-05-31T07:56:14.000Z</time></trkpt>
      <trkpt lat="49.59448465146124362945556640625" lon="19.48403089307248592376708984375"><ele>951.20001220703125</ele><time>2025-05-31T07:56:49.000Z</time></trkpt>
      <trkpt lat="49.59430511109530925750732421875" lon="19.48385872878134250640869140625"><ele>954.5999755859375</ele><time>2025-05-31T07:57:20.000Z</time></trkpt>
      <trkpt lat="49.59429773502051830291748046875" lon="19.4835339300334453582763671875"><ele>958</ele><time>2025-05-31T07:57:54.000Z</time></trkpt>
      <trkpt lat="49.59404493682086467742919921875" lon="19.48316889815032482147216796875"><ele>961.79998779296875</ele><time>2025-05-31T07:58:37.000Z</time></trkpt>
      <trkpt lat="49.59407008253037929534912109375" lon="19.48346477933228015899658203125"><ele>965.4000244140625</ele><time>2025-05-31T07:59:10.000Z</time></trkpt>
      <trkpt lat="49.59407930262386798858642578125" lon="19.48375445790588855743408203125"><ele>968.20001220703125</ele><time>2025-05-31T07:59:46.000Z</time></trkpt>
      <trkpt lat="49.594236798584461212158203125" lon="19.48417581617832183837890625"><ele>972.4000244140625</ele><time>2025-05-31T08:00:24.000Z</time></trkpt>
      <trkpt lat="49.59396547637879848480224609375" lon="19.484580494463443756103515625"><ele>977</ele><time>2025-05-31T08:01:00.000Z</time></trkpt>
      <trkpt lat="49.593639336526393890380859375" lon="19.48483220301568508148193359375"><ele>983.4000244140625</ele><time>2025-05-31T08:01:49.000Z</time></trkpt>
      <trkpt lat="49.5933903940021991729736328125" lon="19.4849293492734432220458984375"><ele>989.20001220703125</ele><time>2025-05-31T08:02:31.000Z</time></trkpt>
      <trkpt lat="49.5931168086826801300048828125" lon="19.48516630567610263824462890625"><ele>993.4000244140625</ele><time>2025-05-31T08:03:06.000Z</time></trkpt>
      <trkpt lat="49.59294254891574382781982421875" lon="19.48534618131816387176513671875"><ele>997.20001220703125</ele><time>2025-05-31T08:03:38.000Z</time></trkpt>
      <trkpt lat="49.59279469214379787445068359375" lon="19.48561155237257480621337890625"><ele>1001.5999755859375</ele><time>2025-05-31T08:04:24.000Z</time></trkpt>
      <trkpt lat="49.5926534570753574371337890625" lon="19.485859572887420654296875"><ele>1005.5999755859375</ele><time>2025-05-31T08:04:58.000Z</time></trkpt>
      <trkpt lat="49.59254373796284198760986328125" lon="19.48605847544968128204345703125"><ele>1008.20001220703125</ele><time>2025-05-31T08:05:18.000Z</time></trkpt>
      <trkpt lat="49.592318348586559295654296875" lon="19.48618881404399871826171875"><ele>1013</ele><time>2025-05-31T08:06:05.000Z</time></trkpt>
      <trkpt lat="49.5921103097498416900634765625" lon="19.48636575601994991302490234375"><ele>1016</ele><time>2025-05-31T08:06:45.000Z</time></trkpt>
      <trkpt lat="49.5920885168015956878662109375" lon="19.4863696955144405364990234375"><ele>1016</ele><time>2025-05-31T08:08:13.000Z</time></trkpt>
      <trkpt lat="49.591981060802936553955078125" lon="19.4863294623792171478271484375"><ele>1016.20001220703125</ele><time>2025-05-31T08:10:12.000Z</time></trkpt>
      <trkpt lat="49.5917086489498615264892578125" lon="19.4864062406122684478759765625"><ele>1019.79998779296875</ele><time>2025-05-31T08:10:48.000Z</time></trkpt>
      <trkpt lat="49.59149616770446300506591796875" lon="19.48659357614815235137939453125"><ele>1023.5999755859375</ele><time>2025-05-31T08:11:28.000Z</time></trkpt>
      <trkpt lat="49.59132819436490535736083984375" lon="19.4867406785488128662109375"><ele>1028.800048828125</ele><time>2025-05-31T08:12:08.000Z</time></trkpt>
      <trkpt lat="49.59129215218126773834228515625" lon="19.48706145398318767547607421875"><ele>1033.4000244140625</ele><time>2025-05-31T08:12:45.000Z</time></trkpt>
      <trkpt lat="49.59105762653052806854248046875" lon="19.4874975644052028656005859375"><ele>1038.4000244140625</ele><time>2025-05-31T08:13:30.000Z</time></trkpt>
      <trkpt lat="49.590871296823024749755859375" lon="19.48779101483523845672607421875"><ele>1042.5999755859375</ele><time>2025-05-31T08:14:14.000Z</time></trkpt>
      <trkpt lat="49.59059092216193675994873046875" lon="19.48777056299149990081787109375"><ele>1047.4000244140625</ele><time>2025-05-31T08:14:57.000Z</time></trkpt>
      <trkpt lat="49.59026788361370563507080078125" lon="19.4878162443637847900390625"><ele>1052.199951171875</ele><time>2025-05-31T08:15:46.000Z</time></trkpt>
      <trkpt lat="49.59002983756363391876220703125" lon="19.4878090359270572662353515625"><ele>1056.199951171875</ele><time>2025-05-31T08:16:29.000Z</time></trkpt>
      <trkpt lat="49.58989924751222133636474609375" lon="19.4878740794956684112548828125"><ele>1060.4000244140625</ele><time>2025-05-31T08:17:00.000Z</time></trkpt>
      <trkpt lat="49.59000770933926105499267578125" lon="19.48804565705358982086181640625"><ele>1064.800048828125</ele><time>2025-05-31T08:17:33.000Z</time></trkpt>
      <trkpt lat="49.5901305042207241058349609375" lon="19.48849014937877655029296875"><ele>1069.4000244140625</ele><time>2025-05-31T08:18:05.000Z</time></trkpt>
      <trkpt lat="49.59018431603908538818359375" lon="19.48877069167792797088623046875"><ele>1073.4000244140625</ele><time>2025-05-31T08:18:28.000Z</time></trkpt>
      <trkpt lat="49.58998583257198333740234375" lon="19.489234127104282379150390625"><ele>1077.4000244140625</ele><time>2025-05-31T08:19:07.000Z</time></trkpt>
      <trkpt lat="49.5900637842714786529541015625" lon="19.48941106908023357391357421875"><ele>1081.4000244140625</ele><time>2025-05-31T08:19:34.000Z</time></trkpt>
      <trkpt lat="49.59016411565244197845458984375" lon="19.4896979816257953643798828125"><ele>1084.5999755859375</ele><time>2025-05-31T08:20:02.000Z</time></trkpt>
      <trkpt lat="49.58999094553291797637939453125" lon="19.490087740123271942138671875"><ele>1089.199951171875</ele><time>2025-05-31T08:20:40.000Z</time></trkpt>
      <trkpt lat="49.5896500535309314727783203125" lon="19.49033224023878574371337890625"><ele>1094.5999755859375</ele><time>2025-05-31T08:21:19.000Z</time></trkpt>
      <trkpt lat="49.589463137090206146240234375" lon="19.4904919154942035675048828125"><ele>1098.199951171875</ele><time>2025-05-31T08:21:51.000Z</time></trkpt>
      <trkpt lat="49.5893711037933826446533203125" lon="19.49057866819202899932861328125"><ele>1101.5999755859375</ele><time>2025-05-31T08:22:27.000Z</time></trkpt>
      <trkpt lat="49.58959967829287052154541015625" lon="19.490742199122905731201171875"><ele>1103.4000244140625</ele><time>2025-05-31T08:23:14.000Z</time></trkpt>
      <trkpt lat="49.58998591639101505279541015625" lon="19.491066075861454010009765625"><ele>1105.800048828125</ele><time>2025-05-31T08:24:06.000Z</time></trkpt>
      <trkpt lat="49.5903675444424152374267578125" lon="19.49155767448246479034423828125"><ele>1107.199951171875</ele><time>2025-05-31T08:24:41.000Z</time></trkpt>
      <trkpt lat="49.59052805788815021514892578125" lon="19.492103420197963714599609375"><ele>1109.199951171875</ele><time>2025-05-31T08:25:17.000Z</time></trkpt>
      <trkpt lat="49.590689577162265777587890625" lon="19.49268319644033908843994140625"><ele>1111</ele><time>2025-05-31T08:25:54.000Z</time></trkpt>
      <trkpt lat="49.590569548308849334716796875" lon="19.49337445199489593505859375"><ele>1113.199951171875</ele><time>2025-05-31T08:26:38.000Z</time></trkpt>
      <trkpt lat="49.59062729962170124053955078125" lon="19.49390511028468608856201171875"><ele>1114.5999755859375</ele><time>2025-05-31T08:27:08.000Z</time></trkpt>
      <trkpt lat="49.59033024497330188751220703125" lon="19.49462042190134525299072265625"><ele>1116.199951171875</ele><time>2025-05-31T08:27:52.000Z</time></trkpt>
      <trkpt lat="49.59007459692656993865966796875" lon="19.49503683485090732574462890625"><ele>1117.4000244140625</ele><time>2025-05-31T08:28:36.000Z</time></trkpt>
      <trkpt lat="49.58977066911756992340087890625" lon="19.49564670212566852569580078125"><ele>1119</ele><time>2025-05-31T08:29:21.000Z</time></trkpt>
      <trkpt lat="49.5895568467676639556884765625" lon="19.49596722610294818878173828125"><ele>1119.800048828125</ele><time>2025-05-31T08:29:44.000Z</time></trkpt>
      <trkpt lat="49.589515440165996551513671875" lon="19.49652311392128467559814453125"><ele>1121.199951171875</ele><time>2025-05-31T08:30:19.000Z</time></trkpt>
      <trkpt lat="49.58913096226751804351806640625" lon="19.49701060540974140167236328125"><ele>1121.4000244140625</ele><time>2025-05-31T08:30:56.000Z</time></trkpt>
      <trkpt lat="49.5886479131877422332763671875" lon="19.49745920486748218536376953125"><ele>1122.199951171875</ele><time>2025-05-31T08:31:42.000Z</time></trkpt>
      <trkpt lat="49.5882760919630527496337890625" lon="19.49782381765544414520263671875"><ele>1123.4000244140625</ele><time>2025-05-31T08:32:21.000Z</time></trkpt>
      <trkpt lat="49.587821625173091888427734375" lon="19.49796731583774089813232421875"><ele>1124.800048828125</ele><time>2025-05-31T08:33:00.000Z</time></trkpt>
      <trkpt lat="49.58756958134472370147705078125" lon="19.497842006385326385498046875"><ele>1125.5999755859375</ele><time>2025-05-31T08:33:34.000Z</time></trkpt>
      <trkpt lat="49.5874442718923091888427734375" lon="19.498435445129871368408203125"><ele>1127.5999755859375</ele><time>2025-05-31T08:34:06.000Z</time></trkpt>
      <trkpt lat="49.587338156998157501220703125" lon="19.49882729910314083099365234375"><ele>1128.199951171875</ele><time>2025-05-31T08:34:35.000Z</time></trkpt>
      <trkpt lat="49.58761735819280147552490234375" lon="19.49932384304702281951904296875"><ele>1129.199951171875</ele><time>2025-05-31T08:35:13.000Z</time></trkpt>
      <trkpt lat="49.58783159963786602020263671875" lon="19.4998239912092685699462890625"><ele>1130.199951171875</ele><time>2025-05-31T08:35:43.000Z</time></trkpt>
      <trkpt lat="49.58812127821147441864013671875" lon="19.5002246461808681488037109375"><ele>1131.5999755859375</ele><time>2025-05-31T08:36:13.000Z</time></trkpt>
      <trkpt lat="49.5882308296859264373779296875" lon="19.5007892511785030364990234375"><ele>1133.4000244140625</ele><time>2025-05-31T08:36:44.000Z</time></trkpt>
      <trkpt lat="49.58840827457606792449951171875" lon="19.50136341154575347900390625"><ele>1135</ele><time>2025-05-31T08:37:21.000Z</time></trkpt>
      <trkpt lat="49.5886861346662044525146484375" lon="19.50184428133070468902587890625"><ele>1136.199951171875</ele><time>2025-05-31T08:37:56.000Z</time></trkpt>
      <trkpt lat="49.58880155347287654876708984375" lon="19.5024907775223255157470703125"><ele>1137.5999755859375</ele><time>2025-05-31T08:38:34.000Z</time></trkpt>
      <trkpt lat="49.58878344856202602386474609375" lon="19.5031123794615268707275390625"><ele>1139.5999755859375</ele><time>2025-05-31T08:39:07.000Z</time></trkpt>
      <trkpt lat="49.58863793872296810150146484375" lon="19.5036471448838710784912109375"><ele>1142.4000244140625</ele><time>2025-05-31T08:39:42.000Z</time></trkpt>
      <trkpt lat="49.58833769895136356353759765625" lon="19.5042959041893482208251953125"><ele>1146</ele><time>2025-05-31T08:40:26.000Z</time></trkpt>
      <trkpt lat="49.588144831359386444091796875" lon="19.504910297691822052001953125"><ele>1149.5999755859375</ele><time>2025-05-31T08:41:05.000Z</time></trkpt>
      <trkpt lat="49.58787350915372371673583984375" lon="19.50532981194555759429931640625"><ele>1152.5999755859375</ele><time>2025-05-31T08:41:41.000Z</time></trkpt>
      <trkpt lat="49.587774686515331268310546875" lon="19.5055515132844448089599609375"><ele>1154.800048828125</ele><time>2025-05-31T08:42:24.000Z</time></trkpt>
      <trkpt lat="49.5874719321727752685546875" lon="19.50601142831146717071533203125"><ele>1158.199951171875</ele><time>2025-05-31T08:43:05.000Z</time></trkpt>
      <trkpt lat="49.58707890473306179046630859375" lon="19.50643412768840789794921875"><ele>1162</ele><time>2025-05-31T08:43:53.000Z</time></trkpt>
      <trkpt lat="49.586793668568134307861328125" lon="19.50668516568839550018310546875"><ele>1164.800048828125</ele><time>2025-05-31T08:44:28.000Z</time></trkpt>
      <trkpt lat="49.586508013308048248291015625" lon="19.5069281570613384246826171875"><ele>1167.5999755859375</ele><time>2025-05-31T08:45:03.000Z</time></trkpt>
      <trkpt lat="49.586244486272335052490234375" lon="19.5071361958980560302734375"><ele>1170.5999755859375</ele><time>2025-05-31T08:45:34.000Z</time></trkpt>
      <trkpt lat="49.58625898696482181549072265625" lon="19.50746870599687099456787109375"><ele>1174</ele><time>2025-05-31T08:46:13.000Z</time></trkpt>
      <trkpt lat="49.58626870997250080108642578125" lon="19.50782778672873973846435546875"><ele>1176.4000244140625</ele><time>2025-05-31T08:46:42.000Z</time></trkpt>
      <trkpt lat="49.58617265336215496063232421875" lon="19.5082773081958293914794921875"><ele>1178</ele><time>2025-05-31T08:47:19.000Z</time></trkpt>
      <trkpt lat="49.58613283932209014892578125" lon="19.5085475407540798187255859375"><ele>1179.199951171875</ele><time>2025-05-31T08:48:08.000Z</time></trkpt>
      <trkpt lat="49.58602488040924072265625" lon="19.508974850177764892578125"><ele>1183</ele><time>2025-05-31T08:48:42.000Z</time></trkpt>
      <trkpt lat="49.58590887486934661865234375" lon="19.50952269136905670166015625"><ele>1184.4000244140625</ele><time>2025-05-31T08:49:36.000Z</time></trkpt>
      <trkpt lat="49.5858543924987316131591796875" lon="19.5099325664341449737548828125"><ele>1187.199951171875</ele><time>2025-05-31T08:50:11.000Z</time></trkpt>
      <trkpt lat="49.5861011557281017303466796875" lon="19.51004228554666042327880859375"><ele>1191</ele><time>2025-05-31T08:50:49.000Z</time></trkpt>
      <trkpt lat="49.58633727394044399261474609375" lon="19.5101910643279552459716796875"><ele>1194</ele><time>2025-05-31T08:51:20.000Z</time></trkpt>
      <trkpt lat="49.586856365203857421875" lon="19.5103915594518184661865234375"><ele>1196.4000244140625</ele><time>2025-05-31T08:52:05.000Z</time></trkpt>
      <trkpt lat="49.58742239512503147125244140625" lon="19.5109672285616397857666015625"><ele>1196.800048828125</ele><time>2025-05-31T08:53:10.000Z</time></trkpt>
      <trkpt lat="49.5876462757587432861328125" lon="19.51128599233925342559814453125"><ele>1197.199951171875</ele><time>2025-05-31T08:53:38.000Z</time></trkpt>
      <trkpt lat="49.58768449723720550537109375" lon="19.5117105357348918914794921875"><ele>1197.4000244140625</ele><time>2025-05-31T08:54:18.000Z</time></trkpt>
      <trkpt lat="49.58775029517710208892822265625" lon="19.51237798668444156646728515625"><ele>1197.199951171875</ele><time>2025-05-31T08:55:13.000Z</time></trkpt>
      <trkpt lat="49.58781533874571323394775390625" lon="19.51292063109576702117919921875"><ele>1196.800048828125</ele><time>2025-05-31T08:55:44.000Z</time></trkpt>
      <trkpt lat="49.58802656270563602447509765625" lon="19.513544999063014984130859375"><ele>1196.800048828125</ele><time>2025-05-31T08:56:25.000Z</time></trkpt>
      <trkpt lat="49.58821515552699565887451171875" lon="19.51417104341089725494384765625"><ele>1196.5999755859375</ele><time>2025-05-31T08:57:03.000Z</time></trkpt>
      <trkpt lat="49.58821062929928302764892578125" lon="19.51468468643724918365478515625"><ele>1197</ele><time>2025-05-31T08:57:30.000Z</time></trkpt>
      <trkpt lat="49.58801231347024440765380859375" lon="19.51521274633705615997314453125"><ele>1196.5999755859375</ele><time>2025-05-31T08:58:02.000Z</time></trkpt>
      <trkpt lat="49.5875304378569126129150390625" lon="19.51591246761381626129150390625"><ele>1196.4000244140625</ele><time>2025-05-31T08:58:57.000Z</time></trkpt>
      <trkpt lat="49.5875532366335391998291015625" lon="19.5164121128618717193603515625"><ele>1195.199951171875</ele><time>2025-05-31T08:59:30.000Z</time></trkpt>
      <trkpt lat="49.58758600987493991851806640625" lon="19.51671947725117206573486328125"><ele>1186.4000244140625</ele><time>2025-05-31T09:22:04.000Z</time></trkpt>
      <trkpt lat="49.58733639679849147796630859375" lon="19.51655787415802478790283203125"><ele>1190.5999755859375</ele><time>2025-05-31T09:22:37.000Z</time></trkpt>
      <trkpt lat="49.58719440735876560211181640625" lon="19.51650858856737613677978515625"><ele>1194.800048828125</ele><time>2025-05-31T09:23:08.000Z</time></trkpt>
      <trkpt lat="49.58705996163189411163330078125" lon="19.51643214561045169830322265625"><ele>1199.4000244140625</ele><time>2025-05-31T09:23:36.000Z</time></trkpt>
      <trkpt lat="49.586837589740753173828125" lon="19.51625637710094451904296875"><ele>1203.5999755859375</ele><time>2025-05-31T09:24:09.000Z</time></trkpt>
      <trkpt lat="49.5867343246936798095703125" lon="19.51615168713033199310302734375"><ele>1208</ele><time>2025-05-31T09:24:31.000Z</time></trkpt>
      <trkpt lat="49.58661588840186595916748046875" lon="19.51594096608459949493408203125"><ele>1212.4000244140625</ele><time>2025-05-31T09:24:58.000Z</time></trkpt>
      <trkpt lat="49.58645478822290897369384765625" lon="19.51582596637308597564697265625"><ele>1216.5999755859375</ele><time>2025-05-31T09:25:25.000Z</time></trkpt>
      <trkpt lat="49.58627960644662380218505859375" lon="19.51582781039178371429443359375"><ele>1221</ele><time>2025-05-31T09:25:55.000Z</time></trkpt>
      <trkpt lat="49.58596243523061275482177734375" lon="19.5157586596906185150146484375"><ele>1226.5999755859375</ele><time>2025-05-31T09:26:38.000Z</time></trkpt>
      <trkpt lat="49.58557418547570705413818359375" lon="19.515796713531017303466796875"><ele>1230.800048828125</ele><time>2025-05-31T09:27:26.000Z</time></trkpt>
      <trkpt lat="49.58541073836386203765869140625" lon="19.51597901992499828338623046875"><ele>1236.4000244140625</ele><time>2025-05-31T09:28:02.000Z</time></trkpt>
      <trkpt lat="49.58523002453148365020751953125" lon="19.51596133410930633544921875"><ele>1238.199951171875</ele><time>2025-05-31T09:29:05.000Z</time></trkpt>
      <trkpt lat="49.5850034616887569427490234375" lon="19.51602034270763397216796875"><ele>1242.199951171875</ele><time>2025-05-31T09:29:50.000Z</time></trkpt>
      <trkpt lat="49.58477161824703216552734375" lon="19.515973068773746490478515625"><ele>1248</ele><time>2025-05-31T09:30:25.000Z</time></trkpt>
      <trkpt lat="49.58460724912583827972412109375" lon="19.51584599912166595458984375"><ele>1252.800048828125</ele><time>2025-05-31T09:30:54.000Z</time></trkpt>
      <trkpt lat="49.58432259969413280487060546875" lon="19.5156161673367023468017578125"><ele>1257</ele><time>2025-05-31T09:31:31.000Z</time></trkpt>
      <trkpt lat="49.584094025194644927978515625" lon="19.515401422977447509765625"><ele>1262.800048828125</ele><time>2025-05-31T09:32:13.000Z</time></trkpt>
      <trkpt lat="49.58408136852085590362548828125" lon="19.51514518819749355316162109375"><ele>1268.199951171875</ele><time>2025-05-31T09:32:47.000Z</time></trkpt>
      <trkpt lat="49.58406359888613224029541015625" lon="19.5149280130863189697265625"><ele>1274.199951171875</ele><time>2025-05-31T09:33:20.000Z</time></trkpt>
      <trkpt lat="49.5840938575565814971923828125" lon="19.514656104147434234619140625"><ele>1279.4000244140625</ele><time>2025-05-31T09:33:50.000Z</time></trkpt>
      <trkpt lat="49.5840150676667690277099609375" lon="19.51443540863692760467529296875"><ele>1285</ele><time>2025-05-31T09:34:17.000Z</time></trkpt>
      <trkpt lat="49.5840398781001567840576171875" lon="19.51413567177951335906982421875"><ele>1290.800048828125</ele><time>2025-05-31T09:34:48.000Z</time></trkpt>
      <trkpt lat="49.58404247649013996124267578125" lon="19.51412829570472240447998046875"><ele>1292</ele><time>2025-05-31T09:35:18.000Z</time></trkpt>
      <trkpt lat="49.58403074182569980621337890625" lon="19.5134831406176090240478515625"><ele>1296.4000244140625</ele><time>2025-05-31T09:36:12.000Z</time></trkpt>
      <trkpt lat="49.58388514816761016845703125" lon="19.51316337101161479949951171875"><ele>1302.199951171875</ele><time>2025-05-31T09:36:57.000Z</time></trkpt>
      <trkpt lat="49.58381348289549350738525390625" lon="19.51291241683065891265869140625"><ele>1305.800048828125</ele><time>2025-05-31T09:37:30.000Z</time></trkpt>
      <trkpt lat="49.5838266424834728240966796875" lon="19.51235451735556125640869140625"><ele>1310.199951171875</ele><time>2025-05-31T09:38:16.000Z</time></trkpt>
      <trkpt lat="49.5837639458477497100830078125" lon="19.51204530894756317138671875"><ele>1311.4000244140625</ele><time>2025-05-31T09:38:42.000Z</time></trkpt>
      <trkpt lat="49.58357241936028003692626953125" lon="19.51162260957062244415283203125"><ele>1308.4000244140625</ele><time>2025-05-31T09:39:22.000Z</time></trkpt>
      <trkpt lat="49.58331006579101085662841796875" lon="19.511670134961605072021484375"><ele>1313.199951171875</ele><time>2025-05-31T09:39:56.000Z</time></trkpt>
      <trkpt lat="49.58313069306313991546630859375" lon="19.51161841861903667449951171875"><ele>1317.5999755859375</ele><time>2025-05-31T09:40:25.000Z</time></trkpt>
      <trkpt lat="49.58285073749721050262451171875" lon="19.51161682605743408203125"><ele>1326.199951171875</ele><time>2025-05-31T09:41:10.000Z</time></trkpt>
      <trkpt lat="49.58281092345714569091796875" lon="19.51152764260768890380859375"><ele>1331.199951171875</ele><time>2025-05-31T09:41:36.000Z</time></trkpt>
      <trkpt lat="49.58276264369487762451171875" lon="19.511438794434070587158203125"><ele>1336</ele><time>2025-05-31T09:41:59.000Z</time></trkpt>
      <trkpt lat="49.58260632120072841644287109375" lon="19.51136427931487560272216796875"><ele>1343.800048828125</ele><time>2025-05-31T09:42:36.000Z</time></trkpt>
      <trkpt lat="49.58245879970490932464599609375" lon="19.5112119801342487335205078125"><ele>1350.5999755859375</ele><time>2025-05-31T09:43:06.000Z</time></trkpt>
      <trkpt lat="49.58228914998471736907958984375" lon="19.5109732635319232940673828125"><ele>1357.800048828125</ele><time>2025-05-31T09:43:46.000Z</time></trkpt>
      <trkpt lat="49.58229602314531803131103515625" lon="19.51090444810688495635986328125"><ele>1357.800048828125</ele><time>2025-05-31T09:44:39.000Z</time></trkpt>
      <trkpt lat="49.58230524323880672454833984375" lon="19.5108639635145664215087890625"><ele>1360.800048828125</ele><time>2025-05-31T09:46:54.000Z</time></trkpt>
      <trkpt lat="49.58218437619507312774658203125" lon="19.510774947702884674072265625"><ele>1366.800048828125</ele><time>2025-05-31T09:47:23.000Z</time></trkpt>
      <trkpt lat="49.5820798538625240325927734375" lon="19.5107268355786800384521484375"><ele>1373.199951171875</ele><time>2025-05-31T09:47:51.000Z</time></trkpt>
      <trkpt lat="49.58202109672129154205322265625" lon="19.5106713473796844482421875"><ele>1376.199951171875</ele><time>2025-05-31T09:48:47.000Z</time></trkpt>
      <trkpt lat="49.58197164349257946014404296875" lon="19.51057545840740203857421875"><ele>1381.800048828125</ele><time>2025-05-31T09:49:18.000Z</time></trkpt>
      <trkpt lat="49.5818553864955902099609375" lon="19.5106016099452972412109375"><ele>1389.199951171875</ele><time>2025-05-31T09:50:08.000Z</time></trkpt>
      <trkpt lat="49.58166184835135936737060546875" lon="19.5106145180761814117431640625"><ele>1399</ele><time>2025-05-31T09:51:07.000Z</time></trkpt>
      <trkpt lat="49.581625051796436309814453125" lon="19.5102762244641780853271484375"><ele>1404</ele><time>2025-05-31T09:52:23.000Z</time></trkpt>
      <trkpt lat="49.58164491690695285797119140625" lon="19.51028469018638134002685546875"><ele>1402.5999755859375</ele><time>2025-05-31T09:53:41.000Z</time></trkpt>
      <trkpt lat="49.58150812424719333648681640625" lon="19.51032861135900020599365234375"><ele>1401.5999755859375</ele><time>2025-05-31T09:55:57.000Z</time></trkpt>
      <trkpt lat="49.5811766199767589569091796875" lon="19.51056950725615024566650390625"><ele>1406</ele><time>2025-05-31T09:56:35.000Z</time></trkpt>
      <trkpt lat="49.58088719286024570465087890625" lon="19.5109122432768344879150390625"><ele>1407.800048828125</ele><time>2025-05-31T09:57:14.000Z</time></trkpt>
      <trkpt lat="49.580605141818523406982421875" lon="19.51121508143842220306396484375"><ele>1410.199951171875</ele><time>2025-05-31T09:57:52.000Z</time></trkpt>
      <trkpt lat="49.5803572051227092742919921875" lon="19.5115231163799762725830078125"><ele>1414.800048828125</ele><time>2025-05-31T09:58:31.000Z</time></trkpt>
      <trkpt lat="49.58014640025794506072998046875" lon="19.51178379356861114501953125"><ele>1418.800048828125</ele><time>2025-05-31T09:59:04.000Z</time></trkpt>
      <trkpt lat="49.579874910414218902587890625" lon="19.5120736397802829742431640625"><ele>1424.5999755859375</ele><time>2025-05-31T09:59:42.000Z</time></trkpt>
      <trkpt lat="49.57962890155613422393798828125" lon="19.512397013604640960693359375"><ele>1429</ele><time>2025-05-31T10:00:19.000Z</time></trkpt>
      <trkpt lat="49.5794120617210865020751953125" lon="19.51260597445070743560791015625"><ele>1434</ele><time>2025-05-31T10:00:52.000Z</time></trkpt>
      <trkpt lat="49.57917694933712482452392578125" lon="19.51292683370411396026611328125"><ele>1440.4000244140625</ele><time>2025-05-31T10:01:33.000Z</time></trkpt>
      <trkpt lat="49.5791190303862094879150390625" lon="19.5129607804119586944580078125"><ele>1442.199951171875</ele><time>2025-05-31T10:02:28.000Z</time></trkpt>
      <trkpt lat="49.57892415113747119903564453125" lon="19.51318298466503620147705078125"><ele>1446.5999755859375</ele><time>2025-05-31T10:03:37.000Z</time></trkpt>
      <trkpt lat="49.5787653140723705291748046875" lon="19.51342388056218624114990234375"><ele>1452.800048828125</ele><time>2025-05-31T10:04:11.000Z</time></trkpt>
      <trkpt lat="49.578537158668041229248046875" lon="19.51367801986634731292724609375"><ele>1459.199951171875</ele><time>2025-05-31T10:04:45.000Z</time></trkpt>
      <trkpt lat="49.57834294997155666351318359375" lon="19.51390081085264682769775390625"><ele>1465.5999755859375</ele><time>2025-05-31T10:05:18.000Z</time></trkpt>
      <trkpt lat="49.57819777540862560272216796875" lon="19.5140698738396167755126953125"><ele>1472.5999755859375</ele><time>2025-05-31T10:05:54.000Z</time></trkpt>
      <trkpt lat="49.57802812568843364715576171875" lon="19.514283947646617889404296875"><ele>1482.5999755859375</ele><time>2025-05-31T10:06:36.000Z</time></trkpt>
      <trkpt lat="49.57786895334720611572265625" lon="19.514430463314056396484375"><ele>1489.4000244140625</ele><time>2025-05-31T10:07:07.000Z</time></trkpt>
      <trkpt lat="49.57774884067475795745849609375" lon="19.514604471623897552490234375"><ele>1497.4000244140625</ele><time>2025-05-31T10:07:45.000Z</time></trkpt>
      <trkpt lat="49.57764440216124057769775390625" lon="19.51472324319183826446533203125"><ele>1505.4000244140625</ele><time>2025-05-31T10:08:18.000Z</time></trkpt>
      <trkpt lat="49.57749956287443637847900390625" lon="19.51489624567329883575439453125"><ele>1512.4000244140625</ele><time>2025-05-31T10:08:54.000Z</time></trkpt>
      <trkpt lat="49.57738858647644519805908203125" lon="19.514941759407520294189453125"><ele>1514</ele><time>2025-05-31T10:09:37.000Z</time></trkpt>
      <trkpt lat="49.57739017903804779052734375" lon="19.514947794377803802490234375"><ele>1514.5999755859375</ele><time>2025-05-31T10:10:49.000Z</time></trkpt>
      <trkpt lat="49.57739696837961673736572265625" lon="19.514970593154430389404296875"><ele>1515.199951171875</ele><time>2025-05-31T10:13:46.000Z</time></trkpt>
      <trkpt lat="49.57739395089447498321533203125" lon="19.5149694196879863739013671875"><ele>1515.800048828125</ele><time>2025-05-31T10:14:56.000Z</time></trkpt>
      <trkpt lat="49.57722715102136135101318359375" lon="19.5150341279804706573486328125"><ele>1521</ele><time>2025-05-31T10:16:03.000Z</time></trkpt>
      <trkpt lat="49.57688190042972564697265625" lon="19.515173770487308502197265625"><ele>1526.5999755859375</ele><time>2025-05-31T10:16:42.000Z</time></trkpt>
      <trkpt lat="49.57662574946880340576171875" lon="19.51518860645592212677001953125"><ele>1532.4000244140625</ele><time>2025-05-31T10:17:23.000Z</time></trkpt>
      <trkpt lat="49.57650278694927692413330078125" lon="19.5152614451944828033447265625"><ele>1538.4000244140625</ele><time>2025-05-31T10:17:55.000Z</time></trkpt>
      <trkpt lat="49.5763607136905193328857421875" lon="19.5153710804879665374755859375"><ele>1546</ele><time>2025-05-31T10:18:39.000Z</time></trkpt>
      <trkpt lat="49.57614286802709102630615234375" lon="19.5154525525867938995361328125"><ele>1551.800048828125</ele><time>2025-05-31T10:19:16.000Z</time></trkpt>
      <trkpt lat="49.575974978506565093994140625" lon="19.51547526754438877105712890625"><ele>1558.199951171875</ele><time>2025-05-31T10:19:54.000Z</time></trkpt>
      <trkpt lat="49.57590901292860507965087890625" lon="19.51561323367059230804443359375"><ele>1562</ele><time>2025-05-31T10:20:33.000Z</time></trkpt>
      <trkpt lat="49.57586492411792278289794921875" lon="19.51556026004254817962646484375"><ele>1561.5999755859375</ele><time>2025-05-31T10:21:32.000Z</time></trkpt>
      <trkpt lat="49.57583391107618808746337890625" lon="19.5155467651784420013427734375"><ele>1565</ele><time>2025-05-31T10:23:03.000Z</time></trkpt>
      <trkpt lat="49.575604163110256195068359375" lon="19.51564617455005645751953125"><ele>1570.199951171875</ele><time>2025-05-31T10:23:30.000Z</time></trkpt>
      <trkpt lat="49.57545085810124874114990234375" lon="19.51573158614337444305419921875"><ele>1576</ele><time>2025-05-31T10:24:04.000Z</time></trkpt>
      <trkpt lat="49.575213901698589324951171875" lon="19.51596929691731929779052734375"><ele>1583</ele><time>2025-05-31T10:24:49.000Z</time></trkpt>
      <trkpt lat="49.57495749928057193756103515625" lon="19.51628143899142742156982421875"><ele>1589.5999755859375</ele><time>2025-05-31T10:25:30.000Z</time></trkpt>
      <trkpt lat="49.57465105690062046051025390625" lon="19.516561143100261688232421875"><ele>1596</ele><time>2025-05-31T10:26:12.000Z</time></trkpt>
      <trkpt lat="49.57428191788494586944580078125" lon="19.5167906396090984344482421875"><ele>1598.199951171875</ele><time>2025-05-31T10:26:51.000Z</time></trkpt>
      <trkpt lat="49.5739735476672649383544921875" lon="19.51732213608920574188232421875"><ele>1602.4000244140625</ele><time>2025-05-31T10:27:45.000Z</time></trkpt>
      <trkpt lat="49.573925100266933441162109375" lon="19.51743193902075290679931640625"><ele>1602.800048828125</ele><time>2025-05-31T10:28:56.000Z</time></trkpt>
      <trkpt lat="49.57353224046528339385986328125" lon="19.5180985517799854278564453125"><ele>1604.800048828125</ele><time>2025-05-31T10:29:49.000Z</time></trkpt>
      <trkpt lat="49.57322512753307819366455078125" lon="19.5188874565064907073974609375"><ele>1605.5999755859375</ele><time>2025-05-31T10:30:54.000Z</time></trkpt>
      <trkpt lat="49.57299881614744663238525390625" lon="19.51977518387138843536376953125"><ele>1605</ele><time>2025-05-31T10:31:50.000Z</time></trkpt>
      <trkpt lat="49.57287442870438098907470703125" lon="19.520188160240650177001953125"><ele>1608.800048828125</ele><time>2025-05-31T10:32:22.000Z</time></trkpt>
      <trkpt lat="49.572676531970500946044921875" lon="19.520886205136775970458984375"><ele>1611.4000244140625</ele><time>2025-05-31T10:33:14.000Z</time></trkpt>
      <trkpt lat="49.57242800854146480560302734375" lon="19.52127001248300075531005859375"><ele>1613.4000244140625</ele><time>2025-05-31T10:34:07.000Z</time></trkpt>
      <trkpt lat="49.57227998413145542144775390625" lon="19.5215874351561069488525390625"><ele>1617.800048828125</ele><time>2025-05-31T10:34:39.000Z</time></trkpt>
      <trkpt lat="49.57223840989172458648681640625" lon="19.521910808980464935302734375"><ele>1624.4000244140625</ele><time>2025-05-31T10:35:11.000Z</time></trkpt>
      <trkpt lat="49.5722200535237789154052734375" lon="19.5223351009190082550048828125"><ele>1629.4000244140625</ele><time>2025-05-31T10:35:55.000Z</time></trkpt>
      <trkpt lat="49.57222147844731807708740234375" lon="19.52258362434804439544677734375"><ele>1631.800048828125</ele><time>2025-05-31T10:36:41.000Z</time></trkpt>
      <trkpt lat="49.57215324975550174713134765625" lon="19.5233198069036006927490234375"><ele>1635.4000244140625</ele><time>2025-05-31T10:37:39.000Z</time></trkpt>
      <trkpt lat="49.5721654035151004791259765625" lon="19.52368316240608692169189453125"><ele>1639.5999755859375</ele><time>2025-05-31T10:38:11.000Z</time></trkpt>
      <trkpt lat="49.57211284898221492767333984375" lon="19.52406118623912334442138671875"><ele>1647.199951171875</ele><time>2025-05-31T10:38:57.000Z</time></trkpt>
      <trkpt lat="49.57211905159056186676025390625" lon="19.52449880540370941162109375"><ele>1652.4000244140625</ele><time>2025-05-31T10:39:42.000Z</time></trkpt>
      <trkpt lat="49.5721704326570034027099609375" lon="19.52494782395660877227783203125"><ele>1659.4000244140625</ele><time>2025-05-31T10:40:27.000Z</time></trkpt>
      <trkpt lat="49.57217655144631862640380859375" lon="19.52527287416160106658935546875"><ele>1668</ele><time>2025-05-31T10:41:02.000Z</time></trkpt>
      <trkpt lat="49.5721791498363018035888671875" lon="19.52549993991851806640625"><ele>1675</ele><time>2025-05-31T10:41:38.000Z</time></trkpt>
      <trkpt lat="49.57226674072444438934326171875" lon="19.52588542364537715911865234375"><ele>1682.800048828125</ele><time>2025-05-31T10:42:17.000Z</time></trkpt>
      <trkpt lat="49.57245717756450176239013671875" lon="19.5263037644326686859130859375"><ele>1688.199951171875</ele><time>2025-05-31T10:43:02.000Z</time></trkpt>
      <trkpt lat="49.57248802296817302703857421875" lon="19.526384733617305755615234375"><ele>1688</ele><time>2025-05-31T10:43:46.000Z</time></trkpt>
      <trkpt lat="49.5724909566342830657958984375" lon="19.5263939537107944488525390625"><ele>1688.800048828125</ele><time>2025-05-31T10:45:46.000Z</time></trkpt>
      <trkpt lat="49.5726418308913707733154296875" lon="19.52700407244265079498291015625"><ele>1691.199951171875</ele><time>2025-05-31T10:46:46.000Z</time></trkpt>
      <trkpt lat="49.572906196117401123046875" lon="19.5280552469193935394287109375"><ele>1690.800048828125</ele><time>2025-05-31T10:47:42.000Z</time></trkpt>
      <trkpt lat="49.5729952119290828704833984375" lon="19.52842866070568561553955078125"><ele>1695.800048828125</ele><time>2025-05-31T10:48:09.000Z</time></trkpt>
      <trkpt lat="49.57300166599452495574951171875" lon="19.52879025600850582122802734375"><ele>1701.800048828125</ele><time>2025-05-31T10:48:38.000Z</time></trkpt>
      <trkpt lat="49.57302756607532501220703125" lon="19.52891900204122066497802734375"><ele>1709.199951171875</ele><time>2025-05-31T10:49:10.000Z</time></trkpt>
      <trkpt lat="49.5729745924472808837890625" lon="19.529075659811496734619140625"><ele>1715.4000244140625</ele><time>2025-05-31T10:49:39.000Z</time></trkpt>
      <trkpt lat="49.57308699376881122589111328125" lon="19.52949282713234424591064453125"><ele>1721.800048828125</ele><time>2025-05-31T10:50:28.000Z</time></trkpt>
      <trkpt lat="49.573073498904705047607421875" lon="19.5295165479183197021484375"><ele>1721.4000244140625</ele><time>2025-05-31T10:51:06.000Z</time></trkpt>
      <trkpt lat="49.5729826390743255615234375" lon="19.52950783073902130126953125"><ele>1718.800048828125</ele><time>2025-05-31T10:55:13.000Z</time></trkpt>
      <trkpt lat="49.572962187230587005615234375" lon="19.52951327897608280181884765625"><ele>1718.800048828125</ele><time>2025-05-31T10:58:44.000Z</time></trkpt>
      <trkpt lat="49.57295724190771579742431640625" lon="19.52951495535671710968017578125"><ele>1717.4000244140625</ele><time>2025-05-31T11:00:08.000Z</time></trkpt>
      <trkpt lat="49.57293293438851833343505859375" lon="19.5295284502208232879638671875"><ele>1719.800048828125</ele><time>2025-05-31T11:20:47.000Z</time></trkpt>
      <trkpt lat="49.57304374314844608306884765625" lon="19.5289735682308673858642578125"><ele>1713</ele><time>2025-05-31T11:21:54.000Z</time></trkpt>
      <trkpt lat="49.57304039038717746734619140625" lon="19.52884658239781856536865234375"><ele>1707.199951171875</ele><time>2025-05-31T11:22:30.000Z</time></trkpt>
      <trkpt lat="49.5729958824813365936279296875" lon="19.52854919247329235076904296875"><ele>1696.5999755859375</ele><time>2025-05-31T11:23:46.000Z</time></trkpt>
      <trkpt lat="49.57290058024227619171142578125" lon="19.52784511260688304901123046875"><ele>1692.199951171875</ele><time>2025-05-31T11:25:20.000Z</time></trkpt>
      <trkpt lat="49.57273847423493862152099609375" lon="19.5272473990917205810546875"><ele>1691.800048828125</ele><time>2025-05-31T11:26:16.000Z</time></trkpt>
      <trkpt lat="49.57243773154914379119873046875" lon="19.526376016438007354736328125"><ele>1688.800048828125</ele><time>2025-05-31T11:27:12.000Z</time></trkpt>
      <trkpt lat="49.57220823504030704498291015625" lon="19.525686018168926239013671875"><ele>1681.199951171875</ele><time>2025-05-31T11:28:01.000Z</time></trkpt>
      <trkpt lat="49.57216867245733737945556640625" lon="19.52545945532619953155517578125"><ele>1674.4000244140625</ele><time>2025-05-31T11:28:32.000Z</time></trkpt>
      <trkpt lat="49.5721979252994060516357421875" lon="19.52519643120467662811279296875"><ele>1667.199951171875</ele><time>2025-05-31T11:29:09.000Z</time></trkpt>
      <trkpt lat="49.5721667446196079254150390625" lon="19.524930305778980255126953125"><ele>1660.4000244140625</ele><time>2025-05-31T11:29:49.000Z</time></trkpt>
      <trkpt lat="49.57212910987436771392822265625" lon="19.52454498969018459320068359375"><ele>1652.4000244140625</ele><time>2025-05-31T11:30:30.000Z</time></trkpt>
      <trkpt lat="49.5721224881708621978759765625" lon="19.52413997612893581390380859375"><ele>1646.199951171875</ele><time>2025-05-31T11:31:13.000Z</time></trkpt>
      <trkpt lat="49.57219415344297885894775390625" lon="19.52394425868988037109375"><ele>1640.5999755859375</ele><time>2025-05-31T11:31:54.000Z</time></trkpt>
      <trkpt lat="49.57218510098755359649658203125" lon="19.52347311191260814666748046875"><ele>1634.800048828125</ele><time>2025-05-31T11:32:29.000Z</time></trkpt>
      <trkpt lat="49.57216414622962474822998046875" lon="19.522852934896945953369140625"><ele>1630.800048828125</ele><time>2025-05-31T11:33:04.000Z</time></trkpt>
      <trkpt lat="49.572240673005580902099609375" lon="19.52221012674272060394287109375"><ele>1625.199951171875</ele><time>2025-05-31T11:33:40.000Z</time></trkpt>
      <trkpt lat="49.5722445286810398101806640625" lon="19.52184199355542659759521484375"><ele>1620.5999755859375</ele><time>2025-05-31T11:34:11.000Z</time></trkpt>
      <trkpt lat="49.5723550021648406982421875" lon="19.5213547535240650177001953125"><ele>1612.800048828125</ele><time>2025-05-31T11:34:54.000Z</time></trkpt>
      <trkpt lat="49.5727772824466228485107421875" lon="19.520666263997554779052734375"><ele>1607.4000244140625</ele><time>2025-05-31T11:35:45.000Z</time></trkpt>
      <trkpt lat="49.57292136736214160919189453125" lon="19.519976936280727386474609375"><ele>1603.800048828125</ele><time>2025-05-31T11:36:28.000Z</time></trkpt>
      <trkpt lat="49.57319562323391437530517578125" lon="19.5191659033298492431640625"><ele>1601.800048828125</ele><time>2025-05-31T11:37:15.000Z</time></trkpt>
      <trkpt lat="49.57338186912238597869873046875" lon="19.51846760697662830352783203125"><ele>1600.4000244140625</ele><time>2025-05-31T11:38:05.000Z</time></trkpt>
      <trkpt lat="49.57375972531735897064208984375" lon="19.51772413216531276702880859375"><ele>1599.199951171875</ele><time>2025-05-31T11:39:09.000Z</time></trkpt>
      <trkpt lat="49.57416809163987636566162109375" lon="19.5171587727963924407958984375"><ele>1598.199951171875</ele><time>2025-05-31T11:40:02.000Z</time></trkpt>
      <trkpt lat="49.57452767528593540191650390625" lon="19.51671411283314228057861328125"><ele>1593.800048828125</ele><time>2025-05-31T11:40:52.000Z</time></trkpt>
      <trkpt lat="49.57481098361313343048095703125" lon="19.51646248809993267059326171875"><ele>1590.5999755859375</ele><time>2025-05-31T11:41:27.000Z</time></trkpt>
      <trkpt lat="49.5749907754361629486083984375" lon="19.516195356845855712890625"><ele>1585</ele><time>2025-05-31T11:41:57.000Z</time></trkpt>
      <trkpt lat="49.5752358622848987579345703125" lon="19.51590760610997676849365234375"><ele>1578.4000244140625</ele><time>2025-05-31T11:42:34.000Z</time></trkpt>
      <trkpt lat="49.57545454613864421844482421875" lon="19.515708871185779571533203125"><ele>1573</ele><time>2025-05-31T11:43:48.000Z</time></trkpt>
      <trkpt lat="49.575698375701904296875" lon="19.5155903510749340057373046875"><ele>1564</ele><time>2025-05-31T11:44:23.000Z</time></trkpt>
      <trkpt lat="49.57588789053261280059814453125" lon="19.51557953841984272003173828125"><ele>1557.5999755859375</ele><time>2025-05-31T11:44:58.000Z</time></trkpt>
      <trkpt lat="49.57604630850255489349365234375" lon="19.5154381357133388519287109375"><ele>1551.800048828125</ele><time>2025-05-31T11:46:28.000Z</time></trkpt>
      <trkpt lat="49.57630765624344348907470703125" lon="19.51536395587027072906494140625"><ele>1544</ele><time>2025-05-31T11:47:08.000Z</time></trkpt>
      <trkpt lat="49.57646423019468784332275390625" lon="19.51528315432369709014892578125"><ele>1539</ele><time>2025-05-31T11:47:43.000Z</time></trkpt>
      <trkpt lat="49.57655173726379871368408203125" lon="19.51523906551301479339599609375"><ele>1534.4000244140625</ele><time>2025-05-31T11:48:23.000Z</time></trkpt>
      <trkpt lat="49.57659716717898845672607421875" lon="19.5151997543871402740478515625"><ele>1530.199951171875</ele><time>2025-05-31T11:48:54.000Z</time></trkpt>
      <trkpt lat="49.57697066478431224822998046875" lon="19.51510176993906497955322265625"><ele>1524.5999755859375</ele><time>2025-05-31T11:49:55.000Z</time></trkpt>
      <trkpt lat="49.5772957988083362579345703125" lon="19.51497017405927181243896484375"><ele>1520.199951171875</ele><time>2025-05-31T11:50:23.000Z</time></trkpt>
      <trkpt lat="49.57755915820598602294921875" lon="19.5148336328566074371337890625"><ele>1513.5999755859375</ele><time>2025-05-31T11:50:55.000Z</time></trkpt>
      <trkpt lat="49.577676169574260711669921875" lon="19.51464495621621608734130859375"><ele>1507.199951171875</ele><time>2025-05-31T11:51:29.000Z</time></trkpt>
      <trkpt lat="49.57772855646908283233642578125" lon="19.51459340751171112060546875"><ele>1502.4000244140625</ele><time>2025-05-31T11:51:57.000Z</time></trkpt>
      <trkpt lat="49.57785286009311676025390625" lon="19.51445351354777812957763671875"><ele>1495.800048828125</ele><time>2025-05-31T11:52:29.000Z</time></trkpt>
      <trkpt lat="49.5779787562787532806396484375" lon="19.514293335378170013427734375"><ele>1488.800048828125</ele><time>2025-05-31T11:52:57.000Z</time></trkpt>
      <trkpt lat="49.57812636159360408782958984375" lon="19.51414673589169979095458984375"><ele>1481.4000244140625</ele><time>2025-05-31T11:53:29.000Z</time></trkpt>
      <trkpt lat="49.5782665908336639404296875" lon="19.51397524215281009674072265625"><ele>1473.5999755859375</ele><time>2025-05-31T11:53:58.000Z</time></trkpt>
      <trkpt lat="49.57842844538390636444091796875" lon="19.51377793215215206146240234375"><ele>1467.199951171875</ele><time>2025-05-31T11:54:25.000Z</time></trkpt>
      <trkpt lat="49.5785685069859027862548828125" lon="19.51356754638254642486572265625"><ele>1462.4000244140625</ele><time>2025-05-31T11:54:46.000Z</time></trkpt>
      <trkpt lat="49.578831195831298828125" lon="19.5133483596146106719970703125"><ele>1455.4000244140625</ele><time>2025-05-31T11:55:15.000Z</time></trkpt>
      <trkpt lat="49.579056166112422943115234375" lon="19.5130275003612041473388671875"><ele>1448.199951171875</ele><time>2025-05-31T11:55:47.000Z</time></trkpt>
      <trkpt lat="49.57923729903995990753173828125" lon="19.51278425753116607666015625"><ele>1443.5999755859375</ele><time>2025-05-31T11:56:10.000Z</time></trkpt>
      <trkpt lat="49.57944667898118495941162109375" lon="19.51257043518126010894775390625"><ele>1438</ele><time>2025-05-31T11:56:43.000Z</time></trkpt>
      <trkpt lat="49.5797097869217395782470703125" lon="19.5122940838336944580078125"><ele>1432.5999755859375</ele><time>2025-05-31T11:57:18.000Z</time></trkpt>
      <trkpt lat="49.5798824541270732879638671875" lon="19.5120317302644252777099609375"><ele>1428.800048828125</ele><time>2025-05-31T11:57:41.000Z</time></trkpt>
      <trkpt lat="49.5801503397524356842041015625" lon="19.51171933673322200775146484375"><ele>1424.199951171875</ele><time>2025-05-31T11:58:16.000Z</time></trkpt>
      <trkpt lat="49.58044253289699554443359375" lon="19.51137785799801349639892578125"><ele>1419</ele><time>2025-05-31T11:58:47.000Z</time></trkpt>
      <trkpt lat="49.580689631402492523193359375" lon="19.51104995794594287872314453125"><ele>1415.199951171875</ele><time>2025-05-31T11:59:12.000Z</time></trkpt>
      <trkpt lat="49.58121878094971179962158203125" lon="19.510495327413082122802734375"><ele>1411</ele><time>2025-05-31T12:00:06.000Z</time></trkpt>
      <trkpt lat="49.5814649574458599090576171875" lon="19.51043506152927875518798828125"><ele>1408.800048828125</ele><time>2025-05-31T12:00:57.000Z</time></trkpt>
      <trkpt lat="49.581503681838512420654296875" lon="19.51039684005081653594970703125"><ele>1407.5999755859375</ele><time>2025-05-31T12:03:35.000Z</time></trkpt>
      <trkpt lat="49.581573419272899627685546875" lon="19.50978294946253299713134765625"><ele>1407.199951171875</ele><time>2025-05-31T12:04:17.000Z</time></trkpt>
      <trkpt lat="49.58155824802815914154052734375" lon="19.50950659811496734619140625"><ele>1409</ele><time>2025-05-31T12:04:40.000Z</time></trkpt>
      <trkpt lat="49.58158942870795726776123046875" lon="19.509187750518321990966796875"><ele>1415.5999755859375</ele><time>2025-05-31T12:05:15.000Z</time></trkpt>
      <trkpt lat="49.581726975739002227783203125" lon="19.5085260830819606781005859375"><ele>1421</ele><time>2025-05-31T12:06:11.000Z</time></trkpt>
      <trkpt lat="49.581777937710285186767578125" lon="19.50809248723089694976806640625"><ele>1423.199951171875</ele><time>2025-05-31T12:06:41.000Z</time></trkpt>
      <trkpt lat="49.58186267875134944915771484375" lon="19.50736351311206817626953125"><ele>1428.199951171875</ele><time>2025-05-31T12:07:31.000Z</time></trkpt>
      <trkpt lat="49.58192721940577030181884765625" lon="19.50684928335249423980712890625"><ele>1432.5999755859375</ele><time>2025-05-31T12:08:10.000Z</time></trkpt>
      <trkpt lat="49.58191263489425182342529296875" lon="19.5064763724803924560546875"><ele>1437.199951171875</ele><time>2025-05-31T12:08:39.000Z</time></trkpt>
      <trkpt lat="49.58198103122413158416748046875" lon="19.50620136223733425140380859375"><ele>1444.199951171875</ele><time>2025-05-31T12:09:14.000Z</time></trkpt>
      <trkpt lat="49.581938870251178741455078125" lon="19.505877904593944549560546875"><ele>1450</ele><time>2025-05-31T12:09:54.000Z</time></trkpt>
      <trkpt lat="49.5819363556802272796630859375" lon="19.5055464841425418853759765625"><ele>1456.5999755859375</ele><time>2025-05-31T12:10:29.000Z</time></trkpt>
      <trkpt lat="49.581956304609775543212890625" lon="19.5050868205726146697998046875"><ele>1464.5999755859375</ele><time>2025-05-31T12:11:16.000Z</time></trkpt>
      <trkpt lat="49.58198346197605133056640625" lon="19.50470653362572193145751953125"><ele>1471</ele><time>2025-05-31T12:11:55.000Z</time></trkpt>
      <trkpt lat="49.58200349472463130950927734375" lon="19.50446446426212787628173828125"><ele>1479</ele><time>2025-05-31T12:12:29.000Z</time></trkpt>
      <trkpt lat="49.58201925270259380340576171875" lon="19.50428090058267116546630859375"><ele>1482.4000244140625</ele><time>2025-05-31T12:13:21.000Z</time></trkpt>
      <trkpt lat="49.58202377893030643463134765625" lon="19.50430135242640972137451171875"><ele>1482.800048828125</ele><time>2025-05-31T12:14:20.000Z</time></trkpt>
      <trkpt lat="49.58201539702713489532470703125" lon="19.5043250732123851776123046875"><ele>1483.800048828125</ele><time>2025-05-31T12:16:16.000Z</time></trkpt>
      <trkpt lat="49.58197147585451602935791015625" lon="19.50421770103275775909423828125"><ele>1482.800048828125</ele><time>2025-05-31T12:18:24.000Z</time></trkpt>
      <trkpt lat="49.58179445005953311920166015625" lon="19.5033584721386432647705078125"><ele>1481.199951171875</ele><time>2025-05-31T12:19:14.000Z</time></trkpt>
      <trkpt lat="49.5816664583981037139892578125" lon="19.502485580742359161376953125"><ele>1479.199951171875</ele><time>2025-05-31T12:20:08.000Z</time></trkpt>
      <trkpt lat="49.58163083530962467193603515625" lon="19.50215877033770084381103515625"><ele>1482</ele><time>2025-05-31T12:20:36.000Z</time></trkpt>
      <trkpt lat="49.58159110508859157562255859375" lon="19.50184528715908527374267578125"><ele>1485.5999755859375</ele><time>2025-05-31T12:21:02.000Z</time></trkpt>
      <trkpt lat="49.58148482255637645721435546875" lon="19.50136265717446804046630859375"><ele>1489.4000244140625</ele><time>2025-05-31T12:21:38.000Z</time></trkpt>
      <trkpt lat="49.58143671043217182159423828125" lon="19.500972144305706024169921875"><ele>1494.4000244140625</ele><time>2025-05-31T12:22:14.000Z</time></trkpt>
      <trkpt lat="49.58138541318476200103759765625" lon="19.500424973666667938232421875"><ele>1500.5999755859375</ele><time>2025-05-31T12:23:00.000Z</time></trkpt>
      <trkpt lat="49.58134434185922145843505859375" lon="19.49997293762862682342529296875"><ele>1506.5999755859375</ele><time>2025-05-31T12:23:47.000Z</time></trkpt>
      <trkpt lat="49.5812403224408626556396484375" lon="19.49959524907171726226806640625"><ele>1511.800048828125</ele><time>2025-05-31T12:24:24.000Z</time></trkpt>
      <trkpt lat="49.58123034797608852386474609375" lon="19.49948041699826717376708984375"><ele>1511.4000244140625</ele><time>2025-05-31T12:25:08.000Z</time></trkpt>
      <trkpt lat="49.5812621153891086578369140625" lon="19.49944923631846904754638671875"><ele>1510.4000244140625</ele><time>2025-05-31T12:26:43.000Z</time></trkpt>
      <trkpt lat="49.58132221363484859466552734375" lon="19.4989747367799282073974609375"><ele>1505.199951171875</ele><time>2025-05-31T12:27:19.000Z</time></trkpt>
      <trkpt lat="49.581386335194110870361328125" lon="19.4985717348754405975341796875"><ele>1497.5999755859375</ele><time>2025-05-31T12:27:55.000Z</time></trkpt>
      <trkpt lat="49.5814411528408527374267578125" lon="19.498188681900501251220703125"><ele>1491</ele><time>2025-05-31T12:28:25.000Z</time></trkpt>
      <trkpt lat="49.58151851780712604522705078125" lon="19.4976607896387577056884765625"><ele>1484.4000244140625</ele><time>2025-05-31T12:29:01.000Z</time></trkpt>
      <trkpt lat="49.58159613423049449920654296875" lon="19.49719383381307125091552734375"><ele>1477.5999755859375</ele><time>2025-05-31T12:29:44.000Z</time></trkpt>
      <trkpt lat="49.58169688470661640167236328125" lon="19.49700348079204559326171875"><ele>1473</ele><time>2025-05-31T12:30:09.000Z</time></trkpt>
      <trkpt lat="49.58178942091763019561767578125" lon="19.49678756296634674072265625"><ele>1465.4000244140625</ele><time>2025-05-31T12:30:44.000Z</time></trkpt>
      <trkpt lat="49.581859409809112548828125" lon="19.4966559670865535736083984375"><ele>1460.5999755859375</ele><time>2025-05-31T12:31:07.000Z</time></trkpt>
      <trkpt lat="49.58201774396002292633056640625" lon="19.4963724911212921142578125"><ele>1453.5999755859375</ele><time>2025-05-31T12:31:44.000Z</time></trkpt>
      <trkpt lat="49.5821231044828891754150390625" lon="19.49612715281546115875244140625"><ele>1446.4000244140625</ele><time>2025-05-31T12:32:17.000Z</time></trkpt>
      <trkpt lat="49.58223290741443634033203125" lon="19.495906122028827667236328125"><ele>1439.4000244140625</ele><time>2025-05-31T12:32:53.000Z</time></trkpt>
      <trkpt lat="49.582389481365680694580078125" lon="19.495668746531009674072265625"><ele>1431.5999755859375</ele><time>2025-05-31T12:33:24.000Z</time></trkpt>
      <trkpt lat="49.58252686075866222381591796875" lon="19.49538786895573139190673828125"><ele>1424.800048828125</ele><time>2025-05-31T12:33:53.000Z</time></trkpt>
      <trkpt lat="49.58270707167685031890869140625" lon="19.495118893682956695556640625"><ele>1417.199951171875</ele><time>2025-05-31T12:34:27.000Z</time></trkpt>
      <trkpt lat="49.58289004862308502197265625" lon="19.49481320567429065704345703125"><ele>1411.5999755859375</ele><time>2025-05-31T12:34:56.000Z</time></trkpt>
      <trkpt lat="49.5831198804080486297607421875" lon="19.49440844357013702392578125"><ele>1405.199951171875</ele><time>2025-05-31T12:35:27.000Z</time></trkpt>
      <trkpt lat="49.5834459364414215087890625" lon="19.49398331344127655029296875"><ele>1402.800048828125</ele><time>2025-05-31T12:35:58.000Z</time></trkpt>
      <trkpt lat="49.5836734212934970855712890625" lon="19.4936596043407917022705078125"><ele>1403.199951171875</ele><time>2025-05-31T12:36:29.000Z</time></trkpt>
      <trkpt lat="49.58376981317996978759765625" lon="19.4934433512389659881591796875"><ele>1407.199951171875</ele><time>2025-05-31T12:36:59.000Z</time></trkpt>
      <trkpt lat="49.58400316536426544189453125" lon="19.49305417947471141815185546875"><ele>1406.199951171875</ele><time>2025-05-31T12:37:34.000Z</time></trkpt>
      <trkpt lat="49.5842881500720977783203125" lon="19.4926189072430133819580078125"><ele>1409.800048828125</ele><time>2025-05-31T12:38:14.000Z</time></trkpt>
      <trkpt lat="49.58439133130013942718505859375" lon="19.49227784760296344757080078125"><ele>1406</ele><time>2025-05-31T12:38:41.000Z</time></trkpt>
      <trkpt lat="49.5844529382884502410888671875" lon="19.49179991148412227630615234375"><ele>1400.4000244140625</ele><time>2025-05-31T12:39:11.000Z</time></trkpt>
      <trkpt lat="49.5845065824687480926513671875" lon="19.4913445226848125457763671875"><ele>1393.4000244140625</ele><time>2025-05-31T12:39:46.000Z</time></trkpt>
      <trkpt lat="49.58455494605004787445068359375" lon="19.4910397566854953765869140625"><ele>1387.800048828125</ele><time>2025-05-31T12:40:10.000Z</time></trkpt>
      <trkpt lat="49.5846564508974552154541015625" lon="19.49054329656064510345458984375"><ele>1382.199951171875</ele><time>2025-05-31T12:40:41.000Z</time></trkpt>
      <trkpt lat="49.58473281003534793853759765625" lon="19.49011313728988170623779296875"><ele>1376.199951171875</ele><time>2025-05-31T12:41:11.000Z</time></trkpt>
      <trkpt lat="49.58473448641598224639892578125" lon="19.48978339321911334991455078125"><ele>1371.4000244140625</ele><time>2025-05-31T12:41:51.000Z</time></trkpt>
      <trkpt lat="49.58480573259294033050537109375" lon="19.48952992446720600128173828125"><ele>1369.199951171875</ele><time>2025-05-31T12:42:45.000Z</time></trkpt>
      <trkpt lat="49.58488385193049907684326171875" lon="19.488943107426166534423828125"><ele>1364.800048828125</ele><time>2025-05-31T12:43:24.000Z</time></trkpt>
      <trkpt lat="49.5850195549428462982177734375" lon="19.48831957764923572540283203125"><ele>1359.4000244140625</ele><time>2025-05-31T12:44:03.000Z</time></trkpt>
      <trkpt lat="49.585096500813961029052734375" lon="19.48768816888332366943359375"><ele>1352.5999755859375</ele><time>2025-05-31T12:44:41.000Z</time></trkpt>
      <trkpt lat="49.58515928126871585845947265625" lon="19.48718416504561901092529296875"><ele>1348.4000244140625</ele><time>2025-05-31T12:45:19.000Z</time></trkpt>
      <trkpt lat="49.5852106623351573944091796875" lon="19.48682122863829135894775390625"><ele>1343.5999755859375</ele><time>2025-05-31T12:45:46.000Z</time></trkpt>
      <trkpt lat="49.58529640920460224151611328125" lon="19.48614732362329959869384765625"><ele>1335</ele><time>2025-05-31T12:46:26.000Z</time></trkpt>
      <trkpt lat="49.58535457961261272430419921875" lon="19.48581866919994354248046875"><ele>1330.4000244140625</ele><time>2025-05-31T12:46:50.000Z</time></trkpt>
      <trkpt lat="49.58539078943431377410888671875" lon="19.48543000034987926483154296875"><ele>1324.800048828125</ele><time>2025-05-31T12:47:35.000Z</time></trkpt>
      <trkpt lat="49.58544342778623104095458984375" lon="19.4850232265889644622802734375"><ele>1318</ele><time>2025-05-31T12:48:03.000Z</time></trkpt>
      <trkpt lat="49.5854775421321392059326171875" lon="19.484668336808681488037109375"><ele>1310.800048828125</ele><time>2025-05-31T12:48:52.000Z</time></trkpt>
      <trkpt lat="49.5856099762022495269775390625" lon="19.4842953421175479888916015625"><ele>1302.4000244140625</ele><time>2025-05-31T12:49:28.000Z</time></trkpt>
      <trkpt lat="49.5856626145541667938232421875" lon="19.4839902408421039581298828125"><ele>1295.4000244140625</ele><time>2025-05-31T12:49:57.000Z</time></trkpt>
      <trkpt lat="49.58573360927402973175048828125" lon="19.48372780345380306243896484375"><ele>1289</ele><time>2025-05-31T12:50:22.000Z</time></trkpt>
      <trkpt lat="49.5858223736286163330078125" lon="19.48330149985849857330322265625"><ele>1282.199951171875</ele><time>2025-05-31T12:50:53.000Z</time></trkpt>
      <trkpt lat="49.58593024872243404388427734375" lon="19.4829753600060939788818359375"><ele>1276.4000244140625</ele><time>2025-05-31T12:51:19.000Z</time></trkpt>
      <trkpt lat="49.58606217987835407257080078125" lon="19.4826166145503520965576171875"><ele>1269.4000244140625</ele><time>2025-05-31T12:51:49.000Z</time></trkpt>
      <trkpt lat="49.58615119569003582000732421875" lon="19.4823051430284976959228515625"><ele>1264</ele><time>2025-05-31T12:52:17.000Z</time></trkpt>
      <trkpt lat="49.58630994893610477447509765625" lon="19.4819886423647403717041015625"><ele>1257.5999755859375</ele><time>2025-05-31T12:52:47.000Z</time></trkpt>
      <trkpt lat="49.5863522775471210479736328125" lon="19.481749422848224639892578125"><ele>1253</ele><time>2025-05-31T12:53:35.000Z</time></trkpt>
      <trkpt lat="49.58649552427232265472412109375" lon="19.48142831213772296905517578125"><ele>1246.4000244140625</ele><time>2025-05-31T12:54:04.000Z</time></trkpt>
      <trkpt lat="49.58667556755244731903076171875" lon="19.48103520087897777557373046875"><ele>1238.800048828125</ele><time>2025-05-31T12:54:36.000Z</time></trkpt>
      <trkpt lat="49.5868186466395854949951171875" lon="19.480670504271984100341796875"><ele>1233</ele><time>2025-05-31T12:55:02.000Z</time></trkpt>
      <trkpt lat="49.58694194443523883819580078125" lon="19.48033891618251800537109375"><ele>1226.5999755859375</ele><time>2025-05-31T12:55:29.000Z</time></trkpt>
      <trkpt lat="49.58721888251602649688720703125" lon="19.4798525981605052947998046875"><ele>1220.4000244140625</ele><time>2025-05-31T12:56:07.000Z</time></trkpt>
      <trkpt lat="49.58739372901618480682373046875" lon="19.4795947708189487457275390625"><ele>1213.800048828125</ele><time>2025-05-31T12:56:30.000Z</time></trkpt>
      <trkpt lat="49.58763345144689083099365234375" lon="19.47917156852781772613525390625"><ele>1208.800048828125</ele><time>2025-05-31T12:57:08.000Z</time></trkpt>
      <trkpt lat="49.587915502488613128662109375" lon="19.47867938317358493804931640625"><ele>1204</ele><time>2025-05-31T12:57:48.000Z</time></trkpt>
      <trkpt lat="49.58807081915438175201416015625" lon="19.478365816175937652587890625"><ele>1198.4000244140625</ele><time>2025-05-31T12:58:19.000Z</time></trkpt>
      <trkpt lat="49.58830802701413631439208984375" lon="19.4781426899135112762451171875"><ele>1191.800048828125</ele><time>2025-05-31T12:58:58.000Z</time></trkpt>
      <trkpt lat="49.58855445496737957000732421875" lon="19.4779351539909839630126953125"><ele>1184.4000244140625</ele><time>2025-05-31T12:59:35.000Z</time></trkpt>
      <trkpt lat="49.588630981743335723876953125" lon="19.4778878800570964813232421875"><ele>1181.199951171875</ele><time>2025-05-31T13:01:03.000Z</time></trkpt>
      <trkpt lat="49.5888608135282993316650390625" lon="19.47763080708682537078857421875"><ele>1175.4000244140625</ele><time>2025-05-31T13:01:44.000Z</time></trkpt>
      <trkpt lat="49.58904479630291461944580078125" lon="19.47750113904476165771484375"><ele>1170</ele><time>2025-05-31T13:02:08.000Z</time></trkpt>
      <trkpt lat="49.58919567056000232696533203125" lon="19.47741304524242877960205078125"><ele>1161.800048828125</ele><time>2025-05-31T13:02:34.000Z</time></trkpt>
      <trkpt lat="49.5894031226634979248046875" lon="19.4772894121706485748291015625"><ele>1155.5999755859375</ele><time>2025-05-31T13:03:02.000Z</time></trkpt>
      <trkpt lat="49.58965064026415348052978515625" lon="19.47717483155429363250732421875"><ele>1149.800048828125</ele><time>2025-05-31T13:04:15.000Z</time></trkpt>
      <trkpt lat="49.58993394859135150909423828125" lon="19.47701406665146350860595703125"><ele>1142.199951171875</ele><time>2025-05-31T13:04:38.000Z</time></trkpt>
      <trkpt lat="49.59017031826078891754150390625" lon="19.47690325789153575897216796875"><ele>1134.4000244140625</ele><time>2025-05-31T13:05:01.000Z</time></trkpt>
      <trkpt lat="49.59037098102271556854248046875" lon="19.47676160372793674468994140625"><ele>1129.199951171875</ele><time>2025-05-31T13:05:30.000Z</time></trkpt>
      <trkpt lat="49.5905482582747936248779296875" lon="19.47664744220674037933349609375"><ele>1122.4000244140625</ele><time>2025-05-31T13:05:55.000Z</time></trkpt>
      <trkpt lat="49.59079711697995662689208984375" lon="19.4764901138842105865478515625"><ele>1115</ele><time>2025-05-31T13:06:27.000Z</time></trkpt>
      <trkpt lat="49.59099308587610721588134765625" lon="19.476355500519275665283203125"><ele>1109.4000244140625</ele><time>2025-05-31T13:06:52.000Z</time></trkpt>
      <trkpt lat="49.5912670902907848358154296875" lon="19.47606272064149379730224609375"><ele>1102.199951171875</ele><time>2025-05-31T13:07:28.000Z</time></trkpt>
      <trkpt lat="49.591449312865734100341796875" lon="19.4758688472211360931396484375"><ele>1098</ele><time>2025-05-31T13:07:49.000Z</time></trkpt>
      <trkpt lat="49.59166648797690868377685546875" lon="19.47559735737740993499755859375"><ele>1093.4000244140625</ele><time>2025-05-31T13:08:24.000Z</time></trkpt>
      <trkpt lat="49.5918189547955989837646484375" lon="19.4752465747296810150146484375"><ele>1088.4000244140625</ele><time>2025-05-31T13:08:52.000Z</time></trkpt>
      <trkpt lat="49.5920435898005962371826171875" lon="19.4747134856879711151123046875"><ele>1082.5999755859375</ele><time>2025-05-31T13:09:31.000Z</time></trkpt>
      <trkpt lat="49.5922843180596828460693359375" lon="19.4743373058736324310302734375"><ele>1078</ele><time>2025-05-31T13:09:59.000Z</time></trkpt>
      <trkpt lat="49.5924447476863861083984375" lon="19.47387135587632656097412109375"><ele>1074.800048828125</ele><time>2025-05-31T13:10:29.000Z</time></trkpt>
      <trkpt lat="49.59253795444965362548828125" lon="19.47359626181423664093017578125"><ele>1071.5999755859375</ele><time>2025-05-31T13:10:53.000Z</time></trkpt>
      <trkpt lat="49.59274456836283206939697265625" lon="19.47340381331741809844970703125"><ele>1065.5999755859375</ele><time>2025-05-31T13:11:27.000Z</time></trkpt>
      <trkpt lat="49.593011699616909027099609375" lon="19.47332653217017650604248046875"><ele>1060.4000244140625</ele><time>2025-05-31T13:11:59.000Z</time></trkpt>
      <trkpt lat="49.59329090081155300140380859375" lon="19.473226368427276611328125"><ele>1055.199951171875</ele><time>2025-05-31T13:12:32.000Z</time></trkpt>
      <trkpt lat="49.59373078308999538421630859375" lon="19.47301112115383148193359375"><ele>1049.4000244140625</ele><time>2025-05-31T13:13:07.000Z</time></trkpt>
      <trkpt lat="49.59401509724557399749755859375" lon="19.47269872762262821197509765625"><ele>1045.199951171875</ele><time>2025-05-31T13:13:38.000Z</time></trkpt>
      <trkpt lat="49.59421710111200809478759765625" lon="19.4724396429955959320068359375"><ele>1041.199951171875</ele><time>2025-05-31T13:14:04.000Z</time></trkpt>
      <trkpt lat="49.5944304205477237701416015625" lon="19.4719670712947845458984375"><ele>1037.5999755859375</ele><time>2025-05-31T13:14:32.000Z</time></trkpt>
      <trkpt lat="49.59457903169095516204833984375" lon="19.4716748781502246856689453125"><ele>1034.4000244140625</ele><time>2025-05-31T13:14:53.000Z</time></trkpt>
      <trkpt lat="49.5947031676769256591796875" lon="19.471313953399658203125"><ele>1029.5999755859375</ele><time>2025-05-31T13:15:19.000Z</time></trkpt>
      <trkpt lat="49.59490760229527950286865234375" lon="19.47082621045410633087158203125"><ele>1023.4000244140625</ele><time>2025-05-31T13:15:54.000Z</time></trkpt>
      <trkpt lat="49.59513190202414989471435546875" lon="19.4704075343906879425048828125"><ele>1018.4000244140625</ele><time>2025-05-31T13:16:26.000Z</time></trkpt>
      <trkpt lat="49.595284871757030487060546875" lon="19.469834379851818084716796875"><ele>1015.79998779296875</ele><time>2025-05-31T13:17:01.000Z</time></trkpt>
      <trkpt lat="49.595471955835819244384765625" lon="19.4693440385162830352783203125"><ele>1018.4000244140625</ele><time>2025-05-31T13:17:39.000Z</time></trkpt>
      <trkpt lat="49.59575937129557132720947265625" lon="19.46887037716805934906005859375"><ele>1020.4000244140625</ele><time>2025-05-31T13:18:14.000Z</time></trkpt>
      <trkpt lat="49.5962053723633289337158203125" lon="19.46851515211164951324462890625"><ele>1021.20001220703125</ele><time>2025-05-31T13:19:00.000Z</time></trkpt>
      <trkpt lat="49.59663645364344120025634765625" lon="19.46852889843285083770751953125"><ele>1023.4000244140625</ele><time>2025-05-31T13:19:47.000Z</time></trkpt>
      <trkpt lat="49.596835188567638397216796875" lon="19.468764178454875946044921875"><ele>1018</ele><time>2025-05-31T13:20:15.000Z</time></trkpt>
      <trkpt lat="49.59699712693691253662109375" lon="19.46894950233399868011474609375"><ele>1012</ele><time>2025-05-31T13:20:41.000Z</time></trkpt>
      <trkpt lat="49.597108103334903717041015625" lon="19.4691941700875759124755859375"><ele>1006.79998779296875</ele><time>2025-05-31T13:21:13.000Z</time></trkpt>
      <trkpt lat="49.59715043194591999053955078125" lon="19.46908428333699703216552734375"><ele>1006.20001220703125</ele><time>2025-05-31T13:22:00.000Z</time></trkpt>
      <trkpt lat="49.59716987796127796173095703125" lon="19.46914748288691043853759765625"><ele>1006</ele><time>2025-05-31T13:22:55.000Z</time></trkpt>
      <trkpt lat="49.59712176583707332611083984375" lon="19.46927371434867382049560546875"><ele>1006</ele><time>2025-05-31T13:23:40.000Z</time></trkpt>
      <trkpt lat="49.59716585464775562286376953125" lon="19.4691495783627033233642578125"><ele>1006</ele><time>2025-05-31T13:24:24.000Z</time></trkpt>
      <trkpt lat="49.59717138670384883880615234375" lon="19.46923054754734039306640625"><ele>1005.4000244140625</ele><time>2025-05-31T13:25:20.000Z</time></trkpt>
      <trkpt lat="49.59741689264774322509765625" lon="19.4689775817096233367919921875"><ele>1004.5999755859375</ele><time>2025-05-31T13:26:15.000Z</time></trkpt>
      <trkpt lat="49.59722570143640041351318359375" lon="19.46928310208022594451904296875"><ele>1004.20001220703125</ele><time>2025-05-31T13:27:03.000Z</time></trkpt>
      <trkpt lat="49.59713718853890895843505859375" lon="19.469227530062198638916015625"><ele>1004</ele><time>2025-05-31T13:27:31.000Z</time></trkpt>
      <trkpt lat="49.59710701368749141693115234375" lon="19.4691680185496807098388671875"><ele>1004</ele><time>2025-05-31T13:28:08.000Z</time></trkpt>
      <trkpt lat="49.59713417105376720428466796875" lon="19.46910020895302295684814453125"><ele>1003.5999755859375</ele><time>2025-05-31T13:28:41.000Z</time></trkpt>
      <trkpt lat="49.5971089415252208709716796875" lon="19.46915754117071628570556640625"><ele>1003.20001220703125</ele><time>2025-05-31T13:29:12.000Z</time></trkpt>
      <trkpt lat="49.59722687490284442901611328125" lon="19.46924588643014430999755859375"><ele>1002.79998779296875</ele><time>2025-05-31T13:29:46.000Z</time></trkpt>
      <trkpt lat="49.59709008224308490753173828125" lon="19.4693400152027606964111328125"><ele>1002.4000244140625</ele><time>2025-05-31T13:30:28.000Z</time></trkpt>
      <trkpt lat="49.596845246851444244384765625" lon="19.4685407169163227081298828125"><ele>1002</ele><time>2025-05-31T13:31:55.000Z</time></trkpt>
      <trkpt lat="49.59725369699299335479736328125" lon="19.469064585864543914794921875"><ele>1002</ele><time>2025-05-31T13:32:28.000Z</time></trkpt>
      <trkpt lat="49.5972759090363979339599609375" lon="19.4691757299005985260009765625"><ele>1001.5999755859375</ele><time>2025-05-31T13:32:55.000Z</time></trkpt>
      <trkpt lat="49.5973225124180316925048828125" lon="19.46913189254701137542724609375"><ele>1002.20001220703125</ele><time>2025-05-31T13:33:37.000Z</time></trkpt>
      <trkpt lat="49.5977117680013179779052734375" lon="19.46947538293898105621337890625"><ele>1001</ele><time>2025-05-31T13:34:25.000Z</time></trkpt>
      <trkpt lat="49.5981164462864398956298828125" lon="19.469725079834461212158203125"><ele>1004</ele><time>2025-05-31T13:35:12.000Z</time></trkpt>
      <trkpt lat="49.59847108460962772369384765625" lon="19.4700927101075649261474609375"><ele>1007.79998779296875</ele><time>2025-05-31T13:35:52.000Z</time></trkpt>
      <trkpt lat="49.598741233348846435546875" lon="19.4705535471439361572265625"><ele>1011</ele><time>2025-05-31T13:36:28.000Z</time></trkpt>
      <trkpt lat="49.599078185856342315673828125" lon="19.47086493484675884246826171875"><ele>1013.79998779296875</ele><time>2025-05-31T13:37:09.000Z</time></trkpt>
      <trkpt lat="49.599443972110748291015625" lon="19.47110348381102085113525390625"><ele>1015.79998779296875</ele><time>2025-05-31T13:37:46.000Z</time></trkpt>
      <trkpt lat="49.5999001152813434600830078125" lon="19.471498019993305206298828125"><ele>1020.20001220703125</ele><time>2025-05-31T13:38:36.000Z</time></trkpt>
      <trkpt lat="49.60031761787831783294677734375" lon="19.4717355631291866302490234375"><ele>1023.4000244140625</ele><time>2025-05-31T13:39:22.000Z</time></trkpt>
      <trkpt lat="49.6008402295410633087158203125" lon="19.47225700132548809051513671875"><ele>1022.5999755859375</ele><time>2025-05-31T13:40:15.000Z</time></trkpt>
      <trkpt lat="49.60118229500949382781982421875" lon="19.47270560078322887420654296875"><ele>1019.79998779296875</ele><time>2025-05-31T13:40:52.000Z</time></trkpt>
      <trkpt lat="49.601494185626506805419921875" lon="19.4733752310276031494140625"><ele>1016.79998779296875</ele><time>2025-05-31T13:41:37.000Z</time></trkpt>
      <trkpt lat="49.60170549340546131134033203125" lon="19.473814778029918670654296875"><ele>1010</ele><time>2025-05-31T13:42:08.000Z</time></trkpt>
      <trkpt lat="49.6018378436565399169921875" lon="19.47388845495879650115966796875"><ele>1004.79998779296875</ele><time>2025-05-31T13:42:49.000Z</time></trkpt>
      <trkpt lat="49.6024091541767120361328125" lon="19.47411795146763324737548828125"><ele>1000.20001220703125</ele><time>2025-05-31T13:43:34.000Z</time></trkpt>
      <trkpt lat="49.6025883592665195465087890625" lon="19.474318027496337890625"><ele>1000.20001220703125</ele><time>2025-05-31T13:44:16.000Z</time></trkpt>
      <trkpt lat="49.602489285171031951904296875" lon="19.4747149944305419921875"><ele>997.4000244140625</ele><time>2025-05-31T13:44:57.000Z</time></trkpt>
      <trkpt lat="49.602346122264862060546875" lon="19.4750487618148326873779296875"><ele>992</ele><time>2025-05-31T13:45:30.000Z</time></trkpt>
      <trkpt lat="49.6021105907857418060302734375" lon="19.4753310643136501312255859375"><ele>984.4000244140625</ele><time>2025-05-31T13:46:04.000Z</time></trkpt>
      <trkpt lat="49.6017401106655597686767578125" lon="19.47538227774202823638916015625"><ele>982.20001220703125</ele><time>2025-05-31T13:46:36.000Z</time></trkpt>
      <trkpt lat="49.6013287268579006195068359375" lon="19.475447237491607666015625"><ele>977.20001220703125</ele><time>2025-05-31T13:47:15.000Z</time></trkpt>
      <trkpt lat="49.60113845765590667724609375" lon="19.47564982809126377105712890625"><ele>970.20001220703125</ele><time>2025-05-31T13:47:39.000Z</time></trkpt>
      <trkpt lat="49.60104189813137054443359375" lon="19.47600756771862506866455078125"><ele>962.4000244140625</ele><time>2025-05-31T13:48:09.000Z</time></trkpt>
      <trkpt lat="49.6009884215891361236572265625" lon="19.47638056240975856781005859375"><ele>957.5999755859375</ele><time>2025-05-31T13:48:33.000Z</time></trkpt>
      <trkpt lat="49.601026140153408050537109375" lon="19.476867802441120147705078125"><ele>951.4000244140625</ele><time>2025-05-31T13:49:02.000Z</time></trkpt>
      <trkpt lat="49.601170979440212249755859375" lon="19.47724926285445690155029296875"><ele>944.5999755859375</ele><time>2025-05-31T13:49:34.000Z</time></trkpt>
      <trkpt lat="49.60125739686191082000732421875" lon="19.4774982891976833343505859375"><ele>939.79998779296875</ele><time>2025-05-31T13:49:51.000Z</time></trkpt>
      <trkpt lat="49.6012955345213413238525390625" lon="19.4777416996657848358154296875"><ele>935</ele><time>2025-05-31T13:50:09.000Z</time></trkpt>
      <trkpt lat="49.6011101268231868743896484375" lon="19.47803280316293239593505859375"><ele>928.79998779296875</ele><time>2025-05-31T13:50:37.000Z</time></trkpt>
      <trkpt lat="49.6007044427096843719482421875" lon="19.4782085716724395751953125"><ele>922</ele><time>2025-05-31T13:51:10.000Z</time></trkpt>
      <trkpt lat="49.600493721663951873779296875" lon="19.47818015702068805694580078125"><ele>916.4000244140625</ele><time>2025-05-31T13:51:36.000Z</time></trkpt>
      <trkpt lat="49.600232876837253570556640625" lon="19.47814377956092357635498046875"><ele>909</ele><time>2025-05-31T13:52:04.000Z</time></trkpt>
      <trkpt lat="49.599869437515735626220703125" lon="19.4781725294888019561767578125"><ele>899.5999755859375</ele><time>2025-05-31T13:52:40.000Z</time></trkpt>
      <trkpt lat="49.599690400063991546630859375" lon="19.4781329669058322906494140625"><ele>893.79998779296875</ele><time>2025-05-31T13:53:03.000Z</time></trkpt>
      <trkpt lat="49.599615633487701416015625" lon="19.47816473431885242462158203125"><ele>889.5999755859375</ele><time>2025-05-31T13:53:38.000Z</time></trkpt>
      <trkpt lat="49.59936023689806461334228515625" lon="19.47825039736926555633544921875"><ele>885</ele><time>2025-05-31T13:54:10.000Z</time></trkpt>
      <trkpt lat="49.59910660050809383392333984375" lon="19.47823338210582733154296875"><ele>877.79998779296875</ele><time>2025-05-31T13:54:43.000Z</time></trkpt>
      <trkpt lat="49.59892186336219310760498046875" lon="19.47838090360164642333984375"><ele>874</ele><time>2025-05-31T13:55:23.000Z</time></trkpt>
      <trkpt lat="49.5987224578857421875" lon="19.47858936153352260589599609375"><ele>868.20001220703125</ele><time>2025-05-31T13:56:06.000Z</time></trkpt>
      <trkpt lat="49.59853135049343109130859375" lon="19.47893972508609294891357421875"><ele>863</ele><time>2025-05-31T13:56:34.000Z</time></trkpt>
      <trkpt lat="49.59853244014084339141845703125" lon="19.47938446886837482452392578125"><ele>857.5999755859375</ele><time>2025-05-31T13:57:08.000Z</time></trkpt>
      <trkpt lat="49.59860016591846942901611328125" lon="19.47974455542862415313720703125"><ele>853.79998779296875</ele><time>2025-05-31T13:57:36.000Z</time></trkpt>
      <trkpt lat="49.59876026026904582977294921875" lon="19.48034872300922870635986328125"><ele>850.20001220703125</ele><time>2025-05-31T13:58:24.000Z</time></trkpt>
      <trkpt lat="49.59879294969141483306884765625" lon="19.4809204526245594024658203125"><ele>846.4000244140625</ele><time>2025-05-31T13:58:54.000Z</time></trkpt>
      <trkpt lat="49.59893007762730121612548828125" lon="19.48136561550199985504150390625"><ele>844.20001220703125</ele><time>2025-05-31T13:59:21.000Z</time></trkpt>
      <trkpt lat="49.5993023179471492767333984375" lon="19.4818300567567348480224609375"><ele>839.4000244140625</ele><time>2025-05-31T14:00:00.000Z</time></trkpt>
      <trkpt lat="49.59959627129137516021728515625" lon="19.482189975678920745849609375"><ele>835.4000244140625</ele><time>2025-05-31T14:00:41.000Z</time></trkpt>
      <trkpt lat="49.59974798373878002166748046875" lon="19.48249876499176025390625"><ele>831.4000244140625</ele><time>2025-05-31T14:01:03.000Z</time></trkpt>
      <trkpt lat="49.60002475418150424957275390625" lon="19.482957087457180023193359375"><ele>827.79998779296875</ele><time>2025-05-31T14:01:37.000Z</time></trkpt>
      <trkpt lat="49.6001485548913478851318359375" lon="19.48325757868587970733642578125"><ele>824</ele><time>2025-05-31T14:02:05.000Z</time></trkpt>
      <trkpt lat="49.6002954058349132537841796875" lon="19.48367985896766185760498046875"><ele>819.79998779296875</ele><time>2025-05-31T14:02:32.000Z</time></trkpt>
      <trkpt lat="49.6003706753253936767578125" lon="19.4840396940708160400390625"><ele>816.4000244140625</ele><time>2025-05-31T14:02:56.000Z</time></trkpt>
      <trkpt lat="49.60055264644324779510498046875" lon="19.48441713117063045501708984375"><ele>812.20001220703125</ele><time>2025-05-31T14:03:24.000Z</time></trkpt>
      <trkpt lat="49.60067183710634708404541015625" lon="19.48477872647345066070556640625"><ele>805.4000244140625</ele><time>2025-05-31T14:03:58.000Z</time></trkpt>
      <trkpt lat="49.60098045878112316131591796875" lon="19.4851281680166721343994140625"><ele>807</ele><time>2025-05-31T14:04:49.000Z</time></trkpt>
      <trkpt lat="49.6012301556766033172607421875" lon="19.48504711501300334930419921875"><ele>804.20001220703125</ele><time>2025-05-31T14:05:30.000Z</time></trkpt>
      <trkpt lat="49.60172292776405811309814453125" lon="19.48528365232050418853759765625"><ele>802.5999755859375</ele><time>2025-05-31T14:06:06.000Z</time></trkpt>
      <trkpt lat="49.60205711424350738525390625" lon="19.4855056889355182647705078125"><ele>799.5999755859375</ele><time>2025-05-31T14:06:42.000Z</time></trkpt>
      <trkpt lat="49.60239666514098644256591796875" lon="19.48564373888075351715087890625"><ele>794.5999755859375</ele><time>2025-05-31T14:07:16.000Z</time></trkpt>
      <trkpt lat="49.60308247245848178863525390625" lon="19.4858238659799098968505859375"><ele>792.5999755859375</ele><time>2025-05-31T14:08:07.000Z</time></trkpt>
      <trkpt lat="49.6033326722681522369384765625" lon="19.48615218512713909149169921875"><ele>790.20001220703125</ele><time>2025-05-31T14:08:43.000Z</time></trkpt>
      <trkpt lat="49.6037866361439228057861328125" lon="19.48656692169606685638427734375"><ele>786.4000244140625</ele><time>2025-05-31T14:09:21.000Z</time></trkpt>
      <trkpt lat="49.60413557477295398712158203125" lon="19.4865822605788707733154296875"><ele>781.79998779296875</ele><time>2025-05-31T14:09:57.000Z</time></trkpt>
      <trkpt lat="49.6044082380831241607666015625" lon="19.48671662248671054840087890625"><ele>779</ele><time>2025-05-31T14:10:22.000Z</time></trkpt>
      <trkpt lat="49.6048930473625659942626953125" lon="19.4871602766215801239013671875"><ele>776</ele><time>2025-05-31T14:10:55.000Z</time></trkpt>
      <trkpt lat="49.60505842231214046478271484375" lon="19.487386755645275115966796875"><ele>774.20001220703125</ele><time>2025-05-31T14:11:12.000Z</time></trkpt>
      <trkpt lat="49.60531239397823810577392578125" lon="19.487683810293674468994140625"><ele>771.4000244140625</ele><time>2025-05-31T14:11:37.000Z</time></trkpt>
      <trkpt lat="49.6055186726152896881103515625" lon="19.48798228986561298370361328125"><ele>769.4000244140625</ele><time>2025-05-31T14:12:04.000Z</time></trkpt>
      <trkpt lat="49.60572243668138980865478515625" lon="19.48831823654472827911376953125"><ele>767.5999755859375</ele><time>2025-05-31T14:12:29.000Z</time></trkpt>
      <trkpt lat="49.606018401682376861572265625" lon="19.4889556802809238433837890625"><ele>765.20001220703125</ele><time>2025-05-31T14:13:05.000Z</time></trkpt>
      <trkpt lat="49.60615091957151889801025390625" lon="19.48965062387287616729736328125"><ele>761.4000244140625</ele><time>2025-05-31T14:13:43.000Z</time></trkpt>
      <trkpt lat="49.60637019015848636627197265625" lon="19.4901666976511478424072265625"><ele>758.4000244140625</ele><time>2025-05-31T14:14:15.000Z</time></trkpt>
      <trkpt lat="49.60642869584262371063232421875" lon="19.4906488247215747833251953125"><ele>754.79998779296875</ele><time>2025-05-31T14:14:35.000Z</time></trkpt>
      <trkpt lat="49.60642115212976932525634765625" lon="19.4912989251315593719482421875"><ele>751.4000244140625</ele><time>2025-05-31T14:15:00.000Z</time></trkpt>
      <trkpt lat="49.6066488884389400482177734375" lon="19.49201951734721660614013671875"><ele>748</ele><time>2025-05-31T14:15:44.000Z</time></trkpt>
      <trkpt lat="49.60679615847766399383544921875" lon="19.49254539795219898223876953125"><ele>745.79998779296875</ele><time>2025-05-31T14:16:14.000Z</time></trkpt>
      <trkpt lat="49.6070133335888385772705078125" lon="19.49304764159023761749267578125"><ele>744.20001220703125</ele><time>2025-05-31T14:16:41.000Z</time></trkpt>
      <trkpt lat="49.60736109875142574310302734375" lon="19.4937112368643283843994140625"><ele>741.79998779296875</ele><time>2025-05-31T14:17:22.000Z</time></trkpt>
      <trkpt lat="49.60793525911867618560791015625" lon="19.4945001415908336639404296875"><ele>740.4000244140625</ele><time>2025-05-31T14:18:23.000Z</time></trkpt>
      <trkpt lat="49.60836122743785381317138671875" lon="19.49498184956610202789306640625"><ele>738</ele><time>2025-05-31T14:18:55.000Z</time></trkpt>
      <trkpt lat="49.6086340583860874176025390625" lon="19.49558593332767486572265625"><ele>736.79998779296875</ele><time>2025-05-31T14:19:27.000Z</time></trkpt>
      <trkpt lat="49.608915857970714569091796875" lon="19.49641046114265918731689453125"><ele>733.5999755859375</ele><time>2025-05-31T14:20:12.000Z</time></trkpt>
      <trkpt lat="49.60922121070325374603271484375" lon="19.49718377552926540374755859375"><ele>731.5999755859375</ele><time>2025-05-31T14:20:51.000Z</time></trkpt>
      <trkpt lat="49.60927217267453670501708984375" lon="19.4976317882537841796875"><ele>728</ele><time>2025-05-31T14:21:17.000Z</time></trkpt>
      <trkpt lat="49.60935297422111034393310546875" lon="19.49797284789383411407470703125"><ele>725.79998779296875</ele><time>2025-05-31T14:21:37.000Z</time></trkpt>
    </trkseg>
  </trk>
</gpx>
