<?xml version="1.0" encoding="UTF-8"?>
<gpx version="1.1" creator="W Dobrym Kierunku" xmlns="http://www.topografix.com/GPX/1/1">
  <metadata>
    <name>Oravska Polhora Piesze wędrówki</name>
    <desc>Własny ślad GPS autora; plik uproszczony do co 10. punktu, z zachowanym czasem i wysokością.</desc>
    <time>2026-08-01T06:03:14.000Z</time>
  </metadata>
  <trk>
    <name>Oravska Polhora Piesze wędrówki</name>
    <trkseg>
      <trkpt lat="49.52743864618241786956787109375" lon="19.4739919714629650115966796875"><ele>746.79998779296875</ele><time>2026-08-01T06:03:14.000Z</time></trkpt>
      <trkpt lat="49.52689885161817073822021484375" lon="19.47373774833977222442626953125"><ele>747.79998779296875</ele><time>2026-08-01T06:04:04.000Z</time></trkpt>
      <trkpt lat="49.52669533900916576385498046875" lon="19.47409867309033870697021484375"><ele>745.5999755859375</ele><time>2026-08-01T06:04:37.000Z</time></trkpt>
      <trkpt lat="49.52634313143789768218994140625" lon="19.4751188345253467559814453125"><ele>742.5999755859375</ele><time>2026-08-01T06:05:36.000Z</time></trkpt>
      <trkpt lat="49.526352100074291229248046875" lon="19.47627914138138294219970703125"><ele>742.5999755859375</ele><time>2026-08-01T06:06:41.000Z</time></trkpt>
      <trkpt lat="49.52655334956943988800048828125" lon="19.4766743481159210205078125"><ele>745</ele><time>2026-08-01T06:07:07.000Z</time></trkpt>
      <trkpt lat="49.52672434039413928985595703125" lon="19.47717768140137195587158203125"><ele>748.79998779296875</ele><time>2026-08-01T06:07:40.000Z</time></trkpt>
      <trkpt lat="49.52698635868728160858154296875" lon="19.4778040610253810882568359375"><ele>752</ele><time>2026-08-01T06:08:20.000Z</time></trkpt>
      <trkpt lat="49.52721518464386463165283203125" lon="19.47808845899999141693115234375"><ele>754.20001220703125</ele><time>2026-08-01T06:08:46.000Z</time></trkpt>
      <trkpt lat="49.52766126953065395355224609375" lon="19.47867552749812602996826171875"><ele>758.4000244140625</ele><time>2026-08-01T06:09:33.000Z</time></trkpt>
      <trkpt lat="49.52798564918339252471923828125" lon="19.47923024185001850128173828125"><ele>761.79998779296875</ele><time>2026-08-01T06:10:13.000Z</time></trkpt>
      <trkpt lat="49.52850130386650562286376953125" lon="19.48000690899789333343505859375"><ele>766.4000244140625</ele><time>2026-08-01T06:11:13.000Z</time></trkpt>
      <trkpt lat="49.52885518781840801239013671875" lon="19.4805462844669818878173828125"><ele>769.4000244140625</ele><time>2026-08-01T06:11:54.000Z</time></trkpt>
      <trkpt lat="49.52912424691021442413330078125" lon="19.48097971267998218536376953125"><ele>772</ele><time>2026-08-01T06:12:27.000Z</time></trkpt>
      <trkpt lat="49.5295591838657855987548828125" lon="19.48155529797077178955078125"><ele>775.20001220703125</ele><time>2026-08-01T06:13:15.000Z</time></trkpt>
      <trkpt lat="49.5298004150390625" lon="19.482035748660564422607421875"><ele>777.4000244140625</ele><time>2026-08-01T06:13:49.000Z</time></trkpt>
      <trkpt lat="49.5301529578864574432373046875" lon="19.4825096614658832550048828125"><ele>780</ele><time>2026-08-01T06:14:27.000Z</time></trkpt>
      <trkpt lat="49.53059711493551731109619140625" lon="19.48320359922945499420166015625"><ele>784</ele><time>2026-08-01T06:15:20.000Z</time></trkpt>
      <trkpt lat="49.5310625620186328887939453125" lon="19.48385537602007389068603515625"><ele>787.79998779296875</ele><time>2026-08-01T06:16:13.000Z</time></trkpt>
      <trkpt lat="49.53141820617020130157470703125" lon="19.48450983501970767974853515625"><ele>790.4000244140625</ele><time>2026-08-01T06:16:59.000Z</time></trkpt>
      <trkpt lat="49.53169950284063816070556640625" lon="19.4849286787211894989013671875"><ele>792.79998779296875</ele><time>2026-08-01T06:17:30.000Z</time></trkpt>
      <trkpt lat="49.532086662948131561279296875" lon="19.48547442443668842315673828125"><ele>795.20001220703125</ele><time>2026-08-01T06:18:13.000Z</time></trkpt>
      <trkpt lat="49.53252512030303478240966796875" lon="19.48619191534817218780517578125"><ele>799.4000244140625</ele><time>2026-08-01T06:19:13.000Z</time></trkpt>
      <trkpt lat="49.532961733639240264892578125" lon="19.48677211068570613861083984375"><ele>802.4000244140625</ele><time>2026-08-01T06:19:59.000Z</time></trkpt>
      <trkpt lat="49.53324428759515285491943359375" lon="19.48726966045796871185302734375"><ele>804.5999755859375</ele><time>2026-08-01T06:20:35.000Z</time></trkpt>
      <trkpt lat="49.53365676105022430419921875" lon="19.48788472451269626617431640625"><ele>808</ele><time>2026-08-01T06:21:23.000Z</time></trkpt>
      <trkpt lat="49.53390042297542095184326171875" lon="19.488249756395816802978515625"><ele>809.79998779296875</ele><time>2026-08-01T06:21:52.000Z</time></trkpt>
      <trkpt lat="49.5343385450541973114013671875" lon="19.48894076049327850341796875"><ele>813.5999755859375</ele><time>2026-08-01T06:22:46.000Z</time></trkpt>
      <trkpt lat="49.53471221029758453369140625" lon="19.4893821515142917633056640625"><ele>816.79998779296875</ele><time>2026-08-01T06:23:25.000Z</time></trkpt>
      <trkpt lat="49.535179920494556427001953125" lon="19.48979496024549007415771484375"><ele>820.20001220703125</ele><time>2026-08-01T06:24:12.000Z</time></trkpt>
      <trkpt lat="49.53566900454461574554443359375" lon="19.4903044961392879486083984375"><ele>824.4000244140625</ele><time>2026-08-01T06:25:01.000Z</time></trkpt>
      <trkpt lat="49.53599237836897373199462890625" lon="19.49089433066546916961669921875"><ele>827.79998779296875</ele><time>2026-08-01T06:25:44.000Z</time></trkpt>
      <trkpt lat="49.53631726093590259552001953125" lon="19.49138081632554531097412109375"><ele>831.20001220703125</ele><time>2026-08-01T06:26:27.000Z</time></trkpt>
      <trkpt lat="49.53669704496860504150390625" lon="19.49184651486575603485107421875"><ele>835.5999755859375</ele><time>2026-08-01T06:27:12.000Z</time></trkpt>
      <trkpt lat="49.537073560059070587158203125" lon="19.49237943626940250396728515625"><ele>839.4000244140625</ele><time>2026-08-01T06:27:53.000Z</time></trkpt>
      <trkpt lat="49.53738243319094181060791015625" lon="19.49277975596487522125244140625"><ele>843</ele><time>2026-08-01T06:28:28.000Z</time></trkpt>
      <trkpt lat="49.5377115905284881591796875" lon="19.49330865405499935150146484375"><ele>847</ele><time>2026-08-01T06:29:10.000Z</time></trkpt>
      <trkpt lat="49.53813512809574604034423828125" lon="19.49385548941791057586669921875"><ele>851.20001220703125</ele><time>2026-08-01T06:29:57.000Z</time></trkpt>
      <trkpt lat="49.538268484175205230712890625" lon="19.49402891099452972412109375"><ele>853.4000244140625</ele><time>2026-08-01T06:30:39.000Z</time></trkpt>
      <trkpt lat="49.53864290378987789154052734375" lon="19.49457013048231601715087890625"><ele>857.5999755859375</ele><time>2026-08-01T06:31:31.000Z</time></trkpt>
      <trkpt lat="49.539157636463642120361328125" lon="19.49521888978779315948486328125"><ele>862.79998779296875</ele><time>2026-08-01T06:32:32.000Z</time></trkpt>
      <trkpt lat="49.53964521177113056182861328125" lon="19.4958114065229892730712890625"><ele>867.20001220703125</ele><time>2026-08-01T06:33:31.000Z</time></trkpt>
      <trkpt lat="49.540056847035884857177734375" lon="19.49625204317271709442138671875"><ele>870.20001220703125</ele><time>2026-08-01T06:34:12.000Z</time></trkpt>
      <trkpt lat="49.54063410870730876922607421875" lon="19.496875740587711334228515625"><ele>873.4000244140625</ele><time>2026-08-01T06:35:08.000Z</time></trkpt>
      <trkpt lat="49.5411877334117889404296875" lon="19.49744646437466144561767578125"><ele>872.20001220703125</ele><time>2026-08-01T06:36:02.000Z</time></trkpt>
      <trkpt lat="49.54135562293231487274169921875" lon="19.49846620671451091766357421875"><ele>873.20001220703125</ele><time>2026-08-01T06:36:58.000Z</time></trkpt>
      <trkpt lat="49.54126861877739429473876953125" lon="19.4991259463131427764892578125"><ele>877</ele><time>2026-08-01T06:37:38.000Z</time></trkpt>
      <trkpt lat="49.54109762795269489288330078125" lon="19.49956155382096767425537109375"><ele>882.4000244140625</ele><time>2026-08-01T06:38:08.000Z</time></trkpt>
      <trkpt lat="49.54099050723016262054443359375" lon="19.5000873506069183349609375"><ele>887.5999755859375</ele><time>2026-08-01T06:38:38.000Z</time></trkpt>
      <trkpt lat="49.54087835736572742462158203125" lon="19.50092889368534088134765625"><ele>888.5999755859375</ele><time>2026-08-01T06:39:22.000Z</time></trkpt>
      <trkpt lat="49.54090199433267116546630859375" lon="19.50148486532270908355712890625"><ele>887.20001220703125</ele><time>2026-08-01T06:39:52.000Z</time></trkpt>
      <trkpt lat="49.541542120277881622314453125" lon="19.50172039680182933807373046875"><ele>891.79998779296875</ele><time>2026-08-01T06:40:52.000Z</time></trkpt>
      <trkpt lat="49.54175912775099277496337890625" lon="19.50156633742153644561767578125"><ele>895.20001220703125</ele><time>2026-08-01T06:41:21.000Z</time></trkpt>
      <trkpt lat="49.54199440777301788330078125" lon="19.50159181840717792510986328125"><ele>901.5999755859375</ele><time>2026-08-01T06:41:58.000Z</time></trkpt>
      <trkpt lat="49.54231132753193378448486328125" lon="19.50174319557845592498779296875"><ele>906.4000244140625</ele><time>2026-08-01T06:42:32.000Z</time></trkpt>
      <trkpt lat="49.542726986110210418701171875" lon="19.50201979838311672210693359375"><ele>910.79998779296875</ele><time>2026-08-01T06:43:17.000Z</time></trkpt>
      <trkpt lat="49.542973749339580535888671875" lon="19.50221526436507701873779296875"><ele>914.5999755859375</ele><time>2026-08-01T06:43:47.000Z</time></trkpt>
      <trkpt lat="49.54342134296894073486328125" lon="19.50236831791698932647705078125"><ele>917.20001220703125</ele><time>2026-08-01T06:44:26.000Z</time></trkpt>
      <trkpt lat="49.543951414525508880615234375" lon="19.50284139253199100494384765625"><ele>919</ele><time>2026-08-01T06:45:11.000Z</time></trkpt>
      <trkpt lat="49.5442868582904338836669921875" lon="19.50301808305084705352783203125"><ele>923.4000244140625</ele><time>2026-08-01T06:45:46.000Z</time></trkpt>
      <trkpt lat="49.544557593762874603271484375" lon="19.50317013077437877655029296875"><ele>926</ele><time>2026-08-01T06:46:15.000Z</time></trkpt>
      <trkpt lat="49.5449436642229557037353515625" lon="19.503450505435466766357421875"><ele>930.4000244140625</ele><time>2026-08-01T06:46:55.000Z</time></trkpt>
      <trkpt lat="49.54536326229572296142578125" lon="19.503514878451824188232421875"><ele>935.79998779296875</ele><time>2026-08-01T06:47:40.000Z</time></trkpt>
      <trkpt lat="49.5455944351851940155029296875" lon="19.503596015274524688720703125"><ele>940.20001220703125</ele><time>2026-08-01T06:48:11.000Z</time></trkpt>
      <trkpt lat="49.54581714235246181488037109375" lon="19.50361772440373897552490234375"><ele>943.4000244140625</ele><time>2026-08-01T06:48:34.000Z</time></trkpt>
      <trkpt lat="49.54603758640587329864501953125" lon="19.50347087346017360687255859375"><ele>948</ele><time>2026-08-01T06:49:04.000Z</time></trkpt>
      <trkpt lat="49.5462378300726413726806640625" lon="19.50338051654398441314697265625"><ele>952.79998779296875</ele><time>2026-08-01T06:49:31.000Z</time></trkpt>
      <trkpt lat="49.54640337266027927398681640625" lon="19.50333156622946262359619140625"><ele>956.5999755859375</ele><time>2026-08-01T06:49:58.000Z</time></trkpt>
      <trkpt lat="49.5466334559023380279541015625" lon="19.5034627430140972137451171875"><ele>962</ele><time>2026-08-01T06:50:30.000Z</time></trkpt>
      <trkpt lat="49.54692774452269077301025390625" lon="19.50366742908954620361328125"><ele>968.5999755859375</ele><time>2026-08-01T06:51:08.000Z</time></trkpt>
      <trkpt lat="49.54730308614671230316162109375" lon="19.5039291121065616607666015625"><ele>972.20001220703125</ele><time>2026-08-01T06:52:02.000Z</time></trkpt>
      <trkpt lat="49.54753526486456394195556640625" lon="19.50388896279036998748779296875"><ele>971.20001220703125</ele><time>2026-08-01T06:52:36.000Z</time></trkpt>
      <trkpt lat="49.54812736250460147857666015625" lon="19.5035683549940586090087890625"><ele>971.20001220703125</ele><time>2026-08-01T06:53:42.000Z</time></trkpt>
      <trkpt lat="49.5484908856451511383056640625" lon="19.5034562051296234130859375"><ele>974</ele><time>2026-08-01T06:54:16.000Z</time></trkpt>
      <trkpt lat="49.54910871572792530059814453125" lon="19.50350574217736721038818359375"><ele>974.79998779296875</ele><time>2026-08-01T06:55:07.000Z</time></trkpt>
      <trkpt lat="49.5494075305759906768798828125" lon="19.50374261476099491119384765625"><ele>979.5999755859375</ele><time>2026-08-01T06:55:39.000Z</time></trkpt>
      <trkpt lat="49.54978563822805881500244140625" lon="19.5039039663970470428466796875"><ele>982.5999755859375</ele><time>2026-08-01T06:56:16.000Z</time></trkpt>
      <trkpt lat="49.55026709474623203277587890625" lon="19.504314176738262176513671875"><ele>985.79998779296875</ele><time>2026-08-01T06:57:04.000Z</time></trkpt>
      <trkpt lat="49.55053715966641902923583984375" lon="19.5045835711061954498291015625"><ele>991.4000244140625</ele><time>2026-08-01T06:57:41.000Z</time></trkpt>
      <trkpt lat="49.55119010992348194122314453125" lon="19.50472346507012844085693359375"><ele>991.4000244140625</ele><time>2026-08-01T06:58:41.000Z</time></trkpt>
      <trkpt lat="49.55192930996417999267578125" lon="19.50463428162038326263427734375"><ele>990.5999755859375</ele><time>2026-08-01T06:59:57.000Z</time></trkpt>
      <trkpt lat="49.5525790750980377197265625" lon="19.50466076843440532684326171875"><ele>991.4000244140625</ele><time>2026-08-01T07:00:59.000Z</time></trkpt>
      <trkpt lat="49.552996493875980377197265625" lon="19.5047919452190399169921875"><ele>988.4000244140625</ele><time>2026-08-01T07:01:41.000Z</time></trkpt>
      <trkpt lat="49.553414918482303619384765625" lon="19.5049367845058441162109375"><ele>987.79998779296875</ele><time>2026-08-01T07:02:18.000Z</time></trkpt>
      <trkpt lat="49.55382755957543849945068359375" lon="19.50545554049313068389892578125"><ele>990.20001220703125</ele><time>2026-08-01T07:02:54.000Z</time></trkpt>
      <trkpt lat="49.55399972386658191680908203125" lon="19.5054720528423786163330078125"><ele>994.5999755859375</ele><time>2026-08-01T07:03:26.000Z</time></trkpt>
      <trkpt lat="49.5540212653577327728271484375" lon="19.5054334960877895355224609375"><ele>996.5999755859375</ele><time>2026-08-01T07:04:52.000Z</time></trkpt>
      <trkpt lat="49.55403157509863376617431640625" lon="19.50542167760431766510009765625"><ele>999.79998779296875</ele><time>2026-08-01T07:07:05.000Z</time></trkpt>
      <trkpt lat="49.55403476022183895111083984375" lon="19.5054314844310283660888671875"><ele>1002</ele><time>2026-08-01T07:08:52.000Z</time></trkpt>
      <trkpt lat="49.554220251739025115966796875" lon="19.50539737008512020111083984375"><ele>1007</ele><time>2026-08-01T07:09:47.000Z</time></trkpt>
      <trkpt lat="49.5543354190886020660400390625" lon="19.50535931624472141265869140625"><ele>1011.79998779296875</ele><time>2026-08-01T07:10:16.000Z</time></trkpt>
      <trkpt lat="49.5544772408902645111083984375" lon="19.5052682049572467803955078125"><ele>1018.20001220703125</ele><time>2026-08-01T07:10:54.000Z</time></trkpt>
      <trkpt lat="49.554640688002109527587890625" lon="19.50519402511417865753173828125"><ele>1022.79998779296875</ele><time>2026-08-01T07:11:28.000Z</time></trkpt>
      <trkpt lat="49.55486892722547054290771484375" lon="19.5052061788737773895263671875"><ele>1027.5999755859375</ele><time>2026-08-01T07:12:18.000Z</time></trkpt>
      <trkpt lat="49.5550874434411525726318359375" lon="19.50522956438362598419189453125"><ele>1033.4000244140625</ele><time>2026-08-01T07:12:57.000Z</time></trkpt>
      <trkpt lat="49.555232785642147064208984375" lon="19.50516737066209316253662109375"><ele>1037.800048828125</ele><time>2026-08-01T07:13:31.000Z</time></trkpt>
      <trkpt lat="49.5554544031620025634765625" lon="19.50514675118029117584228515625"><ele>1043.5999755859375</ele><time>2026-08-01T07:14:09.000Z</time></trkpt>
      <trkpt lat="49.555581472814083099365234375" lon="19.5052028261125087738037109375"><ele>1047.800048828125</ele><time>2026-08-01T07:14:36.000Z</time></trkpt>
      <trkpt lat="49.55582932569086551666259765625" lon="19.5052237808704376220703125"><ele>1055.4000244140625</ele><time>2026-08-01T07:15:33.000Z</time></trkpt>
      <trkpt lat="49.5559940300881862640380859375" lon="19.505210034549236297607421875"><ele>1061.800048828125</ele><time>2026-08-01T07:16:16.000Z</time></trkpt>
      <trkpt lat="49.55617331899702548980712890625" lon="19.50521908700466156005859375"><ele>1066.199951171875</ele><time>2026-08-01T07:16:59.000Z</time></trkpt>
      <trkpt lat="49.55635403282940387725830078125" lon="19.50524448417127132415771484375"><ele>1072.4000244140625</ele><time>2026-08-01T07:17:44.000Z</time></trkpt>
      <trkpt lat="49.55664119683206081390380859375" lon="19.50510769151151180267333984375"><ele>1077.4000244140625</ele><time>2026-08-01T07:18:28.000Z</time></trkpt>
      <trkpt lat="49.55681084655225276947021484375" lon="19.50516938231885433197021484375"><ele>1083.199951171875</ele><time>2026-08-01T07:19:03.000Z</time></trkpt>
      <trkpt lat="49.55696892924606800079345703125" lon="19.50513191521167755126953125"><ele>1087.4000244140625</ele><time>2026-08-01T07:19:39.000Z</time></trkpt>
      <trkpt lat="49.557216949760913848876953125" lon="19.50505304150283336639404296875"><ele>1092.5999755859375</ele><time>2026-08-01T07:20:20.000Z</time></trkpt>
      <trkpt lat="49.55734645016491413116455078125" lon="19.5051173307001590728759765625"><ele>1097</ele><time>2026-08-01T07:20:59.000Z</time></trkpt>
      <trkpt lat="49.557369835674762725830078125" lon="19.50506360270082950592041015625"><ele>1100</ele><time>2026-08-01T07:21:51.000Z</time></trkpt>
      <trkpt lat="49.55764182843267917633056640625" lon="19.5049470104277133941650390625"><ele>1106.5999755859375</ele><time>2026-08-01T07:22:35.000Z</time></trkpt>
      <trkpt lat="49.55792597495019435882568359375" lon="19.5047860778868198394775390625"><ele>1113.4000244140625</ele><time>2026-08-01T07:23:19.000Z</time></trkpt>
      <trkpt lat="49.55808590166270732879638671875" lon="19.5046442560851573944091796875"><ele>1118.800048828125</ele><time>2026-08-01T07:23:59.000Z</time></trkpt>
      <trkpt lat="49.5583718083798885345458984375" lon="19.50441576540470123291015625"><ele>1127</ele><time>2026-08-01T07:25:00.000Z</time></trkpt>
      <trkpt lat="49.55851488746702671051025390625" lon="19.50424066744744777679443359375"><ele>1130.800048828125</ele><time>2026-08-01T07:26:38.000Z</time></trkpt>
      <trkpt lat="49.55871756188571453094482421875" lon="19.50403648428618907928466796875"><ele>1136</ele><time>2026-08-01T07:27:26.000Z</time></trkpt>
      <trkpt lat="49.55896784551441669464111328125" lon="19.50381335802376270294189453125"><ele>1140.4000244140625</ele><time>2026-08-01T07:28:03.000Z</time></trkpt>
      <trkpt lat="49.5591711066663265228271484375" lon="19.50366952456533908843994140625"><ele>1145</ele><time>2026-08-01T07:28:46.000Z</time></trkpt>
      <trkpt lat="49.55936296842992305755615234375" lon="19.5035956799983978271484375"><ele>1150.800048828125</ele><time>2026-08-01T07:29:30.000Z</time></trkpt>
      <trkpt lat="49.55954368226230144500732421875" lon="19.50347833335399627685546875"><ele>1156.5999755859375</ele><time>2026-08-01T07:30:14.000Z</time></trkpt>
      <trkpt lat="49.55977150239050388336181640625" lon="19.50340180657804012298583984375"><ele>1162.800048828125</ele><time>2026-08-01T07:30:57.000Z</time></trkpt>
      <trkpt lat="49.559876024723052978515625" lon="19.50345955789089202880859375"><ele>1167.199951171875</ele><time>2026-08-01T07:31:58.000Z</time></trkpt>
      <trkpt lat="49.56031833775341510772705078125" lon="19.50341521762311458587646484375"><ele>1177</ele><time>2026-08-01T07:33:25.000Z</time></trkpt>
      <trkpt lat="49.5608035661280155181884765625" lon="19.50320650823414325714111328125"><ele>1183.5999755859375</ele><time>2026-08-01T07:34:34.000Z</time></trkpt>
      <trkpt lat="49.56106265075504779815673828125" lon="19.50307625345885753631591796875"><ele>1188.4000244140625</ele><time>2026-08-01T07:35:21.000Z</time></trkpt>
      <trkpt lat="49.5612598769366741180419921875" lon="19.50326099060475826263427734375"><ele>1193.5999755859375</ele><time>2026-08-01T07:36:00.000Z</time></trkpt>
      <trkpt lat="49.56141301430761814117431640625" lon="19.50351211242377758026123046875"><ele>1199.5999755859375</ele><time>2026-08-01T07:36:35.000Z</time></trkpt>
      <trkpt lat="49.56155869178473949432373046875" lon="19.5039978437125682830810546875"><ele>1206.4000244140625</ele><time>2026-08-01T07:37:23.000Z</time></trkpt>
      <trkpt lat="49.56171141006052494049072265625" lon="19.504400007426738739013671875"><ele>1213.5999755859375</ele><time>2026-08-01T07:38:09.000Z</time></trkpt>
      <trkpt lat="49.5619542337954044342041015625" lon="19.50473134405910968780517578125"><ele>1221</ele><time>2026-08-01T07:39:03.000Z</time></trkpt>
      <trkpt lat="49.562184400856494903564453125" lon="19.504874758422374725341796875"><ele>1226.800048828125</ele><time>2026-08-01T07:39:42.000Z</time></trkpt>
      <trkpt lat="49.56218984909355640411376953125" lon="19.5048786140978336334228515625"><ele>1228.4000244140625</ele><time>2026-08-01T07:40:46.000Z</time></trkpt>
      <trkpt lat="49.56237609498202800750732421875" lon="19.505026638507843017578125"><ele>1232.199951171875</ele><time>2026-08-01T07:42:48.000Z</time></trkpt>
      <trkpt lat="49.56265470944344997406005859375" lon="19.5053510181605815887451171875"><ele>1237.5999755859375</ele><time>2026-08-01T07:43:32.000Z</time></trkpt>
      <trkpt lat="49.562724530696868896484375" lon="19.50576500035822391510009765625"><ele>1241</ele><time>2026-08-01T07:44:16.000Z</time></trkpt>
      <trkpt lat="49.56274422816932201385498046875" lon="19.506105221807956695556640625"><ele>1243.199951171875</ele><time>2026-08-01T07:44:47.000Z</time></trkpt>
      <trkpt lat="49.5627796836197376251220703125" lon="19.5065549947321414947509765625"><ele>1247</ele><time>2026-08-01T07:45:24.000Z</time></trkpt>
      <trkpt lat="49.562948159873485565185546875" lon="19.5068195275962352752685546875"><ele>1250.800048828125</ele><time>2026-08-01T07:45:58.000Z</time></trkpt>
      <trkpt lat="49.56304413266479969024658203125" lon="19.5072208531200885772705078125"><ele>1255.800048828125</ele><time>2026-08-01T07:46:33.000Z</time></trkpt>
      <trkpt lat="49.5630804263055324554443359375" lon="19.50742210261523723602294921875"><ele>1258.5999755859375</ele><time>2026-08-01T07:47:11.000Z</time></trkpt>
      <trkpt lat="49.56308503635227680206298828125" lon="19.50744976289570331573486328125"><ele>1259.800048828125</ele><time>2026-08-01T07:47:56.000Z</time></trkpt>
      <trkpt lat="49.56329223699867725372314453125" lon="19.507608599960803985595703125"><ele>1264.199951171875</ele><time>2026-08-01T07:48:35.000Z</time></trkpt>
      <trkpt lat="49.5634420216083526611328125" lon="19.50754456222057342529296875"><ele>1269.5999755859375</ele><time>2026-08-01T07:49:06.000Z</time></trkpt>
      <trkpt lat="49.5635206438601016998291015625" lon="19.507567025721073150634765625"><ele>1274.5999755859375</ele><time>2026-08-01T07:49:37.000Z</time></trkpt>
      <trkpt lat="49.5637335442006587982177734375" lon="19.507634751498699188232421875"><ele>1282.4000244140625</ele><time>2026-08-01T07:50:23.000Z</time></trkpt>
      <trkpt lat="49.5639035291969776153564453125" lon="19.50782611034810543060302734375"><ele>1287.199951171875</ele><time>2026-08-01T07:51:00.000Z</time></trkpt>
      <trkpt lat="49.56406370736658573150634765625" lon="19.5078505016863346099853515625"><ele>1293</ele><time>2026-08-01T07:51:37.000Z</time></trkpt>
      <trkpt lat="49.564125649631023406982421875" lon="19.50784220360219478607177734375"><ele>1295</ele><time>2026-08-01T07:52:44.000Z</time></trkpt>
      <trkpt lat="49.564169235527515411376953125" lon="19.5078106038272380828857421875"><ele>1294</ele><time>2026-08-01T07:54:02.000Z</time></trkpt>
      <trkpt lat="49.56432740204036235809326171875" lon="19.5077992044389247894287109375"><ele>1294.199951171875</ele><time>2026-08-01T07:55:42.000Z</time></trkpt>
      <trkpt lat="49.5643182657659053802490234375" lon="19.50782828964293003082275390625"><ele>1292.5999755859375</ele><time>2026-08-01T07:57:52.000Z</time></trkpt>
      <trkpt lat="49.5642418228089809417724609375" lon="19.5078625716269016265869140625"><ele>1293</ele><time>2026-08-01T07:59:29.000Z</time></trkpt>
      <trkpt lat="49.56421290524303913116455078125" lon="19.507868774235248565673828125"><ele>1293</ele><time>2026-08-01T08:00:48.000Z</time></trkpt>
      <trkpt lat="49.56422866322100162506103515625" lon="19.5078803412616252899169921875"><ele>1294</ele><time>2026-08-01T08:02:28.000Z</time></trkpt>
      <trkpt lat="49.5643494464457035064697265625" lon="19.5077968575060367584228515625"><ele>1297.199951171875</ele><time>2026-08-01T08:03:10.000Z</time></trkpt>
      <trkpt lat="49.5645348541438579559326171875" lon="19.50782527215778827667236328125"><ele>1302.5999755859375</ele><time>2026-08-01T08:03:45.000Z</time></trkpt>
      <trkpt lat="49.56463786773383617401123046875" lon="19.5078334026038646697998046875"><ele>1306.4000244140625</ele><time>2026-08-01T08:04:17.000Z</time></trkpt>
      <trkpt lat="49.56476544030010700225830078125" lon="19.50799156911671161651611328125"><ele>1310.5999755859375</ele><time>2026-08-01T08:04:49.000Z</time></trkpt>
      <trkpt lat="49.5649247802793979644775390625" lon="19.507960639894008636474609375"><ele>1315.4000244140625</ele><time>2026-08-01T08:05:25.000Z</time></trkpt>
      <trkpt lat="49.56511865369975566864013671875" lon="19.50809081085026264190673828125"><ele>1321</ele><time>2026-08-01T08:06:05.000Z</time></trkpt>
      <trkpt lat="49.56535452045500278472900390625" lon="19.5081478916108608245849609375"><ele>1326.199951171875</ele><time>2026-08-01T08:06:45.000Z</time></trkpt>
      <trkpt lat="49.56553540192544460296630859375" lon="19.50829147361218929290771484375"><ele>1332</ele><time>2026-08-01T08:07:26.000Z</time></trkpt>
      <trkpt lat="49.5657331310212612152099609375" lon="19.508425332605838775634765625"><ele>1337</ele><time>2026-08-01T08:08:09.000Z</time></trkpt>
      <trkpt lat="49.5658702589571475982666015625" lon="19.508495740592479705810546875"><ele>1343.5999755859375</ele><time>2026-08-01T08:09:15.000Z</time></trkpt>
      <trkpt lat="49.5660231448709964752197265625" lon="19.5086005143821239471435546875"><ele>1349</ele><time>2026-08-01T08:10:26.000Z</time></trkpt>
      <trkpt lat="49.56621433608233928680419921875" lon="19.508546032011508941650390625"><ele>1354.5999755859375</ele><time>2026-08-01T08:11:11.000Z</time></trkpt>
      <trkpt lat="49.5665149949491024017333984375" lon="19.50861065648496150970458984375"><ele>1360.800048828125</ele><time>2026-08-01T08:11:56.000Z</time></trkpt>
      <trkpt lat="49.56665329635143280029296875" lon="19.508723728358745574951171875"><ele>1365.199951171875</ele><time>2026-08-01T08:12:33.000Z</time></trkpt>
      <trkpt lat="49.5668242871761322021484375" lon="19.50893050990998744964599609375"><ele>1370.5999755859375</ele><time>2026-08-01T08:13:16.000Z</time></trkpt>
      <trkpt lat="49.56694557331502437591552734375" lon="19.509076774120330810546875"><ele>1376.5999755859375</ele><time>2026-08-01T08:14:07.000Z</time></trkpt>
      <trkpt lat="49.56718512810766696929931640625" lon="19.50927785597741603851318359375"><ele>1383.4000244140625</ele><time>2026-08-01T08:14:54.000Z</time></trkpt>
      <trkpt lat="49.56740423105657100677490234375" lon="19.509307108819484710693359375"><ele>1389.800048828125</ele><time>2026-08-01T08:16:10.000Z</time></trkpt>
      <trkpt lat="49.5675976015627384185791015625" lon="19.5094564743340015411376953125"><ele>1396</ele><time>2026-08-01T08:17:26.000Z</time></trkpt>
      <trkpt lat="49.56764311529695987701416015625" lon="19.50948757119476795196533203125"><ele>1398.4000244140625</ele><time>2026-08-01T08:18:37.000Z</time></trkpt>
      <trkpt lat="49.56793765537440776824951171875" lon="19.50980055145919322967529296875"><ele>1404</ele><time>2026-08-01T08:19:28.000Z</time></trkpt>
      <trkpt lat="49.56802918575704097747802734375" lon="19.51000540517270565032958984375"><ele>1408.4000244140625</ele><time>2026-08-01T08:20:02.000Z</time></trkpt>
      <trkpt lat="49.56804259680211544036865234375" lon="19.5101042278110980987548828125"><ele>1410.4000244140625</ele><time>2026-08-01T08:20:55.000Z</time></trkpt>
      <trkpt lat="49.56804293207824230194091796875" lon="19.51019483618438243865966796875"><ele>1413.5999755859375</ele><time>2026-08-01T08:21:47.000Z</time></trkpt>
      <trkpt lat="49.56820872612297534942626953125" lon="19.51064611785113811492919921875"><ele>1418.4000244140625</ele><time>2026-08-01T08:22:28.000Z</time></trkpt>
      <trkpt lat="49.5682976581156253814697265625" lon="19.5108951441943645477294921875"><ele>1422.199951171875</ele><time>2026-08-01T08:23:03.000Z</time></trkpt>
      <trkpt lat="49.568316601216793060302734375" lon="19.51125732623040676116943359375"><ele>1427</ele><time>2026-08-01T08:23:44.000Z</time></trkpt>
      <trkpt lat="49.56834116019308567047119140625" lon="19.51162093318998813629150390625"><ele>1432.199951171875</ele><time>2026-08-01T08:24:27.000Z</time></trkpt>
      <trkpt lat="49.5683533139526844024658203125" lon="19.51180818490684032440185546875"><ele>1436.4000244140625</ele><time>2026-08-01T08:25:49.000Z</time></trkpt>
      <trkpt lat="49.5684416592121124267578125" lon="19.51242542825639247894287109375"><ele>1443</ele><time>2026-08-01T08:26:52.000Z</time></trkpt>
      <trkpt lat="49.56851013936102390289306640625" lon="19.512712843716144561767578125"><ele>1447.4000244140625</ele><time>2026-08-01T08:27:31.000Z</time></trkpt>
      <trkpt lat="49.5685705728828907012939453125" lon="19.5129567570984363555908203125"><ele>1451</ele><time>2026-08-01T08:28:14.000Z</time></trkpt>
      <trkpt lat="49.5686161704361438751220703125" lon="19.51329127885401248931884765625"><ele>1457.5999755859375</ele><time>2026-08-01T08:28:56.000Z</time></trkpt>
      <trkpt lat="49.56868062727153301239013671875" lon="19.5136504434049129486083984375"><ele>1462</ele><time>2026-08-01T08:29:25.000Z</time></trkpt>
      <trkpt lat="49.56870124675333499908447265625" lon="19.51404414139688014984130859375"><ele>1466.199951171875</ele><time>2026-08-01T08:29:51.000Z</time></trkpt>
      <trkpt lat="49.56872999668121337890625" lon="19.5143850333988666534423828125"><ele>1470.5999755859375</ele><time>2026-08-01T08:30:16.000Z</time></trkpt>
      <trkpt lat="49.56874072551727294921875" lon="19.51456599868834018707275390625"><ele>1474.5999755859375</ele><time>2026-08-01T08:31:14.000Z</time></trkpt>
      <trkpt lat="49.5687509514391422271728515625" lon="19.5148416794836521148681640625"><ele>1476.5999755859375</ele><time>2026-08-01T08:32:47.000Z</time></trkpt>
      <trkpt lat="49.5688042603433132171630859375" lon="19.5152862556278705596923828125"><ele>1480.5999755859375</ele><time>2026-08-01T08:33:32.000Z</time></trkpt>
      <trkpt lat="49.568870477378368377685546875" lon="19.51575455255806446075439453125"><ele>1486.199951171875</ele><time>2026-08-01T08:34:21.000Z</time></trkpt>
      <trkpt lat="49.56900852732360363006591796875" lon="19.51619460247457027435302734375"><ele>1491.199951171875</ele><time>2026-08-01T08:35:00.000Z</time></trkpt>
      <trkpt lat="49.5690604113042354583740234375" lon="19.5165623165667057037353515625"><ele>1496</ele><time>2026-08-01T08:35:39.000Z</time></trkpt>
      <trkpt lat="49.569117240607738494873046875" lon="19.51712113805115222930908203125"><ele>1501</ele><time>2026-08-01T08:36:34.000Z</time></trkpt>
      <trkpt lat="49.56915353424847126007080078125" lon="19.51726027764379978179931640625"><ele>1504.4000244140625</ele><time>2026-08-01T08:38:19.000Z</time></trkpt>
      <trkpt lat="49.5693232677876949310302734375" lon="19.51783494092524051666259765625"><ele>1509.800048828125</ele><time>2026-08-01T08:39:11.000Z</time></trkpt>
      <trkpt lat="49.569413959980010986328125" lon="19.51825755648314952850341796875"><ele>1514.199951171875</ele><time>2026-08-01T08:39:57.000Z</time></trkpt>
      <trkpt lat="49.5695371739566326141357421875" lon="19.5186514221131801605224609375"><ele>1521.5999755859375</ele><time>2026-08-01T08:40:40.000Z</time></trkpt>
      <trkpt lat="49.5695405267179012298583984375" lon="19.51900505460798740386962890625"><ele>1526</ele><time>2026-08-01T08:41:12.000Z</time></trkpt>
      <trkpt lat="49.5695901475846767425537109375" lon="19.51915894635021686553955078125"><ele>1529.4000244140625</ele><time>2026-08-01T08:42:13.000Z</time></trkpt>
      <trkpt lat="49.56960179843008518218994140625" lon="19.51914084143936634063720703125"><ele>1531.4000244140625</ele><time>2026-08-01T08:43:22.000Z</time></trkpt>
      <trkpt lat="49.56960062496364116668701171875" lon="19.51918794773519039154052734375"><ele>1532</ele><time>2026-08-01T08:44:26.000Z</time></trkpt>
      <trkpt lat="49.56954538822174072265625" lon="19.5192633010447025299072265625"><ele>1533.4000244140625</ele><time>2026-08-01T08:46:27.000Z</time></trkpt>
      <trkpt lat="49.56949870102107524871826171875" lon="19.519856236875057220458984375"><ele>1537.5999755859375</ele><time>2026-08-01T08:47:16.000Z</time></trkpt>
      <trkpt lat="49.5695391856133937835693359375" lon="19.52040164731442928314208984375"><ele>1540.800048828125</ele><time>2026-08-01T08:48:03.000Z</time></trkpt>
      <trkpt lat="49.5694023929536342620849609375" lon="19.5210804976522922515869140625"><ele>1544</ele><time>2026-08-01T08:48:58.000Z</time></trkpt>
      <trkpt lat="49.56934581510722637176513671875" lon="19.52153705991804599761962890625"><ele>1545</ele><time>2026-08-01T08:49:32.000Z</time></trkpt>
      <trkpt lat="49.56922042183578014373779296875" lon="19.52186445705592632293701171875"><ele>1550.800048828125</ele><time>2026-08-01T08:50:09.000Z</time></trkpt>
      <trkpt lat="49.56915915012359619140625" lon="19.5223166607320308685302734375"><ele>1556.5999755859375</ele><time>2026-08-01T08:50:53.000Z</time></trkpt>
      <trkpt lat="49.5693108625710010528564453125" lon="19.5228024758398532867431640625"><ele>1562.199951171875</ele><time>2026-08-01T08:51:41.000Z</time></trkpt>
      <trkpt lat="49.5692810229957103729248046875" lon="19.52300615608692169189453125"><ele>1565.4000244140625</ele><time>2026-08-01T08:52:09.000Z</time></trkpt>
      <trkpt lat="49.5692347548902034759521484375" lon="19.5235249958932399749755859375"><ele>1569</ele><time>2026-08-01T08:52:51.000Z</time></trkpt>
      <trkpt lat="49.5692850463092327117919921875" lon="19.524086415767669677734375"><ele>1573.199951171875</ele><time>2026-08-01T08:53:40.000Z</time></trkpt>
      <trkpt lat="49.5693316496908664703369140625" lon="19.5246082730591297149658203125"><ele>1579.4000244140625</ele><time>2026-08-01T08:54:32.000Z</time></trkpt>
      <trkpt lat="49.56934028305113315582275390625" lon="19.52517740428447723388671875"><ele>1584.199951171875</ele><time>2026-08-01T08:55:20.000Z</time></trkpt>
      <trkpt lat="49.56928932107985019683837890625" lon="19.52563648112118244171142578125"><ele>1589.800048828125</ele><time>2026-08-01T08:56:03.000Z</time></trkpt>
      <trkpt lat="49.569222517311573028564453125" lon="19.5262818038463592529296875"><ele>1592.800048828125</ele><time>2026-08-01T08:56:50.000Z</time></trkpt>
      <trkpt lat="49.56916250288486480712890625" lon="19.5268150605261325836181640625"><ele>1596.5999755859375</ele><time>2026-08-01T08:57:32.000Z</time></trkpt>
      <trkpt lat="49.5690832100808620452880859375" lon="19.52721814624965190887451171875"><ele>1599.800048828125</ele><time>2026-08-01T08:58:03.000Z</time></trkpt>
      <trkpt lat="49.569054879248142242431640625" lon="19.52766976319253444671630859375"><ele>1602</ele><time>2026-08-01T08:58:33.000Z</time></trkpt>
      <trkpt lat="49.56903115846216678619384765625" lon="19.52821106649935245513916015625"><ele>1605.800048828125</ele><time>2026-08-01T08:59:13.000Z</time></trkpt>
      <trkpt lat="49.5691309869289398193359375" lon="19.52858288772404193878173828125"><ele>1610.4000244140625</ele><time>2026-08-01T09:00:02.000Z</time></trkpt>
      <trkpt lat="49.5692907460033893585205078125" lon="19.5287816226482391357421875"><ele>1617.800048828125</ele><time>2026-08-01T09:00:52.000Z</time></trkpt>
      <trkpt lat="49.5693836174905300140380859375" lon="19.52887088991701602935791015625"><ele>1624</ele><time>2026-08-01T09:01:49.000Z</time></trkpt>
      <trkpt lat="49.5695574581623077392578125" lon="19.5290444791316986083984375"><ele>1631</ele><time>2026-08-01T09:02:43.000Z</time></trkpt>
      <trkpt lat="49.56975334323942661285400390625" lon="19.52929216437041759490966796875"><ele>1639</ele><time>2026-08-01T09:03:42.000Z</time></trkpt>
      <trkpt lat="49.56985585391521453857421875" lon="19.52945929951965808868408203125"><ele>1643.199951171875</ele><time>2026-08-01T09:04:54.000Z</time></trkpt>
      <trkpt lat="49.56987102515995502471923828125" lon="19.52946147881448268890380859375"><ele>1647.4000244140625</ele><time>2026-08-01T09:05:37.000Z</time></trkpt>
      <trkpt lat="49.57043521106243133544921875" lon="19.52958821319043636322021484375"><ele>1656.199951171875</ele><time>2026-08-01T09:06:23.000Z</time></trkpt>
      <trkpt lat="49.57069873809814453125" lon="19.52944555319845676422119140625"><ele>1662.5999755859375</ele><time>2026-08-01T09:07:05.000Z</time></trkpt>
      <trkpt lat="49.57085656933486461639404296875" lon="19.5293842814862728118896484375"><ele>1666.5999755859375</ele><time>2026-08-01T09:07:43.000Z</time></trkpt>
      <trkpt lat="49.57118354737758636474609375" lon="19.529387466609477996826171875"><ele>1670.4000244140625</ele><time>2026-08-01T09:08:45.000Z</time></trkpt>
      <trkpt lat="49.5714348368346691131591796875" lon="19.5292394421994686126708984375"><ele>1673.4000244140625</ele><time>2026-08-01T09:09:18.000Z</time></trkpt>
      <trkpt lat="49.57169475965201854705810546875" lon="19.5290982909500598907470703125"><ele>1679.5999755859375</ele><time>2026-08-01T09:09:59.000Z</time></trkpt>
      <trkpt lat="49.57188519649207592010498046875" lon="19.52910658903419971466064453125"><ele>1686.4000244140625</ele><time>2026-08-01T09:10:32.000Z</time></trkpt>
      <trkpt lat="49.57211486063897609710693359375" lon="19.529168196022510528564453125"><ele>1691</ele><time>2026-08-01T09:11:08.000Z</time></trkpt>
      <trkpt lat="49.57227730192244052886962890625" lon="19.52922494150698184967041015625"><ele>1698.199951171875</ele><time>2026-08-01T09:11:44.000Z</time></trkpt>
      <trkpt lat="49.57252725027501583099365234375" lon="19.52924673445522785186767578125"><ele>1707.4000244140625</ele><time>2026-08-01T09:12:29.000Z</time></trkpt>
      <trkpt lat="49.57273411564528942108154296875" lon="19.5293180644512176513671875"><ele>1714.4000244140625</ele><time>2026-08-01T09:13:10.000Z</time></trkpt>
      <trkpt lat="49.57291902042925357818603515625" lon="19.5293249376118183135986328125"><ele>1723.4000244140625</ele><time>2026-08-01T09:13:48.000Z</time></trkpt>
      <trkpt lat="49.5729965530335903167724609375" lon="19.52937363646924495697021484375"><ele>1725.800048828125</ele><time>2026-08-01T09:14:23.000Z</time></trkpt>
      <trkpt lat="49.57300820387899875640869140625" lon="19.52939408831298351287841796875"><ele>1722.5999755859375</ele><time>2026-08-01T09:15:34.000Z</time></trkpt>
      <trkpt lat="49.573123455047607421875" lon="19.52952551655471324920654296875"><ele>1723.5999755859375</ele><time>2026-08-01T09:16:25.000Z</time></trkpt>
      <trkpt lat="49.5731301605701446533203125" lon="19.529523588716983795166015625"><ele>1722.199951171875</ele><time>2026-08-01T09:17:33.000Z</time></trkpt>
      <trkpt lat="49.5731199346482753753662109375" lon="19.5295049808919429779052734375"><ele>1721.199951171875</ele><time>2026-08-01T09:19:47.000Z</time></trkpt>
      <trkpt lat="49.5731222815811634063720703125" lon="19.529504142701625823974609375"><ele>1720.5999755859375</ele><time>2026-08-01T09:21:21.000Z</time></trkpt>
      <trkpt lat="49.5731269754469394683837890625" lon="19.5295066572725772857666015625"><ele>1721.199951171875</ele><time>2026-08-01T09:23:11.000Z</time></trkpt>
      <trkpt lat="49.5731377042829990386962890625" lon="19.5295582897961139678955078125"><ele>1720.5999755859375</ele><time>2026-08-01T09:27:06.000Z</time></trkpt>
      <trkpt lat="49.573139883577823638916015625" lon="19.5295904763042926788330078125"><ele>1718.4000244140625</ele><time>2026-08-01T09:29:03.000Z</time></trkpt>
      <trkpt lat="49.57315321080386638641357421875" lon="19.5295985229313373565673828125"><ele>1720.5999755859375</ele><time>2026-08-01T09:31:35.000Z</time></trkpt>
      <trkpt lat="49.57315488718450069427490234375" lon="19.52958184294402599334716796875"><ele>1721</ele><time>2026-08-01T09:34:43.000Z</time></trkpt>
      <trkpt lat="49.57315555773675441741943359375" lon="19.5295730419456958770751953125"><ele>1717.5999755859375</ele><time>2026-08-01T09:37:05.000Z</time></trkpt>
      <trkpt lat="49.57315471954643726348876953125" lon="19.52956625260412693023681640625"><ele>1722.199951171875</ele><time>2026-08-01T09:39:32.000Z</time></trkpt>
      <trkpt lat="49.57304458133876323699951171875" lon="19.5291911624372005462646484375"><ele>1723</ele><time>2026-08-01T09:41:07.000Z</time></trkpt>
      <trkpt lat="49.573034942150115966796875" lon="19.529023356735706329345703125"><ele>1719.199951171875</ele><time>2026-08-01T09:41:36.000Z</time></trkpt>
      <trkpt lat="49.57307048141956329345703125" lon="19.52889092266559600830078125"><ele>1713.5999755859375</ele><time>2026-08-01T09:42:14.000Z</time></trkpt>
      <trkpt lat="49.57300451584160327911376953125" lon="19.5285933651030063629150390625"><ele>1699.5999755859375</ele><time>2026-08-01T09:42:54.000Z</time></trkpt>
      <trkpt lat="49.572959840297698974609375" lon="19.5283613540232181549072265625"><ele>1705.4000244140625</ele><time>2026-08-01T09:43:17.000Z</time></trkpt>
      <trkpt lat="49.57292103208601474761962890625" lon="19.52822171151638031005859375"><ele>1697.4000244140625</ele><time>2026-08-01T09:44:31.000Z</time></trkpt>
      <trkpt lat="49.5728699862957000732421875" lon="19.52778040431439876556396484375"><ele>1691.800048828125</ele><time>2026-08-01T09:44:56.000Z</time></trkpt>
      <trkpt lat="49.5726964809000492095947265625" lon="19.52713483013212680816650390625"><ele>1697.4000244140625</ele><time>2026-08-01T09:45:37.000Z</time></trkpt>
      <trkpt lat="49.5725402422249317169189453125" lon="19.52670198865234851837158203125"><ele>1695.199951171875</ele><time>2026-08-01T09:46:13.000Z</time></trkpt>
      <trkpt lat="49.5724071376025676727294921875" lon="19.5263044349849224090576171875"><ele>1689.5999755859375</ele><time>2026-08-01T09:46:41.000Z</time></trkpt>
      <trkpt lat="49.5722026191651821136474609375" lon="19.52564570121467113494873046875"><ele>1681.4000244140625</ele><time>2026-08-01T09:47:31.000Z</time></trkpt>
      <trkpt lat="49.57219582982361316680908203125" lon="19.52540681697428226470947265625"><ele>1672.4000244140625</ele><time>2026-08-01T09:48:04.000Z</time></trkpt>
      <trkpt lat="49.57220236770808696746826171875" lon="19.52515862882137298583984375"><ele>1669.4000244140625</ele><time>2026-08-01T09:48:34.000Z</time></trkpt>
      <trkpt lat="49.57215928472578525543212890625" lon="19.5247987098991870880126953125"><ele>1662.5999755859375</ele><time>2026-08-01T09:49:14.000Z</time></trkpt>
      <trkpt lat="49.57213531248271465301513671875" lon="19.5244480110704898834228515625"><ele>1654</ele><time>2026-08-01T09:49:45.000Z</time></trkpt>
      <trkpt lat="49.57216523587703704833984375" lon="19.52400821261107921600341796875"><ele>1653</ele><time>2026-08-01T09:50:29.000Z</time></trkpt>
      <trkpt lat="49.5721821673214435577392578125" lon="19.52374803833663463592529296875"><ele>1643.199951171875</ele><time>2026-08-01T09:50:56.000Z</time></trkpt>
      <trkpt lat="49.57217638380825519561767578125" lon="19.52354452572762966156005859375"><ele>1642.199951171875</ele><time>2026-08-01T09:51:28.000Z</time></trkpt>
      <trkpt lat="49.57217101939022541046142578125" lon="19.5233952440321445465087890625"><ele>1638.800048828125</ele><time>2026-08-01T09:52:57.000Z</time></trkpt>
      <trkpt lat="49.5721684210002422332763671875" lon="19.52285419218242168426513671875"><ele>1634.800048828125</ele><time>2026-08-01T09:53:29.000Z</time></trkpt>
      <trkpt lat="49.57223455421626567840576171875" lon="19.52245655469596385955810546875"><ele>1637.199951171875</ele><time>2026-08-01T09:54:01.000Z</time></trkpt>
      <trkpt lat="49.5722691714763641357421875" lon="19.5220626890659332275390625"><ele>1634</ele><time>2026-08-01T09:54:29.000Z</time></trkpt>
      <trkpt lat="49.5722565986216068267822265625" lon="19.521755240857601165771484375"><ele>1627</ele><time>2026-08-01T09:54:57.000Z</time></trkpt>
      <trkpt lat="49.57230043597519397735595703125" lon="19.521461538970470428466796875"><ele>1619.199951171875</ele><time>2026-08-01T09:55:24.000Z</time></trkpt>
      <trkpt lat="49.57264342345297336578369140625" lon="19.52098217792809009552001953125"><ele>1613.4000244140625</ele><time>2026-08-01T09:56:14.000Z</time></trkpt>
      <trkpt lat="49.5728849060833454132080078125" lon="19.52024993486702442169189453125"><ele>1614</ele><time>2026-08-01T09:57:08.000Z</time></trkpt>
      <trkpt lat="49.57304055802524089813232421875" lon="19.5197484456002712249755859375"><ele>1607.4000244140625</ele><time>2026-08-01T09:57:47.000Z</time></trkpt>
      <trkpt lat="49.573229067027568817138671875" lon="19.5189588703215122222900390625"><ele>1608.4000244140625</ele><time>2026-08-01T09:58:36.000Z</time></trkpt>
      <trkpt lat="49.57344741560518741607666015625" lon="19.51822419650852680206298828125"><ele>1606.199951171875</ele><time>2026-08-01T09:59:27.000Z</time></trkpt>
      <trkpt lat="49.5737953484058380126953125" lon="19.5176227949559688568115234375"><ele>1604.5999755859375</ele><time>2026-08-01T10:00:18.000Z</time></trkpt>
      <trkpt lat="49.57413540221750736236572265625" lon="19.5171691663563251495361328125"><ele>1605</ele><time>2026-08-01T10:01:02.000Z</time></trkpt>
      <trkpt lat="49.574461542069911956787109375" lon="19.51678066514432430267333984375"><ele>1599.199951171875</ele><time>2026-08-01T10:01:42.000Z</time></trkpt>
      <trkpt lat="49.57483612932264804840087890625" lon="19.51647170819342136383056640625"><ele>1593.4000244140625</ele><time>2026-08-01T10:02:32.000Z</time></trkpt>
      <trkpt lat="49.57503176294267177581787109375" lon="19.51619007624685764312744140625"><ele>1588.800048828125</ele><time>2026-08-01T10:03:10.000Z</time></trkpt>
      <trkpt lat="49.57533552311360836029052734375" lon="19.51585345901548862457275390625"><ele>1581</ele><time>2026-08-01T10:03:54.000Z</time></trkpt>
      <trkpt lat="49.57555764354765415191650390625" lon="19.51564910821616649627685546875"><ele>1574</ele><time>2026-08-01T10:04:28.000Z</time></trkpt>
      <trkpt lat="49.5757334120571613311767578125" lon="19.5155717432498931884765625"><ele>1566.199951171875</ele><time>2026-08-01T10:05:00.000Z</time></trkpt>
      <trkpt lat="49.57585654221475124359130859375" lon="19.51552974991500377655029296875"><ele>1561.199951171875</ele><time>2026-08-01T10:05:40.000Z</time></trkpt>
      <trkpt lat="49.57608235068619251251220703125" lon="19.51545665971934795379638671875"><ele>1553.4000244140625</ele><time>2026-08-01T10:06:12.000Z</time></trkpt>
      <trkpt lat="49.57623171620070934295654296875" lon="19.51537837274372577667236328125"><ele>1548.199951171875</ele><time>2026-08-01T10:06:44.000Z</time></trkpt>
      <trkpt lat="49.57646624185144901275634765625" lon="19.515264295041561126708984375"><ele>1540.199951171875</ele><time>2026-08-01T10:07:24.000Z</time></trkpt>
      <trkpt lat="49.5766545832157135009765625" lon="19.5152000896632671356201171875"><ele>1531.5999755859375</ele><time>2026-08-01T10:08:04.000Z</time></trkpt>
      <trkpt lat="49.57689891569316387176513671875" lon="19.515149295330047607421875"><ele>1525.800048828125</ele><time>2026-08-01T10:08:34.000Z</time></trkpt>
      <trkpt lat="49.5772153325378894805908203125" lon="19.51496095396578311920166015625"><ele>1522.4000244140625</ele><time>2026-08-01T10:09:12.000Z</time></trkpt>
      <trkpt lat="49.5775398798286914825439453125" lon="19.5148544199764728546142578125"><ele>1516.199951171875</ele><time>2026-08-01T10:09:47.000Z</time></trkpt>
      <trkpt lat="49.5776810310781002044677734375" lon="19.51465300284326076507568359375"><ele>1508.4000244140625</ele><time>2026-08-01T10:10:23.000Z</time></trkpt>
      <trkpt lat="49.5777903310954570770263671875" lon="19.5145337283611297607421875"><ele>1501.5999755859375</ele><time>2026-08-01T10:10:57.000Z</time></trkpt>
      <trkpt lat="49.57793466746807098388671875" lon="19.51437153853476047515869140625"><ele>1494.4000244140625</ele><time>2026-08-01T10:11:30.000Z</time></trkpt>
      <trkpt lat="49.57809266634285449981689453125" lon="19.51419434510171413421630859375"><ele>1485.800048828125</ele><time>2026-08-01T10:12:07.000Z</time></trkpt>
      <trkpt lat="49.57821629941463470458984375" lon="19.514039196074008941650390625"><ele>1479.199951171875</ele><time>2026-08-01T10:12:38.000Z</time></trkpt>
      <trkpt lat="49.5782996155321598052978515625" lon="19.5139401219785213470458984375"><ele>1475</ele><time>2026-08-01T10:13:00.000Z</time></trkpt>
      <trkpt lat="49.57845023833215236663818359375" lon="19.51376502402126789093017578125"><ele>1469.199951171875</ele><time>2026-08-01T10:13:32.000Z</time></trkpt>
      <trkpt lat="49.57860362716019153594970703125" lon="19.51356519944965839385986328125"><ele>1466</ele><time>2026-08-01T10:14:21.000Z</time></trkpt>
      <trkpt lat="49.57877411507070064544677734375" lon="19.5133778639137744903564453125"><ele>1461.800048828125</ele><time>2026-08-01T10:15:02.000Z</time></trkpt>
      <trkpt lat="49.57902004010975360870361328125" lon="19.513076953589916229248046875"><ele>1453.800048828125</ele><time>2026-08-01T10:16:00.000Z</time></trkpt>
      <trkpt lat="49.5792913623154163360595703125" lon="19.51273706741631031036376953125"><ele>1446.199951171875</ele><time>2026-08-01T10:16:36.000Z</time></trkpt>
      <trkpt lat="49.57954441197216510772705078125" lon="19.5124454610049724578857421875"><ele>1438.800048828125</ele><time>2026-08-01T10:17:08.000Z</time></trkpt>
      <trkpt lat="49.5797979645431041717529296875" lon="19.5121403597295284271240234375"><ele>1435.199951171875</ele><time>2026-08-01T10:17:39.000Z</time></trkpt>
      <trkpt lat="49.58005495369434356689453125" lon="19.5118761621415615081787109375"><ele>1429.800048828125</ele><time>2026-08-01T10:18:10.000Z</time></trkpt>
      <trkpt lat="49.58030364476144313812255859375" lon="19.51148766092956066131591796875"><ele>1424.5999755859375</ele><time>2026-08-01T10:18:50.000Z</time></trkpt>
      <trkpt lat="49.5805895514786243438720703125" lon="19.51122312806546688079833984375"><ele>1422.4000244140625</ele><time>2026-08-01T10:19:46.000Z</time></trkpt>
      <trkpt lat="49.58084511570632457733154296875" lon="19.510927498340606689453125"><ele>1418.800048828125</ele><time>2026-08-01T10:20:14.000Z</time></trkpt>
      <trkpt lat="49.58132305182516574859619140625" lon="19.5103774778544902801513671875"><ele>1415.5999755859375</ele><time>2026-08-01T10:21:12.000Z</time></trkpt>
      <trkpt lat="49.58145238459110260009765625" lon="19.5103939063847064971923828125"><ele>1416</ele><time>2026-08-01T10:21:46.000Z</time></trkpt>
      <trkpt lat="49.58153276704251766204833984375" lon="19.5101702772080898284912109375"><ele>1414.5999755859375</ele><time>2026-08-01T10:22:59.000Z</time></trkpt>
      <trkpt lat="49.581587500870227813720703125" lon="19.50968286953866481781005859375"><ele>1417</ele><time>2026-08-01T10:23:32.000Z</time></trkpt>
      <trkpt lat="49.58159177564084529876708984375" lon="19.50926922261714935302734375"><ele>1421.800048828125</ele><time>2026-08-01T10:24:10.000Z</time></trkpt>
      <trkpt lat="49.58169453777372837066650390625" lon="19.50873504392802715301513671875"><ele>1427</ele><time>2026-08-01T10:24:55.000Z</time></trkpt>
      <trkpt lat="49.58174549974501132965087890625" lon="19.50844570063054561614990234375"><ele>1429.4000244140625</ele><time>2026-08-01T10:25:40.000Z</time></trkpt>
      <trkpt lat="49.58182680420577526092529296875" lon="19.5077247731387615203857421875"><ele>1431.4000244140625</ele><time>2026-08-01T10:26:34.000Z</time></trkpt>
      <trkpt lat="49.58185982890427112579345703125" lon="19.50737399049103260040283203125"><ele>1434.4000244140625</ele><time>2026-08-01T10:27:00.000Z</time></trkpt>
      <trkpt lat="49.58194666542112827301025390625" lon="19.506798572838306427001953125"><ele>1439.4000244140625</ele><time>2026-08-01T10:27:39.000Z</time></trkpt>
      <trkpt lat="49.5819651894271373748779296875" lon="19.5063897036015987396240234375"><ele>1444.5999755859375</ele><time>2026-08-01T10:28:11.000Z</time></trkpt>
      <trkpt lat="49.581964015960693359375" lon="19.506117291748523712158203125"><ele>1452.4000244140625</ele><time>2026-08-01T10:28:43.000Z</time></trkpt>
      <trkpt lat="49.58195504732429981231689453125" lon="19.50584404170513153076171875"><ele>1456</ele><time>2026-08-01T10:29:29.000Z</time></trkpt>
      <trkpt lat="49.5819558016955852508544921875" lon="19.5054868049919605255126953125"><ele>1464</ele><time>2026-08-01T10:30:10.000Z</time></trkpt>
      <trkpt lat="49.5819786004722118377685546875" lon="19.5051300711929798126220703125"><ele>1469.4000244140625</ele><time>2026-08-01T10:30:50.000Z</time></trkpt>
      <trkpt lat="49.58199729211628437042236328125" lon="19.50479387305676937103271484375"><ele>1475.800048828125</ele><time>2026-08-01T10:31:38.000Z</time></trkpt>
      <trkpt lat="49.58201539702713489532470703125" lon="19.50454560108482837677001953125"><ele>1482.5999755859375</ele><time>2026-08-01T10:32:13.000Z</time></trkpt>
      <trkpt lat="49.5819541253149509429931640625" lon="19.50408183038234710693359375"><ele>1487.199951171875</ele><time>2026-08-01T10:33:08.000Z</time></trkpt>
      <trkpt lat="49.58187374286353588104248046875" lon="19.503642953932285308837890625"><ele>1486</ele><time>2026-08-01T10:33:38.000Z</time></trkpt>
      <trkpt lat="49.58177316002547740936279296875" lon="19.50315906666219234466552734375"><ele>1485</ele><time>2026-08-01T10:34:15.000Z</time></trkpt>
      <trkpt lat="49.581672661006450653076171875" lon="19.50247895903885364532470703125"><ele>1483.800048828125</ele><time>2026-08-01T10:35:03.000Z</time></trkpt>
      <trkpt lat="49.581607282161712646484375" lon="19.50200437568128108978271484375"><ele>1488</ele><time>2026-08-01T10:35:42.000Z</time></trkpt>
      <trkpt lat="49.58150058053433895111083984375" lon="19.50146793387830257415771484375"><ele>1493</ele><time>2026-08-01T10:36:26.000Z</time></trkpt>
      <trkpt lat="49.58144643343985080718994140625" lon="19.50098396278917789459228515625"><ele>1498.4000244140625</ele><time>2026-08-01T10:37:03.000Z</time></trkpt>
      <trkpt lat="49.58138256333768367767333984375" lon="19.5004492811858654022216796875"><ele>1505.800048828125</ele><time>2026-08-01T10:37:51.000Z</time></trkpt>
      <trkpt lat="49.58136328496038913726806640625" lon="19.5002507977187633514404296875"><ele>1509.199951171875</ele><time>2026-08-01T10:38:33.000Z</time></trkpt>
      <trkpt lat="49.58133059553802013397216796875" lon="19.49991376139223575592041015625"><ele>1514.199951171875</ele><time>2026-08-01T10:39:19.000Z</time></trkpt>
      <trkpt lat="49.581247530877590179443359375" lon="19.4995202310383319854736328125"><ele>1516.199951171875</ele><time>2026-08-01T10:40:02.000Z</time></trkpt>
      <trkpt lat="49.58123923279345035552978515625" lon="19.49948762543499469757080078125"><ele>1519.800048828125</ele><time>2026-08-01T10:40:53.000Z</time></trkpt>
      <trkpt lat="49.5810949802398681640625" lon="19.49953012168407440185546875"><ele>1519.5999755859375</ele><time>2026-08-01T10:42:29.000Z</time></trkpt>
      <trkpt lat="49.5807729475200176239013671875" lon="19.49931562878191471099853515625"><ele>1512.199951171875</ele><time>2026-08-01T10:43:07.000Z</time></trkpt>
      <trkpt lat="49.58050883375108242034912109375" lon="19.49908680282533168792724609375"><ele>1506</ele><time>2026-08-01T10:43:58.000Z</time></trkpt>
      <trkpt lat="49.58034840412437915802001953125" lon="19.4987454079091548919677734375"><ele>1502.800048828125</ele><time>2026-08-01T10:45:00.000Z</time></trkpt>
      <trkpt lat="49.58008403889834880828857421875" lon="19.4986840523779392242431640625"><ele>1498.4000244140625</ele><time>2026-08-01T10:45:32.000Z</time></trkpt>
      <trkpt lat="49.58004296757280826568603515625" lon="19.4986954517662525177001953125"><ele>1497.199951171875</ele><time>2026-08-01T10:46:08.000Z</time></trkpt>
      <trkpt lat="49.5797587372362613677978515625" lon="19.49852135963737964630126953125"><ele>1493.800048828125</ele><time>2026-08-01T10:46:43.000Z</time></trkpt>
      <trkpt lat="49.57944751717150211334228515625" lon="19.4982528872787952423095703125"><ele>1488</ele><time>2026-08-01T10:47:13.000Z</time></trkpt>
      <trkpt lat="49.5790819823741912841796875" lon="19.49787561781704425811767578125"><ele>1482.199951171875</ele><time>2026-08-01T10:47:50.000Z</time></trkpt>
      <trkpt lat="49.57880915142595767974853515625" lon="19.497619383037090301513671875"><ele>1479.199951171875</ele><time>2026-08-01T10:48:19.000Z</time></trkpt>
      <trkpt lat="49.57841704599559307098388671875" lon="19.497341103851795196533203125"><ele>1478.4000244140625</ele><time>2026-08-01T10:48:56.000Z</time></trkpt>
      <trkpt lat="49.57812820561230182647705078125" lon="19.4969010539352893829345703125"><ele>1473.800048828125</ele><time>2026-08-01T10:49:37.000Z</time></trkpt>
      <trkpt lat="49.57780315540730953216552734375" lon="19.496375508606433868408203125"><ele>1468.800048828125</ele><time>2026-08-01T10:50:20.000Z</time></trkpt>
      <trkpt lat="49.57760266028344631195068359375" lon="19.4960732571780681610107421875"><ele>1465</ele><time>2026-08-01T10:50:51.000Z</time></trkpt>
      <trkpt lat="49.57751414738595485687255859375" lon="19.495719373226165771484375"><ele>1458.4000244140625</ele><time>2026-08-01T10:51:24.000Z</time></trkpt>
      <trkpt lat="49.577410630881786346435546875" lon="19.49549683369696140289306640625"><ele>1452.4000244140625</ele><time>2026-08-01T10:51:54.000Z</time></trkpt>
      <trkpt lat="49.5773398876190185546875" lon="19.4950942508876323699951171875"><ele>1447</ele><time>2026-08-01T10:52:27.000Z</time></trkpt>
      <trkpt lat="49.57719630561769008636474609375" lon="19.4946158118546009063720703125"><ele>1440.5999755859375</ele><time>2026-08-01T10:53:06.000Z</time></trkpt>
      <trkpt lat="49.5769501291215419769287109375" lon="19.49417618103325366973876953125"><ele>1435.5999755859375</ele><time>2026-08-01T10:53:46.000Z</time></trkpt>
      <trkpt lat="49.57671099342405796051025390625" lon="19.49429989792406558990478515625"><ele>1428.800048828125</ele><time>2026-08-01T10:54:29.000Z</time></trkpt>
      <trkpt lat="49.57654469646513462066650390625" lon="19.49470885097980499267578125"><ele>1426.800048828125</ele><time>2026-08-01T10:55:03.000Z</time></trkpt>
      <trkpt lat="49.57618997432291507720947265625" lon="19.49511051177978515625"><ele>1422.4000244140625</ele><time>2026-08-01T10:55:43.000Z</time></trkpt>
      <trkpt lat="49.57585218362510204315185546875" lon="19.495209753513336181640625"><ele>1418</ele><time>2026-08-01T10:56:19.000Z</time></trkpt>
      <trkpt lat="49.575573317706584930419921875" lon="19.495001547038555145263671875"><ele>1410.800048828125</ele><time>2026-08-01T10:56:54.000Z</time></trkpt>
      <trkpt lat="49.57533082924783229827880859375" lon="19.4948196597397327423095703125"><ele>1404.4000244140625</ele><time>2026-08-01T10:57:29.000Z</time></trkpt>
      <trkpt lat="49.57517844624817371368408203125" lon="19.4945363514125347137451171875"><ele>1398.800048828125</ele><time>2026-08-01T10:58:00.000Z</time></trkpt>
      <trkpt lat="49.575075767934322357177734375" lon="19.494288079440593719482421875"><ele>1393.199951171875</ele><time>2026-08-01T10:58:27.000Z</time></trkpt>
      <trkpt lat="49.57501365803182125091552734375" lon="19.4941216148436069488525390625"><ele>1388</ele><time>2026-08-01T10:59:02.000Z</time></trkpt>
      <trkpt lat="49.57489480264484882354736328125" lon="19.494001083076000213623046875"><ele>1380.4000244140625</ele><time>2026-08-01T11:00:02.000Z</time></trkpt>
      <trkpt lat="49.57452465780079364776611328125" lon="19.493746943771839141845703125"><ele>1375</ele><time>2026-08-01T11:00:52.000Z</time></trkpt>
      <trkpt lat="49.574114866554737091064453125" lon="19.49361811392009258270263671875"><ele>1370.199951171875</ele><time>2026-08-01T11:01:35.000Z</time></trkpt>
      <trkpt lat="49.57387438975274562835693359375" lon="19.4934688322246074676513671875"><ele>1364.800048828125</ele><time>2026-08-01T11:02:04.000Z</time></trkpt>
      <trkpt lat="49.573597200214862823486328125" lon="19.4931908883154392242431640625"><ele>1359</ele><time>2026-08-01T11:02:37.000Z</time></trkpt>
      <trkpt lat="49.57340885885059833526611328125" lon="19.4928167201578617095947265625"><ele>1353.5999755859375</ele><time>2026-08-01T11:03:07.000Z</time></trkpt>
      <trkpt lat="49.5731859840452671051025390625" lon="19.4924324937164783477783203125"><ele>1347</ele><time>2026-08-01T11:03:44.000Z</time></trkpt>
      <trkpt lat="49.57298808731138706207275390625" lon="19.4919463433325290679931640625"><ele>1342.199951171875</ele><time>2026-08-01T11:04:21.000Z</time></trkpt>
      <trkpt lat="49.57276999019086360931396484375" lon="19.49176973663270473480224609375"><ele>1336.5999755859375</ele><time>2026-08-01T11:04:51.000Z</time></trkpt>
      <trkpt lat="49.572667144238948822021484375" lon="19.49169497005641460418701171875"><ele>1333.199951171875</ele><time>2026-08-01T11:05:38.000Z</time></trkpt>
      <trkpt lat="49.572453908622264862060546875" lon="19.491434209048748016357421875"><ele>1327</ele><time>2026-08-01T11:06:18.000Z</time></trkpt>
      <trkpt lat="49.57226774655282497406005859375" lon="19.49116473086178302764892578125"><ele>1321</ele><time>2026-08-01T11:06:56.000Z</time></trkpt>
      <trkpt lat="49.572134055197238922119140625" lon="19.491019807755947113037109375"><ele>1314.4000244140625</ele><time>2026-08-01T11:07:25.000Z</time></trkpt>
      <trkpt lat="49.5719441212713718414306640625" lon="19.49061714112758636474609375"><ele>1310.4000244140625</ele><time>2026-08-01T11:07:58.000Z</time></trkpt>
      <trkpt lat="49.571814201772212982177734375" lon="19.48998556472361087799072265625"><ele>1303.5999755859375</ele><time>2026-08-01T11:08:36.000Z</time></trkpt>
      <trkpt lat="49.5716292969882488250732421875" lon="19.48962413705885410308837890625"><ele>1296.5999755859375</ele><time>2026-08-01T11:09:10.000Z</time></trkpt>
      <trkpt lat="49.5715825259685516357421875" lon="19.4895457662642002105712890625"><ele>1292</ele><time>2026-08-01T11:09:43.000Z</time></trkpt>
      <trkpt lat="49.5713785104453563690185546875" lon="19.48931551538407802581787109375"><ele>1284.199951171875</ele><time>2026-08-01T11:10:28.000Z</time></trkpt>
      <trkpt lat="49.57118715159595012664794921875" lon="19.48915793560445308685302734375"><ele>1276.199951171875</ele><time>2026-08-01T11:11:10.000Z</time></trkpt>
      <trkpt lat="49.57100258208811283111572265625" lon="19.48897236026823520660400390625"><ele>1269.800048828125</ele><time>2026-08-01T11:11:44.000Z</time></trkpt>
      <trkpt lat="49.57088640891015529632568359375" lon="19.48881092481315135955810546875"><ele>1265.800048828125</ele><time>2026-08-01T11:12:21.000Z</time></trkpt>
      <trkpt lat="49.57072715274989604949951171875" lon="19.488646723330020904541015625"><ele>1258.5999755859375</ele><time>2026-08-01T11:13:01.000Z</time></trkpt>
      <trkpt lat="49.570587761700153350830078125" lon="19.4884450547397136688232421875"><ele>1252.4000244140625</ele><time>2026-08-01T11:13:37.000Z</time></trkpt>
      <trkpt lat="49.570486843585968017578125" lon="19.48806124739348888397216796875"><ele>1246.800048828125</ele><time>2026-08-01T11:14:40.000Z</time></trkpt>
      <trkpt lat="49.57052146084606647491455078125" lon="19.4873332791030406951904296875"><ele>1241.199951171875</ele><time>2026-08-01T11:15:26.000Z</time></trkpt>
      <trkpt lat="49.57082186825573444366455078125" lon="19.48696623556315898895263671875"><ele>1238</ele><time>2026-08-01T11:16:09.000Z</time></trkpt>
      <trkpt lat="49.5709731616079807281494140625" lon="19.48662660084664821624755859375"><ele>1235.199951171875</ele><time>2026-08-01T11:16:35.000Z</time></trkpt>
      <trkpt lat="49.57117524929344654083251953125" lon="19.48638201691210269927978515625"><ele>1230.4000244140625</ele><time>2026-08-01T11:17:04.000Z</time></trkpt>
      <trkpt lat="49.5712973736226558685302734375" lon="19.48606140911579132080078125"><ele>1223.800048828125</ele><time>2026-08-01T11:17:40.000Z</time></trkpt>
      <trkpt lat="49.5713583938777446746826171875" lon="19.4857876561582088470458984375"><ele>1218.4000244140625</ele><time>2026-08-01T11:18:16.000Z</time></trkpt>
      <trkpt lat="49.57145721651613712310791015625" lon="19.48548096232116222381591796875"><ele>1211.5999755859375</ele><time>2026-08-01T11:18:48.000Z</time></trkpt>
      <trkpt lat="49.571519829332828521728515625" lon="19.48538322933018207550048828125"><ele>1206.199951171875</ele><time>2026-08-01T11:19:16.000Z</time></trkpt>
      <trkpt lat="49.5716417022049427032470703125" lon="19.48514350689947605133056640625"><ele>1201</ele><time>2026-08-01T11:19:58.000Z</time></trkpt>
      <trkpt lat="49.57181529141962528228759765625" lon="19.48481460101902484893798828125"><ele>1195.800048828125</ele><time>2026-08-01T11:20:32.000Z</time></trkpt>
      <trkpt lat="49.5720212347805500030517578125" lon="19.48451888747513294219970703125"><ele>1191.800048828125</ele><time>2026-08-01T11:20:57.000Z</time></trkpt>
      <trkpt lat="49.57220035605132579803466796875" lon="19.4842235930263996124267578125"><ele>1187</ele><time>2026-08-01T11:21:24.000Z</time></trkpt>
      <trkpt lat="49.57249003462493419647216796875" lon="19.48387381620705127716064453125"><ele>1180.5999755859375</ele><time>2026-08-01T11:21:58.000Z</time></trkpt>
      <trkpt lat="49.57274283282458782196044921875" lon="19.483620934188365936279296875"><ele>1174</ele><time>2026-08-01T11:22:33.000Z</time></trkpt>
      <trkpt lat="49.572968222200870513916015625" lon="19.4832747615873813629150390625"><ele>1169</ele><time>2026-08-01T11:23:07.000Z</time></trkpt>
      <trkpt lat="49.57320987246930599212646484375" lon="19.48302556760609149932861328125"><ele>1163</ele><time>2026-08-01T11:23:35.000Z</time></trkpt>
      <trkpt lat="49.57323853857815265655517578125" lon="19.482672773301601409912109375"><ele>1157.4000244140625</ele><time>2026-08-01T11:24:06.000Z</time></trkpt>
      <trkpt lat="49.57329151220619678497314453125" lon="19.4822665862739086151123046875"><ele>1153.199951171875</ele><time>2026-08-01T11:24:34.000Z</time></trkpt>
      <trkpt lat="49.57321087829768657684326171875" lon="19.48171262629330158233642578125"><ele>1149.199951171875</ele><time>2026-08-01T11:25:11.000Z</time></trkpt>
      <trkpt lat="49.57306335680186748504638671875" lon="19.4812681339681148529052734375"><ele>1143.800048828125</ele><time>2026-08-01T11:25:47.000Z</time></trkpt>
      <trkpt lat="49.5730612613260746002197265625" lon="19.48087812401354312896728515625"><ele>1135.199951171875</ele><time>2026-08-01T11:26:26.000Z</time></trkpt>
      <trkpt lat="49.573018848896026611328125" lon="19.48046858422458171844482421875"><ele>1127.4000244140625</ele><time>2026-08-01T11:27:03.000Z</time></trkpt>
      <trkpt lat="49.5729429088532924652099609375" lon="19.48008771054446697235107421875"><ele>1121.4000244140625</ele><time>2026-08-01T11:27:38.000Z</time></trkpt>
      <trkpt lat="49.57290845923125743865966796875" lon="19.47969979606568813323974609375"><ele>1116</ele><time>2026-08-01T11:28:03.000Z</time></trkpt>
      <trkpt lat="49.5730364508926868438720703125" lon="19.47936183772981166839599609375"><ele>1111.5999755859375</ele><time>2026-08-01T11:28:25.000Z</time></trkpt>
      <trkpt lat="49.57315228879451751708984375" lon="19.4788591749966144561767578125"><ele>1107</ele><time>2026-08-01T11:28:59.000Z</time></trkpt>
      <trkpt lat="49.5730780251324176788330078125" lon="19.4786922074854373931884765625"><ele>1102.199951171875</ele><time>2026-08-01T11:29:33.000Z</time></trkpt>
      <trkpt lat="49.572927653789520263671875" lon="19.47852180339395999908447265625"><ele>1097.199951171875</ele><time>2026-08-01T11:30:40.000Z</time></trkpt>
      <trkpt lat="49.57275892607867717742919921875" lon="19.4782727770507335662841796875"><ele>1090.199951171875</ele><time>2026-08-01T11:31:10.000Z</time></trkpt>
      <trkpt lat="49.57278222776949405670166015625" lon="19.4782332144677639007568359375"><ele>1086.800048828125</ele><time>2026-08-01T11:32:04.000Z</time></trkpt>
      <trkpt lat="49.572709389030933380126953125" lon="19.47802877984941005706787109375"><ele>1078.4000244140625</ele><time>2026-08-01T11:33:17.000Z</time></trkpt>
      <trkpt lat="49.5725355483591556549072265625" lon="19.477586634457111358642578125"><ele>1071.4000244140625</ele><time>2026-08-01T11:33:49.000Z</time></trkpt>
      <trkpt lat="49.57240018062293529510498046875" lon="19.47730223648250102996826171875"><ele>1064.5999755859375</ele><time>2026-08-01T11:34:23.000Z</time></trkpt>
      <trkpt lat="49.5723447762429714202880859375" lon="19.4770278967916965484619140625"><ele>1060.800048828125</ele><time>2026-08-01T11:35:09.000Z</time></trkpt>
      <trkpt lat="49.57219415344297885894775390625" lon="19.47674877941608428955078125"><ele>1053.5999755859375</ele><time>2026-08-01T11:35:39.000Z</time></trkpt>
      <trkpt lat="49.5720762200653553009033203125" lon="19.4764609448611736297607421875"><ele>1047.800048828125</ele><time>2026-08-01T11:36:09.000Z</time></trkpt>
      <trkpt lat="49.57202618010342121124267578125" lon="19.4761233218014240264892578125"><ele>1042</ele><time>2026-08-01T11:36:41.000Z</time></trkpt>
      <trkpt lat="49.571851082146167755126953125" lon="19.47572459466755390167236328125"><ele>1036.4000244140625</ele><time>2026-08-01T11:37:19.000Z</time></trkpt>
      <trkpt lat="49.571785032749176025390625" lon="19.47530466131865978240966796875"><ele>1033</ele><time>2026-08-01T11:37:49.000Z</time></trkpt>
      <trkpt lat="49.57167715765535831451416015625" lon="19.47508488781750202178955078125"><ele>1030</ele><time>2026-08-01T11:38:07.000Z</time></trkpt>
      <trkpt lat="49.5715109445154666900634765625" lon="19.4748315028846263885498046875"><ele>1024.5999755859375</ele><time>2026-08-01T11:38:34.000Z</time></trkpt>
      <trkpt lat="49.5713845454156398773193359375" lon="19.4743289239704608917236328125"><ele>1021.4000244140625</ele><time>2026-08-01T11:39:13.000Z</time></trkpt>
      <trkpt lat="49.571282453835010528564453125" lon="19.473679326474666595458984375"><ele>1017.79998779296875</ele><time>2026-08-01T11:39:50.000Z</time></trkpt>
      <trkpt lat="49.571156390011310577392578125" lon="19.47343918494880199432373046875"><ele>1012.79998779296875</ele><time>2026-08-01T11:40:30.000Z</time></trkpt>
      <trkpt lat="49.570898897945880889892578125" lon="19.47328470647335052490234375"><ele>1007.79998779296875</ele><time>2026-08-01T11:40:58.000Z</time></trkpt>
      <trkpt lat="49.57066797651350498199462890625" lon="19.4730989634990692138671875"><ele>1002.5999755859375</ele><time>2026-08-01T11:41:27.000Z</time></trkpt>
      <trkpt lat="49.5703230611979961395263671875" lon="19.4728681258857250213623046875"><ele>997</ele><time>2026-08-01T11:42:04.000Z</time></trkpt>
      <trkpt lat="49.57006364129483699798583984375" lon="19.4727195985615253448486328125"><ele>991</ele><time>2026-08-01T11:42:36.000Z</time></trkpt>
      <trkpt lat="49.56984856165945529937744140625" lon="19.47261415421962738037109375"><ele>986.4000244140625</ele><time>2026-08-01T11:43:33.000Z</time></trkpt>
      <trkpt lat="49.569527618587017059326171875" lon="19.47253243066370487213134765625"><ele>981.20001220703125</ele><time>2026-08-01T11:44:13.000Z</time></trkpt>
      <trkpt lat="49.56919577904045581817626953125" lon="19.47236915118992328643798828125"><ele>976.20001220703125</ele><time>2026-08-01T11:44:48.000Z</time></trkpt>
      <trkpt lat="49.568961672484874725341796875" lon="19.472241662442684173583984375"><ele>968.20001220703125</ele><time>2026-08-01T11:45:24.000Z</time></trkpt>
      <trkpt lat="49.5687385462224483489990234375" lon="19.47219128720462322235107421875"><ele>962.5999755859375</ele><time>2026-08-01T11:45:52.000Z</time></trkpt>
      <trkpt lat="49.5684951357543468475341796875" lon="19.4721400737762451171875"><ele>958</ele><time>2026-08-01T11:46:18.000Z</time></trkpt>
      <trkpt lat="49.5680183731019496917724609375" lon="19.4720785506069660186767578125"><ele>954.79998779296875</ele><time>2026-08-01T11:47:19.000Z</time></trkpt>
      <trkpt lat="49.5676549337804317474365234375" lon="19.47198844514787197113037109375"><ele>952.20001220703125</ele><time>2026-08-01T11:47:46.000Z</time></trkpt>
      <trkpt lat="49.5672212541103363037109375" lon="19.47191149927675724029541015625"><ele>946.20001220703125</ele><time>2026-08-01T11:48:32.000Z</time></trkpt>
      <trkpt lat="49.5669025741517543792724609375" lon="19.47178543545305728912353515625"><ele>941.5999755859375</ele><time>2026-08-01T11:49:05.000Z</time></trkpt>
      <trkpt lat="49.56656771712005138397216796875" lon="19.4715716131031513214111328125"><ele>936.79998779296875</ele><time>2026-08-01T11:49:36.000Z</time></trkpt>
      <trkpt lat="49.56624752841889858245849609375" lon="19.47132141329348087310791015625"><ele>931.79998779296875</ele><time>2026-08-01T11:50:19.000Z</time></trkpt>
      <trkpt lat="49.56588023342192173004150390625" lon="19.4709580577909946441650390625"><ele>927.5999755859375</ele><time>2026-08-01T11:51:04.000Z</time></trkpt>
      <trkpt lat="49.5656422711908817291259765625" lon="19.4707049243152141571044921875"><ele>923.20001220703125</ele><time>2026-08-01T11:51:42.000Z</time></trkpt>
      <trkpt lat="49.56538117490708827972412109375" lon="19.47059302590787410736083984375"><ele>921</ele><time>2026-08-01T11:52:14.000Z</time></trkpt>
      <trkpt lat="49.56498789601027965545654296875" lon="19.470451287925243377685546875"><ele>916.79998779296875</ele><time>2026-08-01T11:52:45.000Z</time></trkpt>
      <trkpt lat="49.56478647887706756591796875" lon="19.47033100761473178863525390625"><ele>912.4000244140625</ele><time>2026-08-01T11:53:14.000Z</time></trkpt>
      <trkpt lat="49.56453443504869937896728515625" lon="19.470240734517574310302734375"><ele>906.79998779296875</ele><time>2026-08-01T11:53:44.000Z</time></trkpt>
      <trkpt lat="49.56421558745205402374267578125" lon="19.470173679292201995849609375"><ele>902.5999755859375</ele><time>2026-08-01T11:54:13.000Z</time></trkpt>
      <trkpt lat="49.56386120058596134185791015625" lon="19.47015565820038318634033203125"><ele>898.5999755859375</ele><time>2026-08-01T11:54:47.000Z</time></trkpt>
      <trkpt lat="49.563664980232715606689453125" lon="19.470504932105541229248046875"><ele>897.4000244140625</ele><time>2026-08-01T11:55:18.000Z</time></trkpt>
      <trkpt lat="49.56330212764441967010498046875" lon="19.47073987685143947601318359375"><ele>894.4000244140625</ele><time>2026-08-01T11:56:02.000Z</time></trkpt>
      <trkpt lat="49.56296416930854320526123046875" lon="19.47093986906111240386962890625"><ele>892.20001220703125</ele><time>2026-08-01T11:56:48.000Z</time></trkpt>
      <trkpt lat="49.5625912584364414215087890625" lon="19.4711744785308837890625"><ele>889.4000244140625</ele><time>2026-08-01T11:57:27.000Z</time></trkpt>
      <trkpt lat="49.56229294650256633758544921875" lon="19.47136223316192626953125"><ele>884.4000244140625</ele><time>2026-08-01T11:58:00.000Z</time></trkpt>
      <trkpt lat="49.56181786023080348968505859375" lon="19.47153867222368717193603515625"><ele>881</ele><time>2026-08-01T11:58:36.000Z</time></trkpt>
      <trkpt lat="49.56114697270095348358154296875" lon="19.47160740382969379425048828125"><ele>878.20001220703125</ele><time>2026-08-01T11:59:23.000Z</time></trkpt>
      <trkpt lat="49.560728631913661956787109375" lon="19.4716162048280239105224609375"><ele>875.79998779296875</ele><time>2026-08-01T11:59:56.000Z</time></trkpt>
      <trkpt lat="49.5601112209260463714599609375" lon="19.4719219766557216644287109375"><ele>872.5999755859375</ele><time>2026-08-01T12:00:49.000Z</time></trkpt>
      <trkpt lat="49.5596844144165515899658203125" lon="19.47209238074719905853271484375"><ele>870.5999755859375</ele><time>2026-08-01T12:01:29.000Z</time></trkpt>
      <trkpt lat="49.5590497367084026336669921875" lon="19.472260773181915283203125"><ele>867.20001220703125</ele><time>2026-08-01T12:02:18.000Z</time></trkpt>
      <trkpt lat="49.55850969068706035614013671875" lon="19.4723913632333278656005859375"><ele>864.5999755859375</ele><time>2026-08-01T12:03:07.000Z</time></trkpt>
      <trkpt lat="49.55787870101630687713623046875" lon="19.4722934626042842864990234375"><ele>863</ele><time>2026-08-01T12:03:53.000Z</time></trkpt>
      <trkpt lat="49.557299427688121795654296875" lon="19.4724731706082820892333984375"><ele>859.5999755859375</ele><time>2026-08-01T12:04:43.000Z</time></trkpt>
      <trkpt lat="49.5569039694964885711669921875" lon="19.47272286750376224517822265625"><ele>857</ele><time>2026-08-01T12:05:21.000Z</time></trkpt>
      <trkpt lat="49.55644589848816394805908203125" lon="19.47298773564398288726806640625"><ele>853</ele><time>2026-08-01T12:06:02.000Z</time></trkpt>
      <trkpt lat="49.55584558658301830291748046875" lon="19.47340817190706729888916015625"><ele>849.4000244140625</ele><time>2026-08-01T12:06:52.000Z</time></trkpt>
      <trkpt lat="49.555396400392055511474609375" lon="19.47345343418419361114501953125"><ele>846.4000244140625</ele><time>2026-08-01T12:07:28.000Z</time></trkpt>
      <trkpt lat="49.5545942522585391998291015625" lon="19.47357614524662494659423828125"><ele>843</ele><time>2026-08-01T12:08:29.000Z</time></trkpt>
      <trkpt lat="49.55413341522216796875" lon="19.47342686355113983154296875"><ele>842</ele><time>2026-08-01T12:09:13.000Z</time></trkpt>
      <trkpt lat="49.5537243783473968505859375" lon="19.47362207807600498199462890625"><ele>840.20001220703125</ele><time>2026-08-01T12:09:50.000Z</time></trkpt>
      <trkpt lat="49.55341969616711139678955078125" lon="19.4742015190422534942626953125"><ele>836.4000244140625</ele><time>2026-08-01T12:10:36.000Z</time></trkpt>
      <trkpt lat="49.55296673811972141265869140625" lon="19.47458549402654170989990234375"><ele>834.5999755859375</ele><time>2026-08-01T12:11:11.000Z</time></trkpt>
      <trkpt lat="49.5524273626506328582763671875" lon="19.4746600091457366943359375"><ele>832.79998779296875</ele><time>2026-08-01T12:11:47.000Z</time></trkpt>
      <trkpt lat="49.55183300189673900604248046875" lon="19.4747141562402248382568359375"><ele>831.5999755859375</ele><time>2026-08-01T12:12:32.000Z</time></trkpt>
      <trkpt lat="49.55141834914684295654296875" lon="19.4748744182288646697998046875"><ele>829.4000244140625</ele><time>2026-08-01T12:13:14.000Z</time></trkpt>
      <trkpt lat="49.55115708522498607635498046875" lon="19.47522067464888095855712890625"><ele>828</ele><time>2026-08-01T12:13:44.000Z</time></trkpt>
      <trkpt lat="49.55039508640766143798828125" lon="19.47532259859144687652587890625"><ele>825.79998779296875</ele><time>2026-08-01T12:14:33.000Z</time></trkpt>
      <trkpt lat="49.54997708089649677276611328125" lon="19.47540071792900562286376953125"><ele>825.4000244140625</ele><time>2026-08-01T12:15:15.000Z</time></trkpt>
      <trkpt lat="49.5494266413152217864990234375" lon="19.475637339055538177490234375"><ele>823</ele><time>2026-08-01T12:16:04.000Z</time></trkpt>
      <trkpt lat="49.54898600466549396514892578125" lon="19.475677572190761566162109375"><ele>820.5999755859375</ele><time>2026-08-01T12:16:39.000Z</time></trkpt>
      <trkpt lat="49.54826549626886844635009765625" lon="19.475860632956027984619140625"><ele>817.79998779296875</ele><time>2026-08-01T12:17:37.000Z</time></trkpt>
      <trkpt lat="49.547544233500957489013671875" lon="19.4760532490909099578857421875"><ele>814.79998779296875</ele><time>2026-08-01T12:18:36.000Z</time></trkpt>
      <trkpt lat="49.5469375513494014739990234375" lon="19.47619196958839893341064453125"><ele>812.4000244140625</ele><time>2026-08-01T12:19:21.000Z</time></trkpt>
      <trkpt lat="49.54627227969467639923095703125" lon="19.47643621824681758880615234375"><ele>809.4000244140625</ele><time>2026-08-01T12:20:17.000Z</time></trkpt>
      <trkpt lat="49.5457570441067218780517578125" lon="19.47668365202844142913818359375"><ele>806.5999755859375</ele><time>2026-08-01T12:21:07.000Z</time></trkpt>
      <trkpt lat="49.54501667059957981109619140625" lon="19.47720752097666263580322265625"><ele>804.79998779296875</ele><time>2026-08-01T12:22:08.000Z</time></trkpt>
      <trkpt lat="49.54412902705371379852294921875" lon="19.47763751260936260223388671875"><ele>803</ele><time>2026-08-01T12:23:17.000Z</time></trkpt>
      <trkpt lat="49.54363365657627582550048828125" lon="19.47788762860000133514404296875"><ele>800.79998779296875</ele><time>2026-08-01T12:23:57.000Z</time></trkpt>
      <trkpt lat="49.5429152436554431915283203125" lon="19.47821988724172115325927734375"><ele>799.4000244140625</ele><time>2026-08-01T12:24:57.000Z</time></trkpt>
      <trkpt lat="49.5425662212073802947998046875" lon="19.47798502631485462188720703125"><ele>797</ele><time>2026-08-01T12:25:34.000Z</time></trkpt>
      <trkpt lat="49.542018882930278778076171875" lon="19.47755168192088603973388671875"><ele>793.4000244140625</ele><time>2026-08-01T12:26:24.000Z</time></trkpt>
      <trkpt lat="49.5413018949329853057861328125" lon="19.477426707744598388671875"><ele>791.4000244140625</ele><time>2026-08-01T12:27:24.000Z</time></trkpt>
      <trkpt lat="49.54073653556406497955322265625" lon="19.4777054898440837860107421875"><ele>789</ele><time>2026-08-01T12:28:09.000Z</time></trkpt>
      <trkpt lat="49.5399943180382251739501953125" lon="19.47733459062874317169189453125"><ele>786.4000244140625</ele><time>2026-08-01T12:29:15.000Z</time></trkpt>
      <trkpt lat="49.53951872885227203369140625" lon="19.4766771979629993438720703125"><ele>784.79998779296875</ele><time>2026-08-01T12:30:01.000Z</time></trkpt>
      <trkpt lat="49.53901807777583599090576171875" lon="19.47612843476235866546630859375"><ele>784.20001220703125</ele><time>2026-08-01T12:30:51.000Z</time></trkpt>
      <trkpt lat="49.53851558268070220947265625" lon="19.4758745469152927398681640625"><ele>781.4000244140625</ele><time>2026-08-01T12:31:32.000Z</time></trkpt>
      <trkpt lat="49.53828147612512111663818359375" lon="19.47578226216137409210205078125"><ele>781.79998779296875</ele><time>2026-08-01T12:32:45.000Z</time></trkpt>
      <trkpt lat="49.53760958276689052581787109375" lon="19.4758336432278156280517578125"><ele>780.79998779296875</ele><time>2026-08-01T12:33:35.000Z</time></trkpt>
      <trkpt lat="49.53688790090382099151611328125" lon="19.47606540285050868988037109375"><ele>778.4000244140625</ele><time>2026-08-01T12:34:29.000Z</time></trkpt>
      <trkpt lat="49.53621718101203441619873046875" lon="19.476043023169040679931640625"><ele>776.20001220703125</ele><time>2026-08-01T12:35:16.000Z</time></trkpt>
      <trkpt lat="49.53523985110223293304443359375" lon="19.47554807178676128387451171875"><ele>776</ele><time>2026-08-01T12:36:33.000Z</time></trkpt>
      <trkpt lat="49.5344580709934234619140625" lon="19.47519921697676181793212890625"><ele>773.4000244140625</ele><time>2026-08-01T12:37:34.000Z</time></trkpt>
      <trkpt lat="49.5337504707276821136474609375" lon="19.4750276394188404083251953125"><ele>770.79998779296875</ele><time>2026-08-01T12:38:25.000Z</time></trkpt>
      <trkpt lat="49.533048570156097412109375" lon="19.474918842315673828125"><ele>769.20001220703125</ele><time>2026-08-01T12:39:17.000Z</time></trkpt>
      <trkpt lat="49.53244800679385662078857421875" lon="19.47487659752368927001953125"><ele>768</ele><time>2026-08-01T12:39:57.000Z</time></trkpt>
      <trkpt lat="49.5315865986049175262451171875" lon="19.47482722811400890350341796875"><ele>766.5999755859375</ele><time>2026-08-01T12:41:02.000Z</time></trkpt>
      <trkpt lat="49.530870616436004638671875" lon="19.474701918661594390869140625"><ele>766</ele><time>2026-08-01T12:41:58.000Z</time></trkpt>
      <trkpt lat="49.53012068755924701690673828125" lon="19.4746102206408977508544921875"><ele>764.5999755859375</ele><time>2026-08-01T12:42:50.000Z</time></trkpt>
      <trkpt lat="49.52983788214623928070068359375" lon="19.47450033389031887054443359375"><ele>763.5999755859375</ele><time>2026-08-01T12:43:32.000Z</time></trkpt>
      <trkpt lat="49.528970606625080108642578125" lon="19.47436789982020854949951171875"><ele>761</ele><time>2026-08-01T12:44:35.000Z</time></trkpt>
      <trkpt lat="49.528183378279209136962890625" lon="19.47429430671036243438720703125"><ele>759.4000244140625</ele><time>2026-08-01T12:45:37.000Z</time></trkpt>
      <trkpt lat="49.52750570140779018402099609375" lon="19.47427419014275074005126953125"><ele>757.4000244140625</ele><time>2026-08-01T12:46:41.000Z</time></trkpt>
      <trkpt lat="49.52749631367623805999755859375" lon="19.474269412457942962646484375"><ele>757.4000244140625</ele><time>2026-08-01T12:46:43.000Z</time></trkpt>
    </trkseg>
  </trk>
</gpx>
