<?xml version="1.0" encoding="UTF-8"?>
<gpx version="1.1" creator="mapy-pipeline (Babia Gora 01)" xmlns="http://www.topografix.com/GPX/1/1">
  <metadata>
    <name>Krowiarki – Schronisko PTTK – Przełęcz Brona – Diablak</name>
    <desc>Wejście na Diablaka — TYLKO PODEJŚCIE, bez drogi powrotnej. 9.3 km, przewyższenie +768 m. Wysokości z modelu terenu (DEM 25 m), wartości przybliżone.</desc>
    <link href="https://bgpn.gov.pl/turystyka-piesza"><text>Babiogorski Park Narodowy - szlaki</text></link>
  </metadata>
  <trk>
    <name>Krowiarki – Schronisko PTTK – Przełęcz Brona – Diablak (wejscie)</name>
    <desc>Wejście na Diablaka — TYLKO PODEJŚCIE, bez drogi powrotnej. 9.3 km, przewyższenie +768 m. Wysokości z modelu terenu (DEM 25 m), wartości przybliżone.</desc>
    <trkseg>
      <trkpt lat="49.587811" lon="19.581809"><ele>1022.5</ele></trkpt>
      <trkpt lat="49.587806" lon="19.581689"><ele>1024.4</ele></trkpt>
      <trkpt lat="49.587810" lon="19.581417"><ele>1024.4</ele></trkpt>
      <trkpt lat="49.587806" lon="19.581222"><ele>1024.4</ele></trkpt>
      <trkpt lat="49.587788" lon="19.580835"><ele>1026.5</ele></trkpt>
      <trkpt lat="49.587742" lon="19.580609"><ele>1026.5</ele></trkpt>
      <trkpt lat="49.587728" lon="19.580319"><ele>1030.0</ele></trkpt>
      <trkpt lat="49.587739" lon="19.580051"><ele>1032.0</ele></trkpt>
      <trkpt lat="49.587804" lon="19.579809"><ele>1032.0</ele></trkpt>
      <trkpt lat="49.587874" lon="19.579412"><ele>1032.3</ele></trkpt>
      <trkpt lat="49.588021" lon="19.578921"><ele>1032.3</ele></trkpt>
      <trkpt lat="49.588120" lon="19.578461"><ele>1034.7</ele></trkpt>
      <trkpt lat="49.588292" lon="19.577920"><ele>1037.4</ele></trkpt>
      <trkpt lat="49.588442" lon="19.577577"><ele>1037.4</ele></trkpt>
      <trkpt lat="49.588546" lon="19.577186"><ele>1040.9</ele></trkpt>
      <trkpt lat="49.588659" lon="19.576616"><ele>1043.5</ele></trkpt>
      <trkpt lat="49.588615" lon="19.576288"><ele>1043.5</ele></trkpt>
      <trkpt lat="49.588582" lon="19.575992"><ele>1043.5</ele></trkpt>
      <trkpt lat="49.588580" lon="19.575694"><ele>1043.5</ele></trkpt>
      <trkpt lat="49.588649" lon="19.575150"><ele>1043.5</ele></trkpt>
      <trkpt lat="49.588710" lon="19.574874"><ele>1043.5</ele></trkpt>
      <trkpt lat="49.588840" lon="19.574687"><ele>1043.5</ele></trkpt>
      <trkpt lat="49.589368" lon="19.574154"><ele>1043.5</ele></trkpt>
      <trkpt lat="49.589656" lon="19.573824"><ele>1045.7</ele></trkpt>
      <trkpt lat="49.590012" lon="19.573454"><ele>1046.8</ele></trkpt>
      <trkpt lat="49.590306" lon="19.572694"><ele>1046.8</ele></trkpt>
      <trkpt lat="49.590463" lon="19.572220"><ele>1049.9</ele></trkpt>
      <trkpt lat="49.590654" lon="19.571487"><ele>1049.9</ele></trkpt>
      <trkpt lat="49.590747" lon="19.570945"><ele>1052.5</ele></trkpt>
      <trkpt lat="49.590767" lon="19.570577"><ele>1054.6</ele></trkpt>
      <trkpt lat="49.590764" lon="19.570164"><ele>1054.6</ele></trkpt>
      <trkpt lat="49.590792" lon="19.569896"><ele>1057.1</ele></trkpt>
      <trkpt lat="49.590910" lon="19.569648"><ele>1057.1</ele></trkpt>
      <trkpt lat="49.591041" lon="19.569332"><ele>1057.1</ele></trkpt>
      <trkpt lat="49.591077" lon="19.569087"><ele>1057.1</ele></trkpt>
      <trkpt lat="49.591032" lon="19.568789"><ele>1056.8</ele></trkpt>
      <trkpt lat="49.590887" lon="19.568379"><ele>1056.8</ele></trkpt>
      <trkpt lat="49.590775" lon="19.568001"><ele>1056.3</ele></trkpt>
      <trkpt lat="49.590766" lon="19.567820"><ele>1054.7</ele></trkpt>
      <trkpt lat="49.590852" lon="19.567390"><ele>1054.7</ele></trkpt>
      <trkpt lat="49.590850" lon="19.567162"><ele>1053.5</ele></trkpt>
      <trkpt lat="49.590796" lon="19.566984"><ele>1053.5</ele></trkpt>
      <trkpt lat="49.590721" lon="19.566765"><ele>1053.5</ele></trkpt>
      <trkpt lat="49.590624" lon="19.566715"><ele>1053.5</ele></trkpt>
      <trkpt lat="49.590511" lon="19.566430"><ele>1055.6</ele></trkpt>
      <trkpt lat="49.590419" lon="19.566268"><ele>1055.6</ele></trkpt>
      <trkpt lat="49.590387" lon="19.566168"><ele>1057.0</ele></trkpt>
      <trkpt lat="49.590369" lon="19.566060"><ele>1057.0</ele></trkpt>
      <trkpt lat="49.590373" lon="19.565924"><ele>1058.1</ele></trkpt>
      <trkpt lat="49.590411" lon="19.565822"><ele>1058.8</ele></trkpt>
      <trkpt lat="49.590462" lon="19.565733"><ele>1058.8</ele></trkpt>
      <trkpt lat="49.590534" lon="19.565732"><ele>1059.6</ele></trkpt>
      <trkpt lat="49.590557" lon="19.565722"><ele>1060.1</ele></trkpt>
      <trkpt lat="49.590636" lon="19.565553"><ele>1060.1</ele></trkpt>
      <trkpt lat="49.590658" lon="19.565339"><ele>1060.6</ele></trkpt>
      <trkpt lat="49.590708" lon="19.565245"><ele>1060.9</ele></trkpt>
      <trkpt lat="49.590925" lon="19.565068"><ele>1060.9</ele></trkpt>
      <trkpt lat="49.590975" lon="19.565004"><ele>1061.7</ele></trkpt>
      <trkpt lat="49.591001" lon="19.564896"><ele>1061.7</ele></trkpt>
      <trkpt lat="49.590977" lon="19.564767"><ele>1061.7</ele></trkpt>
      <trkpt lat="49.590932" lon="19.564695"><ele>1061.7</ele></trkpt>
      <trkpt lat="49.590854" lon="19.564474"><ele>1058.9</ele></trkpt>
      <trkpt lat="49.590771" lon="19.564218"><ele>1058.9</ele></trkpt>
      <trkpt lat="49.590731" lon="19.564057"><ele>1058.9</ele></trkpt>
      <trkpt lat="49.590724" lon="19.563923"><ele>1058.9</ele></trkpt>
      <trkpt lat="49.590779" lon="19.563647"><ele>1058.9</ele></trkpt>
      <trkpt lat="49.590831" lon="19.563553"><ele>1058.9</ele></trkpt>
      <trkpt lat="49.590884" lon="19.563421"><ele>1058.9</ele></trkpt>
      <trkpt lat="49.591021" lon="19.563258"><ele>1060.6</ele></trkpt>
      <trkpt lat="49.591129" lon="19.563028"><ele>1060.6</ele></trkpt>
      <trkpt lat="49.591082" lon="19.562757"><ele>1060.6</ele></trkpt>
      <trkpt lat="49.591005" lon="19.562627"><ele>1060.6</ele></trkpt>
      <trkpt lat="49.590927" lon="19.562383"><ele>1062.3</ele></trkpt>
      <trkpt lat="49.590792" lon="19.562238"><ele>1062.3</ele></trkpt>
      <trkpt lat="49.590769" lon="19.562136"><ele>1062.3</ele></trkpt>
      <trkpt lat="49.590790" lon="19.562018"><ele>1062.4</ele></trkpt>
      <trkpt lat="49.590859" lon="19.561870"><ele>1062.4</ele></trkpt>
      <trkpt lat="49.590861" lon="19.561790"><ele>1068.7</ele></trkpt>
      <trkpt lat="49.590790" lon="19.561693"><ele>1069.9</ele></trkpt>
      <trkpt lat="49.590769" lon="19.561548"><ele>1069.9</ele></trkpt>
      <trkpt lat="49.590812" lon="19.561389"><ele>1069.9</ele></trkpt>
      <trkpt lat="49.590792" lon="19.561287"><ele>1069.9</ele></trkpt>
      <trkpt lat="49.590753" lon="19.561220"><ele>1069.9</ele></trkpt>
      <trkpt lat="49.590681" lon="19.561029"><ele>1067.5</ele></trkpt>
      <trkpt lat="49.590639" lon="19.560704"><ele>1067.5</ele></trkpt>
      <trkpt lat="49.590520" lon="19.560357"><ele>1065.8</ele></trkpt>
      <trkpt lat="49.590370" lon="19.560084"><ele>1065.8</ele></trkpt>
      <trkpt lat="49.590333" lon="19.559911"><ele>1065.8</ele></trkpt>
      <trkpt lat="49.590321" lon="19.559757"><ele>1065.8</ele></trkpt>
      <trkpt lat="49.590332" lon="19.559610"><ele>1066.9</ele></trkpt>
      <trkpt lat="49.590399" lon="19.559341"><ele>1066.9</ele></trkpt>
      <trkpt lat="49.590498" lon="19.559144"><ele>1068.2</ele></trkpt>
      <trkpt lat="49.590499" lon="19.558899"><ele>1068.2</ele></trkpt>
      <trkpt lat="49.590564" lon="19.558716"><ele>1068.2</ele></trkpt>
      <trkpt lat="49.590640" lon="19.558594"><ele>1068.2</ele></trkpt>
      <trkpt lat="49.590680" lon="19.558318"><ele>1068.2</ele></trkpt>
      <trkpt lat="49.590759" lon="19.558173"><ele>1068.2</ele></trkpt>
      <trkpt lat="49.590821" lon="19.558022"><ele>1068.2</ele></trkpt>
      <trkpt lat="49.590858" lon="19.557911"><ele>1068.5</ele></trkpt>
      <trkpt lat="49.590877" lon="19.557534"><ele>1068.5</ele></trkpt>
      <trkpt lat="49.590870" lon="19.557348"><ele>1073.0</ele></trkpt>
      <trkpt lat="49.590693" lon="19.556623"><ele>1073.0</ele></trkpt>
      <trkpt lat="49.590665" lon="19.556391"><ele>1073.4</ele></trkpt>
      <trkpt lat="49.590605" lon="19.556153"><ele>1073.9</ele></trkpt>
      <trkpt lat="49.590573" lon="19.555905"><ele>1073.9</ele></trkpt>
      <trkpt lat="49.590513" lon="19.555720"><ele>1074.6</ele></trkpt>
      <trkpt lat="49.590424" lon="19.555629"><ele>1074.6</ele></trkpt>
      <trkpt lat="49.590344" lon="19.555430"><ele>1074.6</ele></trkpt>
      <trkpt lat="49.590257" lon="19.555404"><ele>1075.6</ele></trkpt>
      <trkpt lat="49.590182" lon="19.555352"><ele>1075.6</ele></trkpt>
      <trkpt lat="49.590131" lon="19.555287"><ele>1075.6</ele></trkpt>
      <trkpt lat="49.590101" lon="19.555218"><ele>1079.0</ele></trkpt>
      <trkpt lat="49.590077" lon="19.555134"><ele>1081.0</ele></trkpt>
      <trkpt lat="49.590080" lon="19.555048"><ele>1081.0</ele></trkpt>
      <trkpt lat="49.590106" lon="19.554900"><ele>1081.0</ele></trkpt>
      <trkpt lat="49.590111" lon="19.554745"><ele>1081.0</ele></trkpt>
      <trkpt lat="49.590037" lon="19.554581"><ele>1081.0</ele></trkpt>
      <trkpt lat="49.590002" lon="19.554393"><ele>1076.9</ele></trkpt>
      <trkpt lat="49.589932" lon="19.554272"><ele>1076.9</ele></trkpt>
      <trkpt lat="49.589713" lon="19.554072"><ele>1075.7</ele></trkpt>
      <trkpt lat="49.589665" lon="19.553998"><ele>1072.7</ele></trkpt>
      <trkpt lat="49.589656" lon="19.553911"><ele>1072.7</ele></trkpt>
      <trkpt lat="49.589630" lon="19.553655"><ele>1070.6</ele></trkpt>
      <trkpt lat="49.589587" lon="19.553588"><ele>1070.6</ele></trkpt>
      <trkpt lat="49.589468" lon="19.553512"><ele>1070.6</ele></trkpt>
      <trkpt lat="49.589375" lon="19.553380"><ele>1070.6</ele></trkpt>
      <trkpt lat="49.589304" lon="19.553226"><ele>1074.4</ele></trkpt>
      <trkpt lat="49.589225" lon="19.553165"><ele>1074.4</ele></trkpt>
      <trkpt lat="49.588978" lon="19.553062"><ele>1076.5</ele></trkpt>
      <trkpt lat="49.588836" lon="19.552854"><ele>1077.3</ele></trkpt>
      <trkpt lat="49.588697" lon="19.552554"><ele>1077.3</ele></trkpt>
      <trkpt lat="49.588400" lon="19.552245"><ele>1079.1</ele></trkpt>
      <trkpt lat="49.588279" lon="19.552083"><ele>1081.2</ele></trkpt>
      <trkpt lat="49.588166" lon="19.551904"><ele>1081.2</ele></trkpt>
      <trkpt lat="49.588109" lon="19.551656"><ele>1084.7</ele></trkpt>
      <trkpt lat="49.588060" lon="19.551461"><ele>1084.7</ele></trkpt>
      <trkpt lat="49.588050" lon="19.551327"><ele>1086.9</ele></trkpt>
      <trkpt lat="49.588148" lon="19.551157"><ele>1087.7</ele></trkpt>
      <trkpt lat="49.588220" lon="19.551059"><ele>1087.7</ele></trkpt>
      <trkpt lat="49.588222" lon="19.550911"><ele>1087.7</ele></trkpt>
      <trkpt lat="49.588170" lon="19.550820"><ele>1089.7</ele></trkpt>
      <trkpt lat="49.588119" lon="19.550742"><ele>1089.7</ele></trkpt>
      <trkpt lat="49.588090" lon="19.550589"><ele>1090.0</ele></trkpt>
      <trkpt lat="49.588109" lon="19.550225"><ele>1090.4</ele></trkpt>
      <trkpt lat="49.588080" lon="19.550156"><ele>1090.4</ele></trkpt>
      <trkpt lat="49.587900" lon="19.549763"><ele>1091.9</ele></trkpt>
      <trkpt lat="49.587872" lon="19.549584"><ele>1092.4</ele></trkpt>
      <trkpt lat="49.587778" lon="19.549423"><ele>1092.4</ele></trkpt>
      <trkpt lat="49.587635" lon="19.549415"><ele>1092.4</ele></trkpt>
      <trkpt lat="49.587520" lon="19.549435"><ele>1093.6</ele></trkpt>
      <trkpt lat="49.587422" lon="19.549415"><ele>1093.6</ele></trkpt>
      <trkpt lat="49.587285" lon="19.549454"><ele>1093.9</ele></trkpt>
      <trkpt lat="49.586883" lon="19.549695"><ele>1094.0</ele></trkpt>
      <trkpt lat="49.586782" lon="19.549769"><ele>1094.0</ele></trkpt>
      <trkpt lat="49.586692" lon="19.549761"><ele>1095.4</ele></trkpt>
      <trkpt lat="49.586627" lon="19.549718"><ele>1095.4</ele></trkpt>
      <trkpt lat="49.586559" lon="19.549637"><ele>1097.9</ele></trkpt>
      <trkpt lat="49.586500" lon="19.549535"><ele>1097.9</ele></trkpt>
      <trkpt lat="49.586394" lon="19.549379"><ele>1097.9</ele></trkpt>
      <trkpt lat="49.586096" lon="19.548752"><ele>1097.9</ele></trkpt>
      <trkpt lat="49.585974" lon="19.548460"><ele>1095.2</ele></trkpt>
      <trkpt lat="49.585930" lon="19.548175"><ele>1095.2</ele></trkpt>
      <trkpt lat="49.585934" lon="19.548052"><ele>1092.8</ele></trkpt>
      <trkpt lat="49.585984" lon="19.547953"><ele>1092.4</ele></trkpt>
      <trkpt lat="49.586114" lon="19.547804"><ele>1092.4</ele></trkpt>
      <trkpt lat="49.586206" lon="19.547677"><ele>1092.4</ele></trkpt>
      <trkpt lat="49.586251" lon="19.547592"><ele>1092.8</ele></trkpt>
      <trkpt lat="49.586298" lon="19.547450"><ele>1092.8</ele></trkpt>
      <trkpt lat="49.586291" lon="19.547318"><ele>1092.9</ele></trkpt>
      <trkpt lat="49.586231" lon="19.547259"><ele>1094.3</ele></trkpt>
      <trkpt lat="49.586108" lon="19.547197"><ele>1094.3</ele></trkpt>
      <trkpt lat="49.585952" lon="19.547033"><ele>1094.4</ele></trkpt>
      <trkpt lat="49.585851" lon="19.546857"><ele>1094.4</ele></trkpt>
      <trkpt lat="49.585734" lon="19.546533"><ele>1095.4</ele></trkpt>
      <trkpt lat="49.585675" lon="19.546190"><ele>1097.6</ele></trkpt>
      <trkpt lat="49.585596" lon="19.546081"><ele>1097.6</ele></trkpt>
      <trkpt lat="49.585489" lon="19.546029"><ele>1102.5</ele></trkpt>
      <trkpt lat="49.585399" lon="19.545977"><ele>1108.5</ele></trkpt>
      <trkpt lat="49.585376" lon="19.545832"><ele>1108.5</ele></trkpt>
      <trkpt lat="49.585304" lon="19.545649"><ele>1117.0</ele></trkpt>
      <trkpt lat="49.585236" lon="19.545464"><ele>1121.8</ele></trkpt>
      <trkpt lat="49.585145" lon="19.545362"><ele>1121.8</ele></trkpt>
      <trkpt lat="49.584987" lon="19.545016"><ele>1124.8</ele></trkpt>
      <trkpt lat="49.584919" lon="19.544901"><ele>1126.1</ele></trkpt>
      <trkpt lat="49.584870" lon="19.544729"><ele>1126.1</ele></trkpt>
      <trkpt lat="49.584754" lon="19.544471"><ele>1127.9</ele></trkpt>
      <trkpt lat="49.584713" lon="19.544221"><ele>1127.9</ele></trkpt>
      <trkpt lat="49.584610" lon="19.543921"><ele>1127.9</ele></trkpt>
      <trkpt lat="49.584515" lon="19.543670"><ele>1127.9</ele></trkpt>
      <trkpt lat="49.584402" lon="19.543424"><ele>1127.9</ele></trkpt>
      <trkpt lat="49.584263" lon="19.543042"><ele>1119.8</ele></trkpt>
      <trkpt lat="49.584170" lon="19.542881"><ele>1119.8</ele></trkpt>
      <trkpt lat="49.584084" lon="19.542613"><ele>1119.8</ele></trkpt>
      <trkpt lat="49.584037" lon="19.542355"><ele>1119.8</ele></trkpt>
      <trkpt lat="49.584014" lon="19.542183"><ele>1124.2</ele></trkpt>
      <trkpt lat="49.584026" lon="19.541980"><ele>1124.2</ele></trkpt>
      <trkpt lat="49.584076" lon="19.541802"><ele>1129.6</ele></trkpt>
      <trkpt lat="49.584137" lon="19.541651"><ele>1132.7</ele></trkpt>
      <trkpt lat="49.584205" lon="19.541489"><ele>1132.7</ele></trkpt>
      <trkpt lat="49.584179" lon="19.541345"><ele>1133.0</ele></trkpt>
      <trkpt lat="49.584161" lon="19.541129"><ele>1134.7</ele></trkpt>
      <trkpt lat="49.584142" lon="19.540967"><ele>1134.7</ele></trkpt>
      <trkpt lat="49.584058" lon="19.540772"><ele>1139.5</ele></trkpt>
      <trkpt lat="49.584000" lon="19.540609"><ele>1140.1</ele></trkpt>
      <trkpt lat="49.584026" lon="19.540464"><ele>1140.1</ele></trkpt>
      <trkpt lat="49.584165" lon="19.540209"><ele>1142.9</ele></trkpt>
      <trkpt lat="49.584205" lon="19.540137"><ele>1146.2</ele></trkpt>
      <trkpt lat="49.584262" lon="19.540080"><ele>1146.2</ele></trkpt>
      <trkpt lat="49.584458" lon="19.539922"><ele>1150.1</ele></trkpt>
      <trkpt lat="49.584554" lon="19.539781"><ele>1150.1</ele></trkpt>
      <trkpt lat="49.584553" lon="19.539588"><ele>1153.4</ele></trkpt>
      <trkpt lat="49.584486" lon="19.539288"><ele>1153.6</ele></trkpt>
      <trkpt lat="49.584324" lon="19.538887"><ele>1153.6</ele></trkpt>
      <trkpt lat="49.584277" lon="19.538650"><ele>1154.6</ele></trkpt>
      <trkpt lat="49.584278" lon="19.538526"><ele>1155.6</ele></trkpt>
      <trkpt lat="49.584280" lon="19.538393"><ele>1155.6</ele></trkpt>
      <trkpt lat="49.584320" lon="19.538297"><ele>1157.2</ele></trkpt>
      <trkpt lat="49.584389" lon="19.538265"><ele>1160.3</ele></trkpt>
      <trkpt lat="49.584620" lon="19.538235"><ele>1160.3</ele></trkpt>
      <trkpt lat="49.584744" lon="19.538149"><ele>1164.7</ele></trkpt>
      <trkpt lat="49.584784" lon="19.537952"><ele>1164.7</ele></trkpt>
      <trkpt lat="49.584805" lon="19.537807"><ele>1164.7</ele></trkpt>
      <trkpt lat="49.584827" lon="19.537633"><ele>1164.7</ele></trkpt>
      <trkpt lat="49.584811" lon="19.537544"><ele>1165.2</ele></trkpt>
      <trkpt lat="49.584737" lon="19.537490"><ele>1165.2</ele></trkpt>
      <trkpt lat="49.584552" lon="19.537089"><ele>1165.2</ele></trkpt>
      <trkpt lat="49.584500" lon="19.536894"><ele>1165.2</ele></trkpt>
      <trkpt lat="49.584484" lon="19.536693"><ele>1165.2</ele></trkpt>
      <trkpt lat="49.584469" lon="19.536472"><ele>1169.5</ele></trkpt>
      <trkpt lat="49.584526" lon="19.536320"><ele>1169.5</ele></trkpt>
      <trkpt lat="49.584606" lon="19.536212"><ele>1171.4</ele></trkpt>
      <trkpt lat="49.584615" lon="19.536116"><ele>1171.4</ele></trkpt>
      <trkpt lat="49.584591" lon="19.536024"><ele>1171.4</ele></trkpt>
      <trkpt lat="49.584544" lon="19.535830"><ele>1171.8</ele></trkpt>
      <trkpt lat="49.584515" lon="19.535540"><ele>1171.8</ele></trkpt>
      <trkpt lat="49.584497" lon="19.535423"><ele>1171.8</ele></trkpt>
      <trkpt lat="49.584447" lon="19.535287"><ele>1171.8</ele></trkpt>
      <trkpt lat="49.584342" lon="19.535143"><ele>1176.3</ele></trkpt>
      <trkpt lat="49.584263" lon="19.535078"><ele>1176.3</ele></trkpt>
      <trkpt lat="49.584145" lon="19.535027"><ele>1180.3</ele></trkpt>
      <trkpt lat="49.584080" lon="19.534911"><ele>1180.3</ele></trkpt>
      <trkpt lat="49.583981" lon="19.534645"><ele>1180.3</ele></trkpt>
      <trkpt lat="49.583859" lon="19.534419"><ele>1180.3</ele></trkpt>
      <trkpt lat="49.583584" lon="19.534023"><ele>1180.3</ele></trkpt>
      <trkpt lat="49.582950" lon="19.533378"><ele>1176.9</ele></trkpt>
      <trkpt lat="49.582894" lon="19.533254"><ele>1176.9</ele></trkpt>
      <trkpt lat="49.582878" lon="19.533172"><ele>1176.9</ele></trkpt>
      <trkpt lat="49.582814" lon="19.533114"><ele>1176.9</ele></trkpt>
      <trkpt lat="49.582691" lon="19.533111"><ele>1178.3</ele></trkpt>
      <trkpt lat="49.582631" lon="19.533050"><ele>1178.3</ele></trkpt>
      <trkpt lat="49.582379" lon="19.532790"><ele>1182.8</ele></trkpt>
      <trkpt lat="49.582268" lon="19.532593"><ele>1185.9</ele></trkpt>
      <trkpt lat="49.581961" lon="19.532089"><ele>1185.9</ele></trkpt>
      <trkpt lat="49.581903" lon="19.531988"><ele>1186.4</ele></trkpt>
      <trkpt lat="49.581868" lon="19.531886"><ele>1188.2</ele></trkpt>
      <trkpt lat="49.581871" lon="19.531752"><ele>1188.2</ele></trkpt>
      <trkpt lat="49.581841" lon="19.531579"><ele>1188.4</ele></trkpt>
      <trkpt lat="49.581812" lon="19.531275"><ele>1188.4</ele></trkpt>
      <trkpt lat="49.581856" lon="19.531053"><ele>1188.4</ele></trkpt>
      <trkpt lat="49.581975" lon="19.530870"><ele>1188.5</ele></trkpt>
      <trkpt lat="49.582101" lon="19.530735"><ele>1193.0</ele></trkpt>
      <trkpt lat="49.582118" lon="19.530595"><ele>1193.0</ele></trkpt>
      <trkpt lat="49.582050" lon="19.530371"><ele>1197.1</ele></trkpt>
      <trkpt lat="49.582045" lon="19.530286"><ele>1197.1</ele></trkpt>
      <trkpt lat="49.582103" lon="19.530105"><ele>1197.8</ele></trkpt>
      <trkpt lat="49.582361" lon="19.529656"><ele>1198.8</ele></trkpt>
      <trkpt lat="49.582426" lon="19.529480"><ele>1198.8</ele></trkpt>
      <trkpt lat="49.582422" lon="19.529270"><ele>1198.9</ele></trkpt>
      <trkpt lat="49.582333" lon="19.529045"><ele>1201.6</ele></trkpt>
      <trkpt lat="49.582174" lon="19.528575"><ele>1201.6</ele></trkpt>
      <trkpt lat="49.582122" lon="19.528414"><ele>1205.6</ele></trkpt>
      <trkpt lat="49.582015" lon="19.528372"><ele>1209.0</ele></trkpt>
      <trkpt lat="49.581671" lon="19.528403"><ele>1209.0</ele></trkpt>
      <trkpt lat="49.581478" lon="19.528373"><ele>1209.0</ele></trkpt>
      <trkpt lat="49.581433" lon="19.528295"><ele>1210.6</ele></trkpt>
      <trkpt lat="49.581437" lon="19.528180"><ele>1210.6</ele></trkpt>
      <trkpt lat="49.581515" lon="19.527962"><ele>1212.9</ele></trkpt>
      <trkpt lat="49.581609" lon="19.527764"><ele>1212.9</ele></trkpt>
      <trkpt lat="49.581712" lon="19.527610"><ele>1212.9</ele></trkpt>
      <trkpt lat="49.581787" lon="19.527512"><ele>1212.9</ele></trkpt>
      <trkpt lat="49.581949" lon="19.527464"><ele>1212.9</ele></trkpt>
      <trkpt lat="49.582133" lon="19.527153"><ele>1212.6</ele></trkpt>
      <trkpt lat="49.582293" lon="19.527016"><ele>1212.6</ele></trkpt>
      <trkpt lat="49.582356" lon="19.526997"><ele>1212.6</ele></trkpt>
      <trkpt lat="49.582404" lon="19.526898"><ele>1212.6</ele></trkpt>
      <trkpt lat="49.582393" lon="19.526771"><ele>1212.6</ele></trkpt>
      <trkpt lat="49.582267" lon="19.526454"><ele>1212.6</ele></trkpt>
      <trkpt lat="49.582275" lon="19.526210"><ele>1214.3</ele></trkpt>
      <trkpt lat="49.582296" lon="19.525979"><ele>1214.4</ele></trkpt>
      <trkpt lat="49.582326" lon="19.525825"><ele>1214.4</ele></trkpt>
      <trkpt lat="49.582419" lon="19.525637"><ele>1214.3</ele></trkpt>
      <trkpt lat="49.582580" lon="19.525403"><ele>1213.1</ele></trkpt>
      <trkpt lat="49.582777" lon="19.525213"><ele>1213.1</ele></trkpt>
      <trkpt lat="49.582803" lon="19.525084"><ele>1214.4</ele></trkpt>
      <trkpt lat="49.582791" lon="19.524966"><ele>1214.5</ele></trkpt>
      <trkpt lat="49.582734" lon="19.524803"><ele>1214.5</ele></trkpt>
      <trkpt lat="49.582641" lon="19.524544"><ele>1214.5</ele></trkpt>
      <trkpt lat="49.582635" lon="19.524446"><ele>1214.5</ele></trkpt>
      <trkpt lat="49.582650" lon="19.524376"><ele>1217.0</ele></trkpt>
      <trkpt lat="49.582716" lon="19.524371"><ele>1217.9</ele></trkpt>
      <trkpt lat="49.582863" lon="19.524472"><ele>1217.9</ele></trkpt>
      <trkpt lat="49.583080" lon="19.524687"><ele>1217.9</ele></trkpt>
      <trkpt lat="49.583153" lon="19.524714"><ele>1220.5</ele></trkpt>
      <trkpt lat="49.583201" lon="19.524710"><ele>1220.5</ele></trkpt>
      <trkpt lat="49.583245" lon="19.524628"><ele>1224.5</ele></trkpt>
      <trkpt lat="49.583332" lon="19.524349"><ele>1229.5</ele></trkpt>
      <trkpt lat="49.583421" lon="19.524145"><ele>1229.5</ele></trkpt>
      <trkpt lat="49.583504" lon="19.523923"><ele>1229.5</ele></trkpt>
      <trkpt lat="49.583552" lon="19.523753"><ele>1229.5</ele></trkpt>
      <trkpt lat="49.583617" lon="19.523462"><ele>1229.5</ele></trkpt>
      <trkpt lat="49.583636" lon="19.523446"><ele>1228.8</ele></trkpt>
      <trkpt lat="49.583669" lon="19.523345"><ele>1226.3</ele></trkpt>
      <trkpt lat="49.583650" lon="19.523235"><ele>1226.3</ele></trkpt>
      <trkpt lat="49.583666" lon="19.523111"><ele>1226.2</ele></trkpt>
      <trkpt lat="49.583713" lon="19.523003"><ele>1226.2</ele></trkpt>
      <trkpt lat="49.583759" lon="19.522941"><ele>1226.2</ele></trkpt>
      <trkpt lat="49.583823" lon="19.522907"><ele>1226.3</ele></trkpt>
      <trkpt lat="49.583914" lon="19.522716"><ele>1226.3</ele></trkpt>
      <trkpt lat="49.583970" lon="19.522547"><ele>1230.3</ele></trkpt>
      <trkpt lat="49.583974" lon="19.522328"><ele>1230.3</ele></trkpt>
      <trkpt lat="49.584053" lon="19.522152"><ele>1230.3</ele></trkpt>
      <trkpt lat="49.584196" lon="19.521953"><ele>1230.3</ele></trkpt>
      <trkpt lat="49.584308" lon="19.521732"><ele>1226.3</ele></trkpt>
      <trkpt lat="49.584368" lon="19.521534"><ele>1226.3</ele></trkpt>
      <trkpt lat="49.584419" lon="19.521440"><ele>1226.3</ele></trkpt>
      <trkpt lat="49.584502" lon="19.521384"><ele>1226.3</ele></trkpt>
      <trkpt lat="49.584552" lon="19.521325"><ele>1226.3</ele></trkpt>
      <trkpt lat="49.584687" lon="19.521055"><ele>1222.3</ele></trkpt>
      <trkpt lat="49.584752" lon="19.520996"><ele>1222.3</ele></trkpt>
      <trkpt lat="49.584790" lon="19.520862"><ele>1222.3</ele></trkpt>
      <trkpt lat="49.584903" lon="19.520717"><ele>1221.5</ele></trkpt>
      <trkpt lat="49.584979" lon="19.520571"><ele>1215.0</ele></trkpt>
      <trkpt lat="49.585003" lon="19.520516"><ele>1215.0</ele></trkpt>
      <trkpt lat="49.585145" lon="19.520493"><ele>1213.2</ele></trkpt>
      <trkpt lat="49.585216" lon="19.520459"><ele>1213.2</ele></trkpt>
      <trkpt lat="49.585307" lon="19.520392"><ele>1213.2</ele></trkpt>
      <trkpt lat="49.585372" lon="19.520305"><ele>1213.2</ele></trkpt>
      <trkpt lat="49.585487" lon="19.520091"><ele>1213.2</ele></trkpt>
      <trkpt lat="49.585567" lon="19.519952"><ele>1215.9</ele></trkpt>
      <trkpt lat="49.585688" lon="19.519796"><ele>1215.9</ele></trkpt>
      <trkpt lat="49.585800" lon="19.519756"><ele>1215.9</ele></trkpt>
      <trkpt lat="49.585912" lon="19.519741"><ele>1215.9</ele></trkpt>
      <trkpt lat="49.586024" lon="19.519685"><ele>1214.8</ele></trkpt>
      <trkpt lat="49.586093" lon="19.519646"><ele>1214.8</ele></trkpt>
      <trkpt lat="49.586222" lon="19.519629"><ele>1214.6</ele></trkpt>
      <trkpt lat="49.586386" lon="19.519620"><ele>1213.6</ele></trkpt>
      <trkpt lat="49.586488" lon="19.519565"><ele>1213.6</ele></trkpt>
      <trkpt lat="49.586560" lon="19.519514"><ele>1213.2</ele></trkpt>
      <trkpt lat="49.586603" lon="19.519493"><ele>1213.2</ele></trkpt>
      <trkpt lat="49.586653" lon="19.519420"><ele>1213.2</ele></trkpt>
      <trkpt lat="49.586653" lon="19.519253"><ele>1213.0</ele></trkpt>
      <trkpt lat="49.586615" lon="19.519123"><ele>1213.0</ele></trkpt>
      <trkpt lat="49.586610" lon="19.518949"><ele>1210.8</ele></trkpt>
      <trkpt lat="49.586590" lon="19.518849"><ele>1209.2</ele></trkpt>
      <trkpt lat="49.586571" lon="19.518637"><ele>1209.2</ele></trkpt>
      <trkpt lat="49.586603" lon="19.518479"><ele>1208.0</ele></trkpt>
      <trkpt lat="49.586675" lon="19.518381"><ele>1206.1</ele></trkpt>
      <trkpt lat="49.586737" lon="19.518259"><ele>1206.1</ele></trkpt>
      <trkpt lat="49.586769" lon="19.518108"><ele>1206.1</ele></trkpt>
      <trkpt lat="49.586808" lon="19.517973"><ele>1206.1</ele></trkpt>
      <trkpt lat="49.586912" lon="19.517803"><ele>1206.1</ele></trkpt>
      <trkpt lat="49.586975" lon="19.517736"><ele>1204.6</ele></trkpt>
      <trkpt lat="49.587052" lon="19.517649"><ele>1204.6</ele></trkpt>
      <trkpt lat="49.587117" lon="19.517493"><ele>1204.6</ele></trkpt>
      <trkpt lat="49.587156" lon="19.517332"><ele>1204.3</ele></trkpt>
      <trkpt lat="49.587167" lon="19.517225"><ele>1201.2</ele></trkpt>
      <trkpt lat="49.587205" lon="19.517112"><ele>1201.2</ele></trkpt>
      <trkpt lat="49.587258" lon="19.517066"><ele>1201.2</ele></trkpt>
      <trkpt lat="49.587307" lon="19.517044"><ele>1201.2</ele></trkpt>
      <trkpt lat="49.587345" lon="19.516953"><ele>1201.2</ele></trkpt>
      <trkpt lat="49.587386" lon="19.516778"><ele>1205.8</ele></trkpt>
      <trkpt lat="49.587426" lon="19.516634"><ele>1205.8</ele></trkpt>
      <trkpt lat="49.587535" lon="19.516719"><ele>1209.4</ele></trkpt>
      <trkpt lat="49.587582" lon="19.516775"><ele>1209.7</ele></trkpt>
      <trkpt lat="49.587676" lon="19.516855"><ele>1209.7</ele></trkpt>
      <trkpt lat="49.587582" lon="19.516775"><ele>1209.7</ele></trkpt>
      <trkpt lat="49.587535" lon="19.516719"><ele>1209.4</ele></trkpt>
      <trkpt lat="49.587426" lon="19.516634"><ele>1209.4</ele></trkpt>
      <trkpt lat="49.587243" lon="19.516501"><ele>1208.1</ele></trkpt>
      <trkpt lat="49.587031" lon="19.516343"><ele>1207.9</ele></trkpt>
      <trkpt lat="49.586916" lon="19.516211"><ele>1207.9</ele></trkpt>
      <trkpt lat="49.586725" lon="19.515916"><ele>1206.7</ele></trkpt>
      <trkpt lat="49.586514" lon="19.515745"><ele>1205.2</ele></trkpt>
      <trkpt lat="49.586382" lon="19.515704"><ele>1205.2</ele></trkpt>
      <trkpt lat="49.586149" lon="19.515713"><ele>1204.9</ele></trkpt>
      <trkpt lat="49.585763" lon="19.515713"><ele>1204.9</ele></trkpt>
      <trkpt lat="49.585636" lon="19.515726"><ele>1204.9</ele></trkpt>
      <trkpt lat="49.585531" lon="19.515771"><ele>1204.9</ele></trkpt>
      <trkpt lat="49.585324" lon="19.515971"><ele>1204.9</ele></trkpt>
      <trkpt lat="49.585107" lon="19.516034"><ele>1211.1</ele></trkpt>
      <trkpt lat="49.584911" lon="19.515940"><ele>1218.0</ele></trkpt>
      <trkpt lat="49.584742" lon="19.515836"><ele>1218.0</ele></trkpt>
      <trkpt lat="49.584497" lon="19.515624"><ele>1224.8</ele></trkpt>
      <trkpt lat="49.584132" lon="19.515396"><ele>1230.6</ele></trkpt>
      <trkpt lat="49.584089" lon="19.515294"><ele>1230.6</ele></trkpt>
      <trkpt lat="49.584090" lon="19.515090"><ele>1236.4</ele></trkpt>
      <trkpt lat="49.584067" lon="19.514838"><ele>1240.7</ele></trkpt>
      <trkpt lat="49.584111" lon="19.514617"><ele>1240.7</ele></trkpt>
      <trkpt lat="49.584088" lon="19.514498"><ele>1244.2</ele></trkpt>
      <trkpt lat="49.584018" lon="19.514275"><ele>1247.7</ele></trkpt>
      <trkpt lat="49.584066" lon="19.513932"><ele>1247.7</ele></trkpt>
      <trkpt lat="49.584059" lon="19.513725"><ele>1252.0</ele></trkpt>
      <trkpt lat="49.584043" lon="19.513488"><ele>1255.1</ele></trkpt>
      <trkpt lat="49.584021" lon="19.513359"><ele>1255.1</ele></trkpt>
      <trkpt lat="49.583940" lon="19.513303"><ele>1257.5</ele></trkpt>
      <trkpt lat="49.583908" lon="19.513231"><ele>1257.5</ele></trkpt>
      <trkpt lat="49.583880" lon="19.513054"><ele>1260.9</ele></trkpt>
      <trkpt lat="49.583876" lon="19.512978"><ele>1264.8</ele></trkpt>
      <trkpt lat="49.583858" lon="19.512923"><ele>1264.8</ele></trkpt>
      <trkpt lat="49.583832" lon="19.512840"><ele>1269.0</ele></trkpt>
      <trkpt lat="49.583842" lon="19.512756"><ele>1274.6</ele></trkpt>
      <trkpt lat="49.583880" lon="19.512625"><ele>1274.6</ele></trkpt>
      <trkpt lat="49.583894" lon="19.512495"><ele>1281.5</ele></trkpt>
      <trkpt lat="49.583883" lon="19.512415"><ele>1286.5</ele></trkpt>
      <trkpt lat="49.583866" lon="19.512336"><ele>1286.5</ele></trkpt>
      <trkpt lat="49.583826" lon="19.512183"><ele>1293.2</ele></trkpt>
      <trkpt lat="49.583812" lon="19.512017"><ele>1300.1</ele></trkpt>
      <trkpt lat="49.583785" lon="19.511944"><ele>1300.1</ele></trkpt>
      <trkpt lat="49.583746" lon="19.511705"><ele>1305.2</ele></trkpt>
      <trkpt lat="49.583670" lon="19.511607"><ele>1306.6</ele></trkpt>
      <trkpt lat="49.583590" lon="19.511556"><ele>1306.6</ele></trkpt>
      <trkpt lat="49.583567" lon="19.511540"><ele>1309.7</ele></trkpt>
      <trkpt lat="49.583514" lon="19.511527"><ele>1309.7</ele></trkpt>
      <trkpt lat="49.583438" lon="19.511543"><ele>1315.4</ele></trkpt>
      <trkpt lat="49.583396" lon="19.511570"><ele>1316.9</ele></trkpt>
      <trkpt lat="49.583359" lon="19.511573"><ele>1316.9</ele></trkpt>
      <trkpt lat="49.583259" lon="19.511549"><ele>1317.7</ele></trkpt>
      <trkpt lat="49.583092" lon="19.511485"><ele>1319.0</ele></trkpt>
      <trkpt lat="49.582948" lon="19.511438"><ele>1319.0</ele></trkpt>
      <trkpt lat="49.582915" lon="19.511424"><ele>1319.8</ele></trkpt>
      <trkpt lat="49.582834" lon="19.511416"><ele>1321.3</ele></trkpt>
      <trkpt lat="49.582759" lon="19.511396"><ele>1321.3</ele></trkpt>
      <trkpt lat="49.582680" lon="19.511327"><ele>1326.6</ele></trkpt>
      <trkpt lat="49.582593" lon="19.511278"><ele>1332.9</ele></trkpt>
      <trkpt lat="49.582543" lon="19.511225"><ele>1332.9</ele></trkpt>
      <trkpt lat="49.582447" lon="19.511026"><ele>1338.7</ele></trkpt>
      <trkpt lat="49.582373" lon="19.510968"><ele>1347.6</ele></trkpt>
      <trkpt lat="49.582304" lon="19.510907"><ele>1347.6</ele></trkpt>
      <trkpt lat="49.582298" lon="19.510863"><ele>1358.2</ele></trkpt>
      <trkpt lat="49.582295" lon="19.510843"><ele>1365.8</ele></trkpt>
      <trkpt lat="49.582294" lon="19.510799"><ele>1365.8</ele></trkpt>
      <trkpt lat="49.582278" lon="19.510760"><ele>1372.8</ele></trkpt>
      <trkpt lat="49.582182" lon="19.510670"><ele>1372.8</ele></trkpt>
      <trkpt lat="49.582137" lon="19.510653"><ele>1384.2</ele></trkpt>
      <trkpt lat="49.582092" lon="19.510641"><ele>1394.1</ele></trkpt>
      <trkpt lat="49.582045" lon="19.510626"><ele>1394.1</ele></trkpt>
      <trkpt lat="49.582029" lon="19.510616"><ele>1400.7</ele></trkpt>
      <trkpt lat="49.582013" lon="19.510555"><ele>1404.8</ele></trkpt>
      <trkpt lat="49.581969" lon="19.510508"><ele>1404.8</ele></trkpt>
      <trkpt lat="49.581907" lon="19.510481"><ele>1407.6</ele></trkpt>
      <trkpt lat="49.581873" lon="19.510473"><ele>1410.5</ele></trkpt>
      <trkpt lat="49.581842" lon="19.510479"><ele>1410.5</ele></trkpt>
      <trkpt lat="49.581826" lon="19.510499"><ele>1413.5</ele></trkpt>
      <trkpt lat="49.581789" lon="19.510601"><ele>1416.4</ele></trkpt>
      <trkpt lat="49.581729" lon="19.510586"><ele>1416.4</ele></trkpt>
      <trkpt lat="49.581706" lon="19.510587"><ele>1418.7</ele></trkpt>
      <trkpt lat="49.581681" lon="19.510569"><ele>1420.5</ele></trkpt>
      <trkpt lat="49.581653" lon="19.510555"><ele>1420.5</ele></trkpt>
      <trkpt lat="49.581620" lon="19.510578"><ele>1422.5</ele></trkpt>
      <trkpt lat="49.581607" lon="19.510569"><ele>1422.5</ele></trkpt>
      <trkpt lat="49.581588" lon="19.510423"><ele>1425.3</ele></trkpt>
      <trkpt lat="49.581580" lon="19.510309"><ele>1428.1</ele></trkpt>
      <trkpt lat="49.581558" lon="19.510242"><ele>1428.1</ele></trkpt>
      <trkpt lat="49.581515" lon="19.510188"><ele>1431.5</ele></trkpt>
      <trkpt lat="49.581435" lon="19.510256"><ele>1435.6</ele></trkpt>
      <trkpt lat="49.581298" lon="19.510381"><ele>1435.6</ele></trkpt>
      <trkpt lat="49.581026" lon="19.510721"><ele>1439.6</ele></trkpt>
      <trkpt lat="49.580789" lon="19.510952"><ele>1444.2</ele></trkpt>
      <trkpt lat="49.580506" lon="19.511329"><ele>1444.2</ele></trkpt>
      <trkpt lat="49.579955" lon="19.511954"><ele>1449.3</ele></trkpt>
      <trkpt lat="49.579401" lon="19.512599"><ele>1454.5</ele></trkpt>
      <trkpt lat="49.578862" lon="19.513239"><ele>1454.5</ele></trkpt>
      <trkpt lat="49.577782" lon="19.514508"><ele>1459.9</ele></trkpt>
      <trkpt lat="49.577687" lon="19.514597"><ele>1466.1</ele></trkpt>
      <trkpt lat="49.577610" lon="19.514726"><ele>1466.1</ele></trkpt>
      <trkpt lat="49.577472" lon="19.514891"><ele>1472.9</ele></trkpt>
      <trkpt lat="49.577351" lon="19.514939"><ele>1472.9</ele></trkpt>
      <trkpt lat="49.577192" lon="19.514970"><ele>1480.7</ele></trkpt>
      <trkpt lat="49.576904" lon="19.515121"><ele>1489.0</ele></trkpt>
      <trkpt lat="49.576616" lon="19.515173"><ele>1489.0</ele></trkpt>
      <trkpt lat="49.576496" lon="19.515247"><ele>1497.8</ele></trkpt>
      <trkpt lat="49.576247" lon="19.515373"><ele>1505.7</ele></trkpt>
      <trkpt lat="49.576120" lon="19.515418"><ele>1505.7</ele></trkpt>
      <trkpt lat="49.576050" lon="19.515438"><ele>1512.5</ele></trkpt>
      <trkpt lat="49.575991" lon="19.515429"><ele>1516.5</ele></trkpt>
      <trkpt lat="49.575920" lon="19.515447"><ele>1516.5</ele></trkpt>
      <trkpt lat="49.575877" lon="19.515478"><ele>1519.5</ele></trkpt>
      <trkpt lat="49.575793" lon="19.515510"><ele>1523.2</ele></trkpt>
      <trkpt lat="49.575696" lon="19.515550"><ele>1523.2</ele></trkpt>
      <trkpt lat="49.575566" lon="19.515644"><ele>1529.3</ele></trkpt>
      <trkpt lat="49.575494" lon="19.515641"><ele>1535.2</ele></trkpt>
      <trkpt lat="49.575336" lon="19.515798"><ele>1535.2</ele></trkpt>
      <trkpt lat="49.575275" lon="19.515874"><ele>1544.5</ele></trkpt>
      <trkpt lat="49.575179" lon="19.515970"><ele>1552.1</ele></trkpt>
      <trkpt lat="49.575116" lon="19.516053"><ele>1552.1</ele></trkpt>
      <trkpt lat="49.574986" lon="19.516179"><ele>1559.6</ele></trkpt>
      <trkpt lat="49.574814" lon="19.516413"><ele>1559.6</ele></trkpt>
      <trkpt lat="49.574687" lon="19.516607"><ele>1565.8</ele></trkpt>
      <trkpt lat="49.574533" lon="19.516700"><ele>1572.4</ele></trkpt>
      <trkpt lat="49.574403" lon="19.516839"><ele>1572.4</ele></trkpt>
      <trkpt lat="49.574284" lon="19.516992"><ele>1577.3</ele></trkpt>
      <trkpt lat="49.574180" lon="19.517123"><ele>1582.1</ele></trkpt>
      <trkpt lat="49.574048" lon="19.517245"><ele>1582.1</ele></trkpt>
      <trkpt lat="49.573973" lon="19.517376"><ele>1585.5</ele></trkpt>
      <trkpt lat="49.573881" lon="19.517494"><ele>1589.3</ele></trkpt>
      <trkpt lat="49.573788" lon="19.517585"><ele>1589.3</ele></trkpt>
      <trkpt lat="49.573754" lon="19.517668"><ele>1593.9</ele></trkpt>
      <trkpt lat="49.573671" lon="19.517783"><ele>1597.2</ele></trkpt>
      <trkpt lat="49.573607" lon="19.517923"><ele>1597.2</ele></trkpt>
      <trkpt lat="49.573518" lon="19.518061"><ele>1599.4</ele></trkpt>
      <trkpt lat="49.573386" lon="19.518359"><ele>1601.1</ele></trkpt>
      <trkpt lat="49.573330" lon="19.518478"><ele>1601.1</ele></trkpt>
      <trkpt lat="49.573276" lon="19.518668"><ele>1602.0</ele></trkpt>
      <trkpt lat="49.573234" lon="19.518789"><ele>1602.0</ele></trkpt>
      <trkpt lat="49.573182" lon="19.519149"><ele>1602.0</ele></trkpt>
      <trkpt lat="49.573158" lon="19.519335"><ele>1602.0</ele></trkpt>
      <trkpt lat="49.573119" lon="19.519526"><ele>1602.0</ele></trkpt>
      <trkpt lat="49.573073" lon="19.519647"><ele>1602.1</ele></trkpt>
      <trkpt lat="49.572972" lon="19.519798"><ele>1602.1</ele></trkpt>
      <trkpt lat="49.572894" lon="19.520014"><ele>1602.1</ele></trkpt>
      <trkpt lat="49.572851" lon="19.520387"><ele>1602.9</ele></trkpt>
      <trkpt lat="49.572639" lon="19.520964"><ele>1604.4</ele></trkpt>
      <trkpt lat="49.572540" lon="19.521137"><ele>1604.4</ele></trkpt>
      <trkpt lat="49.572436" lon="19.521268"><ele>1605.5</ele></trkpt>
      <trkpt lat="49.572306" lon="19.521404"><ele>1607.0</ele></trkpt>
      <trkpt lat="49.572269" lon="19.521598"><ele>1607.0</ele></trkpt>
      <trkpt lat="49.572252" lon="19.522111"><ele>1608.0</ele></trkpt>
      <trkpt lat="49.572213" lon="19.522521"><ele>1608.0</ele></trkpt>
      <trkpt lat="49.572173" lon="19.522696"><ele>1608.0</ele></trkpt>
      <trkpt lat="49.572151" lon="19.522807"><ele>1610.2</ele></trkpt>
      <trkpt lat="49.572145" lon="19.522926"><ele>1610.2</ele></trkpt>
      <trkpt lat="49.572154" lon="19.523136"><ele>1613.3</ele></trkpt>
      <trkpt lat="49.572167" lon="19.523317"><ele>1617.2</ele></trkpt>
      <trkpt lat="49.572187" lon="19.523484"><ele>1617.2</ele></trkpt>
      <trkpt lat="49.572182" lon="19.523620"><ele>1621.0</ele></trkpt>
      <trkpt lat="49.572185" lon="19.523855"><ele>1624.2</ele></trkpt>
      <trkpt lat="49.572183" lon="19.523926"><ele>1624.2</ele></trkpt>
      <trkpt lat="49.572171" lon="19.523970"><ele>1627.0</ele></trkpt>
      <trkpt lat="49.572136" lon="19.524001"><ele>1629.1</ele></trkpt>
      <trkpt lat="49.572104" lon="19.524034"><ele>1629.1</ele></trkpt>
      <trkpt lat="49.572127" lon="19.524105"><ele>1631.6</ele></trkpt>
      <trkpt lat="49.572143" lon="19.524272"><ele>1635.4</ele></trkpt>
      <trkpt lat="49.572125" lon="19.524310"><ele>1635.4</ele></trkpt>
      <trkpt lat="49.572117" lon="19.524406"><ele>1641.8</ele></trkpt>
      <trkpt lat="49.572106" lon="19.524587"><ele>1646.2</ele></trkpt>
      <trkpt lat="49.572144" lon="19.524677"><ele>1646.2</ele></trkpt>
      <trkpt lat="49.572180" lon="19.525095"><ele>1650.3</ele></trkpt>
      <trkpt lat="49.572176" lon="19.525488"><ele>1654.8</ele></trkpt>
      <trkpt lat="49.572181" lon="19.525604"><ele>1654.8</ele></trkpt>
      <trkpt lat="49.572205" lon="19.525727"><ele>1661.2</ele></trkpt>
      <trkpt lat="49.572265" lon="19.525789"><ele>1661.2</ele></trkpt>
      <trkpt lat="49.572402" lon="19.526252"><ele>1668.8</ele></trkpt>
      <trkpt lat="49.572467" lon="19.526396"><ele>1675.5</ele></trkpt>
      <trkpt lat="49.572486" lon="19.526569"><ele>1675.5</ele></trkpt>
      <trkpt lat="49.572531" lon="19.526681"><ele>1679.6</ele></trkpt>
      <trkpt lat="49.572602" lon="19.526879"><ele>1684.4</ele></trkpt>
      <trkpt lat="49.572770" lon="19.527355"><ele>1684.4</ele></trkpt>
      <trkpt lat="49.572815" lon="19.527573"><ele>1686.9</ele></trkpt>
      <trkpt lat="49.572917" lon="19.527976"><ele>1687.7</ele></trkpt>
      <trkpt lat="49.572917" lon="19.528022"><ele>1687.7</ele></trkpt>
      <trkpt lat="49.572904" lon="19.528130"><ele>1688.0</ele></trkpt>
      <trkpt lat="49.572913" lon="19.528232"><ele>1688.6</ele></trkpt>
      <trkpt lat="49.572959" lon="19.528324"><ele>1688.6</ele></trkpt>
      <trkpt lat="49.572985" lon="19.528393"><ele>1691.4</ele></trkpt>
      <trkpt lat="49.572997" lon="19.528553"><ele>1696.1</ele></trkpt>
      <trkpt lat="49.572993" lon="19.528722"><ele>1696.1</ele></trkpt>
      <trkpt lat="49.572988" lon="19.528772"><ele>1700.6</ele></trkpt>
      <trkpt lat="49.572992" lon="19.528796"><ele>1700.6</ele></trkpt>
      <trkpt lat="49.573064" lon="19.528867"><ele>1704.4</ele></trkpt>
      <trkpt lat="49.573025" lon="19.528909"><ele>1707.4</ele></trkpt>
      <trkpt lat="49.573064" lon="19.528966"><ele>1707.4</ele></trkpt>
      <trkpt lat="49.572978" lon="19.529060"><ele>1710.6</ele></trkpt>
      <trkpt lat="49.573038" lon="19.529179"><ele>1710.6</ele></trkpt>
      <trkpt lat="49.573087" lon="19.529446"><ele>1710.6</ele></trkpt>
      <trkpt lat="49.572941" lon="19.529333"><ele>1710.6</ele></trkpt>
    </trkseg>
  </trk>
</gpx>
