<?xml version="1.0" encoding="UTF-8"?>
<gpx version="1.1" creator="mapy-pipeline (Babia Gora 01)" xmlns="http://www.topografix.com/GPX/1/1">
  <metadata>
    <name>Slaná voda – Diablak</name>
    <desc>Wejście na Diablaka — TYLKO PODEJŚCIE, bez drogi powrotnej. 8.1 km, przewyższenie +979 m. Wysokości z modelu terenu (DEM 25 m), wartości przybliżone.</desc>
    <link href="https://bgpn.gov.pl/turystyka-piesza"><text>Babiogorski Park Narodowy - szlaki</text></link>
  </metadata>
  <trk>
    <name>Slaná voda – Diablak (wejscie)</name>
    <desc>Wejście na Diablaka — TYLKO PODEJŚCIE, bez drogi powrotnej. 8.1 km, przewyższenie +979 m. Wysokości z modelu terenu (DEM 25 m), wartości przybliżone.</desc>
    <trkseg>
      <trkpt lat="49.526299" lon="19.473085"><ele>750.3</ele></trkpt>
      <trkpt lat="49.526491" lon="19.473304"><ele>750.3</ele></trkpt>
      <trkpt lat="49.526675" lon="19.473509"><ele>746.7</ele></trkpt>
      <trkpt lat="49.526799" lon="19.473634"><ele>745.8</ele></trkpt>
      <trkpt lat="49.526779" lon="19.473744"><ele>745.3</ele></trkpt>
      <trkpt lat="49.526669" lon="19.474087"><ele>745.0</ele></trkpt>
      <trkpt lat="49.526567" lon="19.474339"><ele>745.0</ele></trkpt>
      <trkpt lat="49.526476" lon="19.474524"><ele>745.0</ele></trkpt>
      <trkpt lat="49.526411" lon="19.474705"><ele>743.2</ele></trkpt>
      <trkpt lat="49.526385" lon="19.474823"><ele>743.2</ele></trkpt>
      <trkpt lat="49.526369" lon="19.474969"><ele>743.2</ele></trkpt>
      <trkpt lat="49.526347" lon="19.475074"><ele>745.7</ele></trkpt>
      <trkpt lat="49.526309" lon="19.475209"><ele>746.7</ele></trkpt>
      <trkpt lat="49.526221" lon="19.475606"><ele>747.7</ele></trkpt>
      <trkpt lat="49.526220" lon="19.475930"><ele>749.2</ele></trkpt>
      <trkpt lat="49.526362" lon="19.476389"><ele>751.6</ele></trkpt>
      <trkpt lat="49.526626" lon="19.477104"><ele>751.6</ele></trkpt>
      <trkpt lat="49.526906" lon="19.477730"><ele>754.8</ele></trkpt>
      <trkpt lat="49.528333" lon="19.479880"><ele>757.8</ele></trkpt>
      <trkpt lat="49.528727" lon="19.480450"><ele>761.2</ele></trkpt>
      <trkpt lat="49.529041" lon="19.480943"><ele>764.2</ele></trkpt>
      <trkpt lat="49.529507" lon="19.481651"><ele>766.6</ele></trkpt>
      <trkpt lat="49.530254" lon="19.482775"><ele>768.7</ele></trkpt>
      <trkpt lat="49.530864" lon="19.483703"><ele>768.7</ele></trkpt>
      <trkpt lat="49.532436" lon="19.486104"><ele>769.1</ele></trkpt>
      <trkpt lat="49.533114" lon="19.487120"><ele>769.3</ele></trkpt>
      <trkpt lat="49.534139" lon="19.488679"><ele>769.3</ele></trkpt>
      <trkpt lat="49.534398" lon="19.489093"><ele>769.3</ele></trkpt>
      <trkpt lat="49.534504" lon="19.489222"><ele>769.8</ele></trkpt>
      <trkpt lat="49.535294" lon="19.489992"><ele>769.8</ele></trkpt>
      <trkpt lat="49.535378" lon="19.490074"><ele>772.1</ele></trkpt>
      <trkpt lat="49.535463" lon="19.490191"><ele>774.9</ele></trkpt>
      <trkpt lat="49.535930" lon="19.490856"><ele>777.2</ele></trkpt>
      <trkpt lat="49.536540" lon="19.491698"><ele>779.4</ele></trkpt>
      <trkpt lat="49.537077" lon="19.492478"><ele>782.2</ele></trkpt>
      <trkpt lat="49.538106" lon="19.493950"><ele>784.9</ele></trkpt>
      <trkpt lat="49.538453" lon="19.494422"><ele>784.9</ele></trkpt>
      <trkpt lat="49.538663" lon="19.494695"><ele>787.9</ele></trkpt>
      <trkpt lat="49.538838" lon="19.494910"><ele>790.1</ele></trkpt>
      <trkpt lat="49.539380" lon="19.495502"><ele>791.8</ele></trkpt>
      <trkpt lat="49.539996" lon="19.496161"><ele>793.1</ele></trkpt>
      <trkpt lat="49.540744" lon="19.496977"><ele>794.7</ele></trkpt>
      <trkpt lat="49.540944" lon="19.497201"><ele>796.1</ele></trkpt>
      <trkpt lat="49.541273" lon="19.497555"><ele>796.9</ele></trkpt>
      <trkpt lat="49.541316" lon="19.497623"><ele>796.9</ele></trkpt>
      <trkpt lat="49.541370" lon="19.497735"><ele>797.0</ele></trkpt>
      <trkpt lat="49.541395" lon="19.497836"><ele>797.0</ele></trkpt>
      <trkpt lat="49.541407" lon="19.497957"><ele>797.0</ele></trkpt>
      <trkpt lat="49.541409" lon="19.498053"><ele>797.6</ele></trkpt>
      <trkpt lat="49.541402" lon="19.498158"><ele>798.1</ele></trkpt>
      <trkpt lat="49.541358" lon="19.498399"><ele>799.4</ele></trkpt>
      <trkpt lat="49.541289" lon="19.498673"><ele>801.5</ele></trkpt>
      <trkpt lat="49.541242" lon="19.498900"><ele>803.7</ele></trkpt>
      <trkpt lat="49.541197" lon="19.499170"><ele>805.0</ele></trkpt>
      <trkpt lat="49.541089" lon="19.499647"><ele>806.3</ele></trkpt>
      <trkpt lat="49.540988" lon="19.500093"><ele>809.1</ele></trkpt>
      <trkpt lat="49.540962" lon="19.500275"><ele>813.1</ele></trkpt>
      <trkpt lat="49.540930" lon="19.500574"><ele>813.1</ele></trkpt>
      <trkpt lat="49.540897" lon="19.500885"><ele>815.0</ele></trkpt>
      <trkpt lat="49.540859" lon="19.501299"><ele>816.1</ele></trkpt>
      <trkpt lat="49.540848" lon="19.501567"><ele>817.9</ele></trkpt>
      <trkpt lat="49.541051" lon="19.501619"><ele>819.1</ele></trkpt>
      <trkpt lat="49.541184" lon="19.501642"><ele>820.5</ele></trkpt>
      <trkpt lat="49.541278" lon="19.501673"><ele>822.9</ele></trkpt>
      <trkpt lat="49.541355" lon="19.501718"><ele>825.1</ele></trkpt>
      <trkpt lat="49.541436" lon="19.501730"><ele>827.2</ele></trkpt>
      <trkpt lat="49.541651" lon="19.501730"><ele>828.8</ele></trkpt>
      <trkpt lat="49.541849" lon="19.501670"><ele>828.8</ele></trkpt>
      <trkpt lat="49.542012" lon="19.501675"><ele>829.3</ele></trkpt>
      <trkpt lat="49.542107" lon="19.501695"><ele>829.6</ele></trkpt>
      <trkpt lat="49.542196" lon="19.501730"><ele>830.8</ele></trkpt>
      <trkpt lat="49.542305" lon="19.501784"><ele>831.2</ele></trkpt>
      <trkpt lat="49.542409" lon="19.501862"><ele>831.2</ele></trkpt>
      <trkpt lat="49.542514" lon="19.501934"><ele>831.2</ele></trkpt>
      <trkpt lat="49.542893" lon="19.502220"><ele>831.2</ele></trkpt>
      <trkpt lat="49.543183" lon="19.502394"><ele>831.2</ele></trkpt>
      <trkpt lat="49.543635" lon="19.502581"><ele>832.4</ele></trkpt>
      <trkpt lat="49.543755" lon="19.502662"><ele>833.5</ele></trkpt>
      <trkpt lat="49.543860" lon="19.502759"><ele>833.5</ele></trkpt>
      <trkpt lat="49.543854" lon="19.502823"><ele>835.1</ele></trkpt>
      <trkpt lat="49.543983" lon="19.502896"><ele>837.0</ele></trkpt>
      <trkpt lat="49.544052" lon="19.502938"><ele>838.7</ele></trkpt>
      <trkpt lat="49.544200" lon="19.503027"><ele>840.2</ele></trkpt>
      <trkpt lat="49.544396" lon="19.503103"><ele>841.9</ele></trkpt>
      <trkpt lat="49.544503" lon="19.503156"><ele>843.7</ele></trkpt>
      <trkpt lat="49.544598" lon="19.503223"><ele>845.3</ele></trkpt>
      <trkpt lat="49.544980" lon="19.503501"><ele>847.0</ele></trkpt>
      <trkpt lat="49.545337" lon="19.503560"><ele>849.4</ele></trkpt>
      <trkpt lat="49.545541" lon="19.503596"><ele>849.4</ele></trkpt>
      <trkpt lat="49.545713" lon="19.503619"><ele>851.5</ele></trkpt>
      <trkpt lat="49.545793" lon="19.503611"><ele>852.9</ele></trkpt>
      <trkpt lat="49.545886" lon="19.503577"><ele>854.1</ele></trkpt>
      <trkpt lat="49.545987" lon="19.503532"><ele>856.0</ele></trkpt>
      <trkpt lat="49.546185" lon="19.503407"><ele>858.3</ele></trkpt>
      <trkpt lat="49.546283" lon="19.503371"><ele>860.3</ele></trkpt>
      <trkpt lat="49.546380" lon="19.503364"><ele>862.3</ele></trkpt>
      <trkpt lat="49.546495" lon="19.503393"><ele>863.5</ele></trkpt>
      <trkpt lat="49.546596" lon="19.503451"><ele>864.9</ele></trkpt>
      <trkpt lat="49.546711" lon="19.503545"><ele>864.9</ele></trkpt>
      <trkpt lat="49.546903" lon="19.503698"><ele>866.6</ele></trkpt>
      <trkpt lat="49.547368" lon="19.503959"><ele>869.5</ele></trkpt>
      <trkpt lat="49.547435" lon="19.503961"><ele>873.3</ele></trkpt>
      <trkpt lat="49.547528" lon="19.503929"><ele>873.3</ele></trkpt>
      <trkpt lat="49.547956" lon="19.503669"><ele>873.4</ele></trkpt>
      <trkpt lat="49.548121" lon="19.503595"><ele>874.1</ele></trkpt>
      <trkpt lat="49.548664" lon="19.503511"><ele>874.4</ele></trkpt>
      <trkpt lat="49.548806" lon="19.503525"><ele>876.7</ele></trkpt>
      <trkpt lat="49.548956" lon="19.503549"><ele>880.7</ele></trkpt>
      <trkpt lat="49.549213" lon="19.503643"><ele>883.4</ele></trkpt>
      <trkpt lat="49.549415" lon="19.503804"><ele>883.4</ele></trkpt>
      <trkpt lat="49.549560" lon="19.503903"><ele>885.7</ele></trkpt>
      <trkpt lat="49.549779" lon="19.503975"><ele>887.5</ele></trkpt>
      <trkpt lat="49.549969" lon="19.504106"><ele>887.5</ele></trkpt>
      <trkpt lat="49.550400" lon="19.504480"><ele>887.5</ele></trkpt>
      <trkpt lat="49.550628" lon="19.504659"><ele>887.6</ele></trkpt>
      <trkpt lat="49.550830" lon="19.504745"><ele>887.6</ele></trkpt>
      <trkpt lat="49.551089" lon="19.504775"><ele>888.9</ele></trkpt>
      <trkpt lat="49.551306" lon="19.504762"><ele>890.4</ele></trkpt>
      <trkpt lat="49.551788" lon="19.504684"><ele>891.5</ele></trkpt>
      <trkpt lat="49.552633" lon="19.504739"><ele>891.5</ele></trkpt>
      <trkpt lat="49.553245" lon="19.505037"><ele>891.5</ele></trkpt>
      <trkpt lat="49.553410" lon="19.505145"><ele>891.5</ele></trkpt>
      <trkpt lat="49.553651" lon="19.505351"><ele>891.3</ele></trkpt>
      <trkpt lat="49.553686" lon="19.505407"><ele>890.0</ele></trkpt>
      <trkpt lat="49.553909" lon="19.505725"><ele>887.5</ele></trkpt>
      <trkpt lat="49.553934" lon="19.505755"><ele>886.7</ele></trkpt>
      <trkpt lat="49.553963" lon="19.505770"><ele>886.7</ele></trkpt>
      <trkpt lat="49.553994" lon="19.505752"><ele>886.7</ele></trkpt>
      <trkpt lat="49.554064" lon="19.505658"><ele>891.0</ele></trkpt>
      <trkpt lat="49.554146" lon="19.505525"><ele>891.0</ele></trkpt>
      <trkpt lat="49.554451" lon="19.505391"><ele>896.5</ele></trkpt>
      <trkpt lat="49.554690" lon="19.505280"><ele>903.2</ele></trkpt>
      <trkpt lat="49.554830" lon="19.505233"><ele>910.7</ele></trkpt>
      <trkpt lat="49.555071" lon="19.505193"><ele>916.0</ele></trkpt>
      <trkpt lat="49.555304" lon="19.505138"><ele>916.2</ele></trkpt>
      <trkpt lat="49.555477" lon="19.505125"><ele>916.6</ele></trkpt>
      <trkpt lat="49.555583" lon="19.505125"><ele>916.9</ele></trkpt>
      <trkpt lat="49.555726" lon="19.505143"><ele>916.9</ele></trkpt>
      <trkpt lat="49.555856" lon="19.505246"><ele>918.0</ele></trkpt>
      <trkpt lat="49.556170" lon="19.505293"><ele>918.0</ele></trkpt>
      <trkpt lat="49.556899" lon="19.505311"><ele>921.2</ele></trkpt>
      <trkpt lat="49.557113" lon="19.505249"><ele>924.9</ele></trkpt>
      <trkpt lat="49.557353" lon="19.505140"><ele>928.6</ele></trkpt>
      <trkpt lat="49.557729" lon="19.504942"><ele>931.1</ele></trkpt>
      <trkpt lat="49.557963" lon="19.504830"><ele>934.3</ele></trkpt>
      <trkpt lat="49.558279" lon="19.504534"><ele>936.8</ele></trkpt>
      <trkpt lat="49.558466" lon="19.504368"><ele>939.3</ele></trkpt>
      <trkpt lat="49.558541" lon="19.504288"><ele>940.8</ele></trkpt>
      <trkpt lat="49.558701" lon="19.504095"><ele>942.9</ele></trkpt>
      <trkpt lat="49.558880" lon="19.503888"><ele>948.0</ele></trkpt>
      <trkpt lat="49.558958" lon="19.503828"><ele>948.0</ele></trkpt>
      <trkpt lat="49.559161" lon="19.503708"><ele>952.7</ele></trkpt>
      <trkpt lat="49.559389" lon="19.503614"><ele>957.3</ele></trkpt>
      <trkpt lat="49.559637" lon="19.503511"><ele>962.3</ele></trkpt>
      <trkpt lat="49.559698" lon="19.503493"><ele>968.5</ele></trkpt>
      <trkpt lat="49.559767" lon="19.503490"><ele>973.1</ele></trkpt>
      <trkpt lat="49.559840" lon="19.503508"><ele>976.3</ele></trkpt>
      <trkpt lat="49.560179" lon="19.503526"><ele>978.8</ele></trkpt>
      <trkpt lat="49.560260" lon="19.503505"><ele>982.0</ele></trkpt>
      <trkpt lat="49.560349" lon="19.503456"><ele>985.4</ele></trkpt>
      <trkpt lat="49.560518" lon="19.503334"><ele>985.4</ele></trkpt>
      <trkpt lat="49.560667" lon="19.503273"><ele>988.6</ele></trkpt>
      <trkpt lat="49.560938" lon="19.503182"><ele>989.4</ele></trkpt>
      <trkpt lat="49.561047" lon="19.503138"><ele>990.3</ele></trkpt>
      <trkpt lat="49.561097" lon="19.503131"><ele>991.3</ele></trkpt>
      <trkpt lat="49.561226" lon="19.503216"><ele>992.3</ele></trkpt>
      <trkpt lat="49.561399" lon="19.503562"><ele>992.3</ele></trkpt>
      <trkpt lat="49.561616" lon="19.504184"><ele>992.6</ele></trkpt>
      <trkpt lat="49.561679" lon="19.504378"><ele>993.2</ele></trkpt>
      <trkpt lat="49.561769" lon="19.504533"><ele>994.1</ele></trkpt>
      <trkpt lat="49.561853" lon="19.504667"><ele>994.1</ele></trkpt>
      <trkpt lat="49.561965" lon="19.504753"><ele>1000.3</ele></trkpt>
      <trkpt lat="49.562126" lon="19.504817"><ele>1006.2</ele></trkpt>
      <trkpt lat="49.562234" lon="19.504933"><ele>1006.8</ele></trkpt>
      <trkpt lat="49.562350" lon="19.505030"><ele>1007.9</ele></trkpt>
      <trkpt lat="49.562543" lon="19.505183"><ele>1009.8</ele></trkpt>
      <trkpt lat="49.562655" lon="19.505357"><ele>1011.9</ele></trkpt>
      <trkpt lat="49.562710" lon="19.505549"><ele>1016.0</ele></trkpt>
      <trkpt lat="49.562713" lon="19.505975"><ele>1016.0</ele></trkpt>
      <trkpt lat="49.562720" lon="19.506299"><ele>1016.0</ele></trkpt>
      <trkpt lat="49.562750" lon="19.506532"><ele>1016.0</ele></trkpt>
      <trkpt lat="49.562836" lon="19.506793"><ele>1014.9</ele></trkpt>
      <trkpt lat="49.562968" lon="19.507074"><ele>1013.0</ele></trkpt>
      <trkpt lat="49.563032" lon="19.507321"><ele>1012.5</ele></trkpt>
      <trkpt lat="49.563143" lon="19.507570"><ele>1012.5</ele></trkpt>
      <trkpt lat="49.563296" lon="19.507669"><ele>1012.5</ele></trkpt>
      <trkpt lat="49.563374" lon="19.507707"><ele>1012.5</ele></trkpt>
      <trkpt lat="49.563500" lon="19.507709"><ele>1012.5</ele></trkpt>
      <trkpt lat="49.563657" lon="19.507707"><ele>1012.3</ele></trkpt>
      <trkpt lat="49.563717" lon="19.507728"><ele>1011.5</ele></trkpt>
      <trkpt lat="49.563767" lon="19.507771"><ele>1009.5</ele></trkpt>
      <trkpt lat="49.563894" lon="19.507821"><ele>1009.5</ele></trkpt>
      <trkpt lat="49.563932" lon="19.507882"><ele>1009.5</ele></trkpt>
      <trkpt lat="49.563971" lon="19.507910"><ele>1009.5</ele></trkpt>
      <trkpt lat="49.564019" lon="19.507917"><ele>1012.6</ele></trkpt>
      <trkpt lat="49.564081" lon="19.507905"><ele>1013.1</ele></trkpt>
      <trkpt lat="49.564129" lon="19.507892"><ele>1015.1</ele></trkpt>
      <trkpt lat="49.564204" lon="19.507873"><ele>1017.3</ele></trkpt>
      <trkpt lat="49.564278" lon="19.507852"><ele>1022.8</ele></trkpt>
      <trkpt lat="49.564347" lon="19.507838"><ele>1028.3</ele></trkpt>
      <trkpt lat="49.564414" lon="19.507845"><ele>1034.3</ele></trkpt>
      <trkpt lat="49.564479" lon="19.507862"><ele>1034.3</ele></trkpt>
      <trkpt lat="49.564607" lon="19.507915"><ele>1041.5</ele></trkpt>
      <trkpt lat="49.564722" lon="19.507932"><ele>1050.9</ele></trkpt>
      <trkpt lat="49.564774" lon="19.507973"><ele>1060.6</ele></trkpt>
      <trkpt lat="49.564868" lon="19.508020"><ele>1067.2</ele></trkpt>
      <trkpt lat="49.564998" lon="19.508065"><ele>1071.1</ele></trkpt>
      <trkpt lat="49.565124" lon="19.508161"><ele>1074.8</ele></trkpt>
      <trkpt lat="49.565418" lon="19.508250"><ele>1078.7</ele></trkpt>
      <trkpt lat="49.565462" lon="19.508262"><ele>1083.7</ele></trkpt>
      <trkpt lat="49.565490" lon="19.508276"><ele>1088.6</ele></trkpt>
      <trkpt lat="49.565560" lon="19.508351"><ele>1088.6</ele></trkpt>
      <trkpt lat="49.565640" lon="19.508416"><ele>1093.6</ele></trkpt>
      <trkpt lat="49.565807" lon="19.508491"><ele>1099.8</ele></trkpt>
      <trkpt lat="49.565961" lon="19.508662"><ele>1108.2</ele></trkpt>
      <trkpt lat="49.566062" lon="19.508707"><ele>1116.9</ele></trkpt>
      <trkpt lat="49.566138" lon="19.508684"><ele>1123.2</ele></trkpt>
      <trkpt lat="49.566343" lon="19.508593"><ele>1128.7</ele></trkpt>
      <trkpt lat="49.566389" lon="19.508595"><ele>1136.0</ele></trkpt>
      <trkpt lat="49.566432" lon="19.508619"><ele>1143.5</ele></trkpt>
      <trkpt lat="49.566490" lon="19.508651"><ele>1149.5</ele></trkpt>
      <trkpt lat="49.566753" lon="19.508887"><ele>1154.2</ele></trkpt>
      <trkpt lat="49.566811" lon="19.508958"><ele>1154.2</ele></trkpt>
      <trkpt lat="49.566905" lon="19.509095"><ele>1157.8</ele></trkpt>
      <trkpt lat="49.566960" lon="19.509159"><ele>1162.4</ele></trkpt>
      <trkpt lat="49.567065" lon="19.509246"><ele>1167.6</ele></trkpt>
      <trkpt lat="49.567127" lon="19.509283"><ele>1173.2</ele></trkpt>
      <trkpt lat="49.567181" lon="19.509306"><ele>1178.5</ele></trkpt>
      <trkpt lat="49.567235" lon="19.509318"><ele>1183.8</ele></trkpt>
      <trkpt lat="49.567314" lon="19.509332"><ele>1187.9</ele></trkpt>
      <trkpt lat="49.567399" lon="19.509336"><ele>1192.1</ele></trkpt>
      <trkpt lat="49.567479" lon="19.509363"><ele>1196.7</ele></trkpt>
      <trkpt lat="49.567708" lon="19.509537"><ele>1196.7</ele></trkpt>
      <trkpt lat="49.567805" lon="19.509630"><ele>1202.3</ele></trkpt>
      <trkpt lat="49.567859" lon="19.509686"><ele>1208.1</ele></trkpt>
      <trkpt lat="49.567981" lon="19.509846"><ele>1213.0</ele></trkpt>
      <trkpt lat="49.567994" lon="19.509880"><ele>1217.0</ele></trkpt>
      <trkpt lat="49.568076" lon="19.510292"><ele>1221.0</ele></trkpt>
      <trkpt lat="49.568234" lon="19.510829"><ele>1225.4</ele></trkpt>
      <trkpt lat="49.568253" lon="19.510924"><ele>1229.4</ele></trkpt>
      <trkpt lat="49.568281" lon="19.511301"><ele>1232.2</ele></trkpt>
      <trkpt lat="49.568292" lon="19.511521"><ele>1236.2</ele></trkpt>
      <trkpt lat="49.568343" lon="19.511977"><ele>1236.2</ele></trkpt>
      <trkpt lat="49.568371" lon="19.512141"><ele>1240.4</ele></trkpt>
      <trkpt lat="49.568510" lon="19.512853"><ele>1245.8</ele></trkpt>
      <trkpt lat="49.568659" lon="19.513645"><ele>1249.9</ele></trkpt>
      <trkpt lat="49.568670" lon="19.513777"><ele>1253.1</ele></trkpt>
      <trkpt lat="49.568677" lon="19.513948"><ele>1254.9</ele></trkpt>
      <trkpt lat="49.568685" lon="19.514182"><ele>1258.1</ele></trkpt>
      <trkpt lat="49.568704" lon="19.514486"><ele>1260.0</ele></trkpt>
      <trkpt lat="49.568748" lon="19.514862"><ele>1261.4</ele></trkpt>
      <trkpt lat="49.568829" lon="19.515428"><ele>1264.3</ele></trkpt>
      <trkpt lat="49.568869" lon="19.515852"><ele>1269.7</ele></trkpt>
      <trkpt lat="49.568996" lon="19.516328"><ele>1269.7</ele></trkpt>
      <trkpt lat="49.569037" lon="19.516500"><ele>1277.1</ele></trkpt>
      <trkpt lat="49.569057" lon="19.516620"><ele>1283.7</ele></trkpt>
      <trkpt lat="49.569066" lon="19.516746"><ele>1290.4</ele></trkpt>
      <trkpt lat="49.569062" lon="19.516837"><ele>1296.1</ele></trkpt>
      <trkpt lat="49.569062" lon="19.516913"><ele>1302.5</ele></trkpt>
      <trkpt lat="49.569069" lon="19.516978"><ele>1308.9</ele></trkpt>
      <trkpt lat="49.569090" lon="19.517069"><ele>1315.1</ele></trkpt>
      <trkpt lat="49.569231" lon="19.517598"><ele>1321.6</ele></trkpt>
      <trkpt lat="49.569269" lon="19.517738"><ele>1327.8</ele></trkpt>
      <trkpt lat="49.569303" lon="19.517877"><ele>1327.8</ele></trkpt>
      <trkpt lat="49.569344" lon="19.518082"><ele>1334.1</ele></trkpt>
      <trkpt lat="49.569370" lon="19.518161"><ele>1340.3</ele></trkpt>
      <trkpt lat="49.569474" lon="19.518449"><ele>1347.5</ele></trkpt>
      <trkpt lat="49.569505" lon="19.518554"><ele>1351.9</ele></trkpt>
      <trkpt lat="49.569517" lon="19.518622"><ele>1357.2</ele></trkpt>
      <trkpt lat="49.569509" lon="19.518744"><ele>1363.0</ele></trkpt>
      <trkpt lat="49.569502" lon="19.518916"><ele>1369.3</ele></trkpt>
      <trkpt lat="49.569512" lon="19.519015"><ele>1374.2</ele></trkpt>
      <trkpt lat="49.569532" lon="19.519115"><ele>1379.8</ele></trkpt>
      <trkpt lat="49.569548" lon="19.519175"><ele>1379.8</ele></trkpt>
      <trkpt lat="49.569545" lon="19.519244"><ele>1385.7</ele></trkpt>
      <trkpt lat="49.569508" lon="19.519685"><ele>1391.6</ele></trkpt>
      <trkpt lat="49.569485" lon="19.519910"><ele>1398.0</ele></trkpt>
      <trkpt lat="49.569482" lon="19.519963"><ele>1404.8</ele></trkpt>
      <trkpt lat="49.569492" lon="19.520029"><ele>1409.9</ele></trkpt>
      <trkpt lat="49.569503" lon="19.520105"><ele>1416.6</ele></trkpt>
      <trkpt lat="49.569522" lon="19.520204"><ele>1423.1</ele></trkpt>
      <trkpt lat="49.569530" lon="19.520284"><ele>1426.9</ele></trkpt>
      <trkpt lat="49.569528" lon="19.520367"><ele>1430.7</ele></trkpt>
      <trkpt lat="49.569507" lon="19.520465"><ele>1430.7</ele></trkpt>
      <trkpt lat="49.569462" lon="19.520695"><ele>1436.2</ele></trkpt>
      <trkpt lat="49.569428" lon="19.520930"><ele>1441.9</ele></trkpt>
      <trkpt lat="49.569374" lon="19.521223"><ele>1446.8</ele></trkpt>
      <trkpt lat="49.569355" lon="19.521402"><ele>1451.4</ele></trkpt>
      <trkpt lat="49.569331" lon="19.521508"><ele>1456.9</ele></trkpt>
      <trkpt lat="49.569294" lon="19.521606"><ele>1463.2</ele></trkpt>
      <trkpt lat="49.569232" lon="19.521806"><ele>1468.3</ele></trkpt>
      <trkpt lat="49.569152" lon="19.522164"><ele>1472.0</ele></trkpt>
      <trkpt lat="49.569145" lon="19.522244"><ele>1475.6</ele></trkpt>
      <trkpt lat="49.569149" lon="19.522318"><ele>1479.7</ele></trkpt>
      <trkpt lat="49.569175" lon="19.522401"><ele>1479.7</ele></trkpt>
      <trkpt lat="49.569215" lon="19.522500"><ele>1483.7</ele></trkpt>
      <trkpt lat="49.569254" lon="19.522592"><ele>1487.0</ele></trkpt>
      <trkpt lat="49.569284" lon="19.522669"><ele>1490.4</ele></trkpt>
      <trkpt lat="49.569291" lon="19.522740"><ele>1494.7</ele></trkpt>
      <trkpt lat="49.569288" lon="19.522791"><ele>1498.8</ele></trkpt>
      <trkpt lat="49.569267" lon="19.522988"><ele>1500.2</ele></trkpt>
      <trkpt lat="49.569224" lon="19.523475"><ele>1502.9</ele></trkpt>
      <trkpt lat="49.569222" lon="19.523566"><ele>1507.2</ele></trkpt>
      <trkpt lat="49.569239" lon="19.523706"><ele>1512.4</ele></trkpt>
      <trkpt lat="49.569256" lon="19.523872"><ele>1512.4</ele></trkpt>
      <trkpt lat="49.569258" lon="19.524035"><ele>1517.2</ele></trkpt>
      <trkpt lat="49.569269" lon="19.524243"><ele>1523.0</ele></trkpt>
      <trkpt lat="49.569295" lon="19.524433"><ele>1525.2</ele></trkpt>
      <trkpt lat="49.569321" lon="19.524644"><ele>1528.9</ele></trkpt>
      <trkpt lat="49.569333" lon="19.524797"><ele>1531.3</ele></trkpt>
      <trkpt lat="49.569332" lon="19.524942"><ele>1534.8</ele></trkpt>
      <trkpt lat="49.569322" lon="19.525057"><ele>1540.9</ele></trkpt>
      <trkpt lat="49.569267" lon="19.525771"><ele>1541.6</ele></trkpt>
      <trkpt lat="49.569237" lon="19.525983"><ele>1543.2</ele></trkpt>
      <trkpt lat="49.569197" lon="19.526194"><ele>1543.2</ele></trkpt>
      <trkpt lat="49.569170" lon="19.526557"><ele>1544.7</ele></trkpt>
      <trkpt lat="49.569127" lon="19.526736"><ele>1547.1</ele></trkpt>
      <trkpt lat="49.569103" lon="19.526879"><ele>1548.9</ele></trkpt>
      <trkpt lat="49.569061" lon="19.527235"><ele>1551.4</ele></trkpt>
      <trkpt lat="49.569035" lon="19.527478"><ele>1558.5</ele></trkpt>
      <trkpt lat="49.569018" lon="19.527679"><ele>1563.1</ele></trkpt>
      <trkpt lat="49.569000" lon="19.527906"><ele>1565.4</ele></trkpt>
      <trkpt lat="49.569005" lon="19.528422"><ele>1568.3</ele></trkpt>
      <trkpt lat="49.569032" lon="19.528467"><ele>1572.8</ele></trkpt>
      <trkpt lat="49.569055" lon="19.528492"><ele>1572.8</ele></trkpt>
      <trkpt lat="49.569232" lon="19.528695"><ele>1577.3</ele></trkpt>
      <trkpt lat="49.569269" lon="19.528750"><ele>1582.9</ele></trkpt>
      <trkpt lat="49.569354" lon="19.528820"><ele>1587.8</ele></trkpt>
      <trkpt lat="49.569461" lon="19.528936"><ele>1591.0</ele></trkpt>
      <trkpt lat="49.569565" lon="19.529036"><ele>1593.5</ele></trkpt>
      <trkpt lat="49.569629" lon="19.529120"><ele>1595.7</ele></trkpt>
      <trkpt lat="49.569855" lon="19.529413"><ele>1597.4</ele></trkpt>
      <trkpt lat="49.569891" lon="19.529450"><ele>1599.3</ele></trkpt>
      <trkpt lat="49.569926" lon="19.529454"><ele>1600.7</ele></trkpt>
      <trkpt lat="49.570137" lon="19.529505"><ele>1602.7</ele></trkpt>
      <trkpt lat="49.570290" lon="19.529546"><ele>1602.7</ele></trkpt>
      <trkpt lat="49.570402" lon="19.529571"><ele>1604.1</ele></trkpt>
      <trkpt lat="49.570474" lon="19.529556"><ele>1605.2</ele></trkpt>
      <trkpt lat="49.570632" lon="19.529471"><ele>1606.1</ele></trkpt>
      <trkpt lat="49.570734" lon="19.529439"><ele>1612.0</ele></trkpt>
      <trkpt lat="49.570858" lon="19.529418"><ele>1618.6</ele></trkpt>
      <trkpt lat="49.571121" lon="19.529402"><ele>1624.7</ele></trkpt>
      <trkpt lat="49.571211" lon="19.529388"><ele>1630.5</ele></trkpt>
      <trkpt lat="49.571268" lon="19.529359"><ele>1636.3</ele></trkpt>
      <trkpt lat="49.571333" lon="19.529311"><ele>1643.3</ele></trkpt>
      <trkpt lat="49.571464" lon="19.529205"><ele>1643.3</ele></trkpt>
      <trkpt lat="49.571575" lon="19.529167"><ele>1649.5</ele></trkpt>
      <trkpt lat="49.571708" lon="19.529073"><ele>1655.8</ele></trkpt>
      <trkpt lat="49.571774" lon="19.529069"><ele>1662.2</ele></trkpt>
      <trkpt lat="49.571874" lon="19.529087"><ele>1667.8</ele></trkpt>
      <trkpt lat="49.572013" lon="19.529116"><ele>1672.2</ele></trkpt>
      <trkpt lat="49.572185" lon="19.529204"><ele>1676.6</ele></trkpt>
      <trkpt lat="49.572303" lon="19.529214"><ele>1680.6</ele></trkpt>
      <trkpt lat="49.572491" lon="19.529237"><ele>1685.1</ele></trkpt>
      <trkpt lat="49.572565" lon="19.529262"><ele>1690.6</ele></trkpt>
      <trkpt lat="49.572644" lon="19.529307"><ele>1690.6</ele></trkpt>
      <trkpt lat="49.572729" lon="19.529309"><ele>1696.3</ele></trkpt>
      <trkpt lat="49.572783" lon="19.529291"><ele>1701.3</ele></trkpt>
      <trkpt lat="49.572835" lon="19.529280"><ele>1706.5</ele></trkpt>
      <trkpt lat="49.572887" lon="19.529297"><ele>1710.4</ele></trkpt>
      <trkpt lat="49.572941" lon="19.529333"><ele>1710.4</ele></trkpt>
    </trkseg>
  </trk>
</gpx>
