<?xml version="1.0" encoding="UTF-8"?>
<gpx version="1.1" creator="W Dobrym Kierunku" xmlns="http://www.topografix.com/GPX/1/1">
  <metadata>
    <name>Lipnica Wielka Piesze wędrówki</name>
    <desc>Własny ślad GPS autora; plik uproszczony do co 10. punktu, z zachowanym czasem i wysokością.</desc>
    <time>2026-05-23T07:54:16.000Z</time>
  </metadata>
  <trk>
    <name>Lipnica Wielka Piesze wędrówki</name>
    <trkseg>
      <trkpt lat="49.54504751600325107574462890625" lon="19.54054352827370166778564453125"><ele>893</ele><time>2026-05-23T07:54:16.000Z</time></trkpt>
      <trkpt lat="49.545116163790225982666015625" lon="19.54102397896349430084228515625"><ele>893.20001220703125</ele><time>2026-05-23T07:54:59.000Z</time></trkpt>
      <trkpt lat="49.5454551279544830322265625" lon="19.54172370024025440216064453125"><ele>895.20001220703125</ele><time>2026-05-23T07:55:34.000Z</time></trkpt>
      <trkpt lat="49.54543442465364933013916015625" lon="19.5420925877988338470458984375"><ele>897.5999755859375</ele><time>2026-05-23T07:55:56.000Z</time></trkpt>
      <trkpt lat="49.54529930837452411651611328125" lon="19.54266046173870563507080078125"><ele>900.79998779296875</ele><time>2026-05-23T07:56:29.000Z</time></trkpt>
      <trkpt lat="49.54537868499755859375" lon="19.54281250946223735809326171875"><ele>903</ele><time>2026-05-23T07:56:51.000Z</time></trkpt>
      <trkpt lat="49.54549603164196014404296875" lon="19.543160609900951385498046875"><ele>907.4000244140625</ele><time>2026-05-23T07:57:20.000Z</time></trkpt>
      <trkpt lat="49.54585335217416286468505859375" lon="19.543164633214473724365234375"><ele>912.4000244140625</ele><time>2026-05-23T07:57:54.000Z</time></trkpt>
      <trkpt lat="49.54632240347564220428466796875" lon="19.5432305149734020233154296875"><ele>917.20001220703125</ele><time>2026-05-23T07:58:32.000Z</time></trkpt>
      <trkpt lat="49.5466857589781284332275390625" lon="19.54345070756971836090087890625"><ele>922.5999755859375</ele><time>2026-05-23T07:59:05.000Z</time></trkpt>
      <trkpt lat="49.54711315222084522247314453125" lon="19.54353335313498973846435546875"><ele>928</ele><time>2026-05-23T07:59:46.000Z</time></trkpt>
      <trkpt lat="49.54768194817006587982177734375" lon="19.54368355683982372283935546875"><ele>932</ele><time>2026-05-23T08:00:32.000Z</time></trkpt>
      <trkpt lat="49.5482149533927440643310546875" lon="19.54379193484783172607421875"><ele>937.20001220703125</ele><time>2026-05-23T08:01:18.000Z</time></trkpt>
      <trkpt lat="49.5485140196979045867919921875" lon="19.543698392808437347412109375"><ele>942</ele><time>2026-05-23T08:01:49.000Z</time></trkpt>
      <trkpt lat="49.5488590188324451446533203125" lon="19.543544165790081024169921875"><ele>945.5999755859375</ele><time>2026-05-23T08:02:24.000Z</time></trkpt>
      <trkpt lat="49.54907275736331939697265625" lon="19.54320830292999744415283203125"><ele>949.20001220703125</ele><time>2026-05-23T08:02:51.000Z</time></trkpt>
      <trkpt lat="49.549272246658802032470703125" lon="19.5429649762809276580810546875"><ele>953.20001220703125</ele><time>2026-05-23T08:03:18.000Z</time></trkpt>
      <trkpt lat="49.54960693605244159698486328125" lon="19.54273288138210773468017578125"><ele>956.4000244140625</ele><time>2026-05-23T08:03:52.000Z</time></trkpt>
      <trkpt lat="49.549936763942241668701171875" lon="19.54248880036175251007080078125"><ele>959.4000244140625</ele><time>2026-05-23T08:04:24.000Z</time></trkpt>
      <trkpt lat="49.550259299576282501220703125" lon="19.54233977012336254119873046875"><ele>962.79998779296875</ele><time>2026-05-23T08:04:55.000Z</time></trkpt>
      <trkpt lat="49.55054939724504947662353515625" lon="19.54220482148230075836181640625"><ele>966.79998779296875</ele><time>2026-05-23T08:05:22.000Z</time></trkpt>
      <trkpt lat="49.55088349990546703338623046875" lon="19.542255364358425140380859375"><ele>971.5999755859375</ele><time>2026-05-23T08:05:58.000Z</time></trkpt>
      <trkpt lat="49.55112171359360218048095703125" lon="19.54237732104957103729248046875"><ele>975.79998779296875</ele><time>2026-05-23T08:06:23.000Z</time></trkpt>
      <trkpt lat="49.55135020427405834197998046875" lon="19.54244689084589481353759765625"><ele>981.20001220703125</ele><time>2026-05-23T08:06:52.000Z</time></trkpt>
      <trkpt lat="49.5516832172870635986328125" lon="19.5424742996692657470703125"><ele>985.4000244140625</ele><time>2026-05-23T08:07:22.000Z</time></trkpt>
      <trkpt lat="49.5519512705504894256591796875" lon="19.542563147842884063720703125"><ele>989.79998779296875</ele><time>2026-05-23T08:07:50.000Z</time></trkpt>
      <trkpt lat="49.5523189008235931396484375" lon="19.54256348311901092529296875"><ele>995.20001220703125</ele><time>2026-05-23T08:08:27.000Z</time></trkpt>
      <trkpt lat="49.552712179720401763916015625" lon="19.54263129271566867828369140625"><ele>1000.20001220703125</ele><time>2026-05-23T08:09:04.000Z</time></trkpt>
      <trkpt lat="49.553065560758113861083984375" lon="19.54245627857744693756103515625"><ele>1005</ele><time>2026-05-23T08:09:41.000Z</time></trkpt>
      <trkpt lat="49.55337393097579479217529296875" lon="19.5423294603824615478515625"><ele>1010</ele><time>2026-05-23T08:10:16.000Z</time></trkpt>
      <trkpt lat="49.5536595024168491363525390625" lon="19.54221806488931179046630859375"><ele>1015.5999755859375</ele><time>2026-05-23T08:10:48.000Z</time></trkpt>
      <trkpt lat="49.55396108329296112060546875" lon="19.54228545539081096649169921875"><ele>1021</ele><time>2026-05-23T08:11:19.000Z</time></trkpt>
      <trkpt lat="49.55429225228726863861083984375" lon="19.54216307960450649261474609375"><ele>1027.5999755859375</ele><time>2026-05-23T08:12:00.000Z</time></trkpt>
      <trkpt lat="49.55454848706722259521484375" lon="19.54210625030100345611572265625"><ele>1033.199951171875</ele><time>2026-05-23T08:12:37.000Z</time></trkpt>
      <trkpt lat="49.55479684285819530487060546875" lon="19.54193861223757266998291015625"><ele>1038.800048828125</ele><time>2026-05-23T08:13:09.000Z</time></trkpt>
      <trkpt lat="49.55507218837738037109375" lon="19.54187122173607349395751953125"><ele>1044.5999755859375</ele><time>2026-05-23T08:13:54.000Z</time></trkpt>
      <trkpt lat="49.555357508361339569091796875" lon="19.54167676158249378204345703125"><ele>1051.4000244140625</ele><time>2026-05-23T08:14:32.000Z</time></trkpt>
      <trkpt lat="49.55560653470456600189208984375" lon="19.5415685512125492095947265625"><ele>1057</ele><time>2026-05-23T08:15:06.000Z</time></trkpt>
      <trkpt lat="49.55583502538502216339111328125" lon="19.5413640327751636505126953125"><ele>1062.5999755859375</ele><time>2026-05-23T08:15:43.000Z</time></trkpt>
      <trkpt lat="49.5559809543192386627197265625" lon="19.5411264896392822265625"><ele>1067.4000244140625</ele><time>2026-05-23T08:16:22.000Z</time></trkpt>
      <trkpt lat="49.55626702867448329925537109375" lon="19.5409291796386241912841796875"><ele>1073</ele><time>2026-05-23T08:17:05.000Z</time></trkpt>
      <trkpt lat="49.55649082548916339874267578125" lon="19.54075374640524387359619140625"><ele>1077.800048828125</ele><time>2026-05-23T08:17:37.000Z</time></trkpt>
      <trkpt lat="49.55670070834457874298095703125" lon="19.5407410897314548492431640625"><ele>1083.199951171875</ele><time>2026-05-23T08:18:14.000Z</time></trkpt>
      <trkpt lat="49.556888043880462646484375" lon="19.54064176417887210845947265625"><ele>1088.4000244140625</ele><time>2026-05-23T08:18:43.000Z</time></trkpt>
      <trkpt lat="49.55710940994322299957275390625" lon="19.5406311191618442535400390625"><ele>1095</ele><time>2026-05-23T08:19:21.000Z</time></trkpt>
      <trkpt lat="49.55732189118862152099609375" lon="19.540498517453670501708984375"><ele>1098.4000244140625</ele><time>2026-05-23T08:19:47.000Z</time></trkpt>
      <trkpt lat="49.5573180355131626129150390625" lon="19.54052366316318511962890625"><ele>1099.800048828125</ele><time>2026-05-23T08:20:27.000Z</time></trkpt>
      <trkpt lat="49.5575456880033016204833984375" lon="19.5404175482690334320068359375"><ele>1104.5999755859375</ele><time>2026-05-23T08:21:07.000Z</time></trkpt>
      <trkpt lat="49.55791926942765712738037109375" lon="19.54026239924132823944091796875"><ele>1110</ele><time>2026-05-23T08:21:49.000Z</time></trkpt>
      <trkpt lat="49.558250270783901214599609375" lon="19.5402733795344829559326171875"><ele>1116.199951171875</ele><time>2026-05-23T08:22:31.000Z</time></trkpt>
      <trkpt lat="49.55855512060225009918212890625" lon="19.5402442105114459991455078125"><ele>1121.5999755859375</ele><time>2026-05-23T08:23:12.000Z</time></trkpt>
      <trkpt lat="49.55886282026767730712890625" lon="19.5402271114289760589599609375"><ele>1126.800048828125</ele><time>2026-05-23T08:23:51.000Z</time></trkpt>
      <trkpt lat="49.5591670833528041839599609375" lon="19.54035937786102294921875"><ele>1129.5999755859375</ele><time>2026-05-23T08:24:34.000Z</time></trkpt>
      <trkpt lat="49.5592797361314296722412109375" lon="19.54030011780560016632080078125"><ele>1134.199951171875</ele><time>2026-05-23T08:25:09.000Z</time></trkpt>
      <trkpt lat="49.559469334781169891357421875" lon="19.54026558436453342437744140625"><ele>1140.5999755859375</ele><time>2026-05-23T08:25:49.000Z</time></trkpt>
      <trkpt lat="49.55957905389368534088134765625" lon="19.540279246866703033447265625"><ele>1145.199951171875</ele><time>2026-05-23T08:26:27.000Z</time></trkpt>
      <trkpt lat="49.55980402417480945587158203125" lon="19.540303386747837066650390625"><ele>1149</ele><time>2026-05-23T08:27:05.000Z</time></trkpt>
      <trkpt lat="49.5599284954369068145751953125" lon="19.54043774865567684173583984375"><ele>1153.199951171875</ele><time>2026-05-23T08:27:51.000Z</time></trkpt>
      <trkpt lat="49.56001977436244487762451171875" lon="19.54047127626836299896240234375"><ele>1156.5999755859375</ele><time>2026-05-23T08:28:28.000Z</time></trkpt>
      <trkpt lat="49.56003201194107532501220703125" lon="19.54047161154448986053466796875"><ele>1158</ele><time>2026-05-23T08:30:35.000Z</time></trkpt>
      <trkpt lat="49.56004877574741840362548828125" lon="19.54039231874048709869384765625"><ele>1163.4000244140625</ele><time>2026-05-23T08:31:55.000Z</time></trkpt>
      <trkpt lat="49.5600143261253833770751953125" lon="19.54045702703297138214111328125"><ele>1161</ele><time>2026-05-23T08:33:22.000Z</time></trkpt>
      <trkpt lat="49.55999194644391536712646484375" lon="19.5404892973601818084716796875"><ele>1161.199951171875</ele><time>2026-05-23T08:34:44.000Z</time></trkpt>
      <trkpt lat="49.55999446101486682891845703125" lon="19.54064981080591678619384765625"><ele>1163.4000244140625</ele><time>2026-05-23T08:36:06.000Z</time></trkpt>
      <trkpt lat="49.5599657110869884490966796875" lon="19.540839828550815582275390625"><ele>1167.199951171875</ele><time>2026-05-23T08:36:34.000Z</time></trkpt>
      <trkpt lat="49.5598835684359073638916015625" lon="19.54105013050138950347900390625"><ele>1172.4000244140625</ele><time>2026-05-23T08:37:10.000Z</time></trkpt>
      <trkpt lat="49.5597035251557826995849609375" lon="19.541311562061309814453125"><ele>1178.800048828125</ele><time>2026-05-23T08:37:52.000Z</time></trkpt>
      <trkpt lat="49.55957922153174877166748046875" lon="19.54167458228766918182373046875"><ele>1184.4000244140625</ele><time>2026-05-23T08:38:37.000Z</time></trkpt>
      <trkpt lat="49.559628926217555999755859375" lon="19.54173459671437740325927734375"><ele>1190</ele><time>2026-05-23T08:39:04.000Z</time></trkpt>
      <trkpt lat="49.5597058720886707305908203125" lon="19.54174540936946868896484375"><ele>1194.199951171875</ele><time>2026-05-23T08:39:41.000Z</time></trkpt>
      <trkpt lat="49.55980637110769748687744140625" lon="19.541814811527729034423828125"><ele>1199.800048828125</ele><time>2026-05-23T08:40:16.000Z</time></trkpt>
      <trkpt lat="49.559961520135402679443359375" lon="19.5419913344085216522216796875"><ele>1206.5999755859375</ele><time>2026-05-23T08:40:52.000Z</time></trkpt>
      <trkpt lat="49.56006922759115695953369140625" lon="19.54227070324122905731201171875"><ele>1212</ele><time>2026-05-23T08:41:27.000Z</time></trkpt>
      <trkpt lat="49.5602289028465747833251953125" lon="19.54252031631767749786376953125"><ele>1217.199951171875</ele><time>2026-05-23T08:42:12.000Z</time></trkpt>
      <trkpt lat="49.56036041490733623504638671875" lon="19.54271511174738407135009765625"><ele>1224</ele><time>2026-05-23T08:43:24.000Z</time></trkpt>
      <trkpt lat="49.56057147122919559478759765625" lon="19.54318634234368801116943359375"><ele>1229.199951171875</ele><time>2026-05-23T08:44:11.000Z</time></trkpt>
      <trkpt lat="49.56071832217276096343994140625" lon="19.543343000113964080810546875"><ele>1234.800048828125</ele><time>2026-05-23T08:44:47.000Z</time></trkpt>
      <trkpt lat="49.56091613508760929107666015625" lon="19.54362438060343265533447265625"><ele>1241.4000244140625</ele><time>2026-05-23T08:45:26.000Z</time></trkpt>
      <trkpt lat="49.5610426180064678192138671875" lon="19.5438242889940738677978515625"><ele>1245.5999755859375</ele><time>2026-05-23T08:45:57.000Z</time></trkpt>
      <trkpt lat="49.5610617287456989288330078125" lon="19.543844573199748992919921875"><ele>1249.800048828125</ele><time>2026-05-23T08:46:25.000Z</time></trkpt>
      <trkpt lat="49.561173878610134124755859375" lon="19.54358682967722415924072265625"><ele>1256.5999755859375</ele><time>2026-05-23T08:47:10.000Z</time></trkpt>
      <trkpt lat="49.56119759939610958099365234375" lon="19.5433763600885868072509765625"><ele>1262</ele><time>2026-05-23T08:47:47.000Z</time></trkpt>
      <trkpt lat="49.56134713254868984222412109375" lon="19.543251134455204010009765625"><ele>1267.199951171875</ele><time>2026-05-23T08:48:25.000Z</time></trkpt>
      <trkpt lat="49.56143128685653209686279296875" lon="19.54325289465487003326416015625"><ele>1271</ele><time>2026-05-23T08:49:32.000Z</time></trkpt>
      <trkpt lat="49.56144888885319232940673828125" lon="19.54314594157040119171142578125"><ele>1274.4000244140625</ele><time>2026-05-23T08:51:27.000Z</time></trkpt>
      <trkpt lat="49.561616443097591400146484375" lon="19.54319556243717670440673828125"><ele>1278.4000244140625</ele><time>2026-05-23T08:53:27.000Z</time></trkpt>
      <trkpt lat="49.5617309398949146270751953125" lon="19.5432285033166408538818359375"><ele>1283</ele><time>2026-05-23T08:53:55.000Z</time></trkpt>
      <trkpt lat="49.561877958476543426513671875" lon="19.5432285033166408538818359375"><ele>1289.4000244140625</ele><time>2026-05-23T08:54:37.000Z</time></trkpt>
      <trkpt lat="49.5619763620197772979736328125" lon="19.54320176504552364349365234375"><ele>1294.800048828125</ele><time>2026-05-23T08:55:05.000Z</time></trkpt>
      <trkpt lat="49.5621171779930591583251953125" lon="19.54322054050862789154052734375"><ele>1299.4000244140625</ele><time>2026-05-23T08:55:39.000Z</time></trkpt>
      <trkpt lat="49.56222362816333770751953125" lon="19.5431770384311676025390625"><ele>1305</ele><time>2026-05-23T08:56:17.000Z</time></trkpt>
      <trkpt lat="49.562374167144298553466796875" lon="19.54319288022816181182861328125"><ele>1311.5999755859375</ele><time>2026-05-23T08:56:55.000Z</time></trkpt>
      <trkpt lat="49.562494866549968719482421875" lon="19.543332271277904510498046875"><ele>1317</ele><time>2026-05-23T08:57:31.000Z</time></trkpt>
      <trkpt lat="49.5626673661172389984130859375" lon="19.54339806921780109405517578125"><ele>1322.4000244140625</ele><time>2026-05-23T08:58:07.000Z</time></trkpt>
      <trkpt lat="49.56277079880237579345703125" lon="19.54341282136738300323486328125"><ele>1325.4000244140625</ele><time>2026-05-23T08:58:46.000Z</time></trkpt>
      <trkpt lat="49.5629208348691463470458984375" lon="19.54337057657539844512939453125"><ele>1331.4000244140625</ele><time>2026-05-23T08:59:21.000Z</time></trkpt>
      <trkpt lat="49.56305167637765407562255859375" lon="19.543347023427486419677734375"><ele>1337</ele><time>2026-05-23T08:59:53.000Z</time></trkpt>
      <trkpt lat="49.56321797333657741546630859375" lon="19.54333989880979061126708984375"><ele>1343</ele><time>2026-05-23T09:00:28.000Z</time></trkpt>
      <trkpt lat="49.56335526891052722930908203125" lon="19.54332883469760417938232421875"><ele>1348.800048828125</ele><time>2026-05-23T09:01:03.000Z</time></trkpt>
      <trkpt lat="49.5635927282273769378662109375" lon="19.54334492795169353485107421875"><ele>1355.4000244140625</ele><time>2026-05-23T09:01:45.000Z</time></trkpt>
      <trkpt lat="49.56373530440032482147216796875" lon="19.54338801093399524688720703125"><ele>1358.5999755859375</ele><time>2026-05-23T09:02:20.000Z</time></trkpt>
      <trkpt lat="49.5638765394687652587890625" lon="19.54343411140143871307373046875"><ele>1363.5999755859375</ele><time>2026-05-23T09:02:53.000Z</time></trkpt>
      <trkpt lat="49.564000256359577178955078125" lon="19.54356168396770954132080078125"><ele>1369.5999755859375</ele><time>2026-05-23T09:03:37.000Z</time></trkpt>
      <trkpt lat="49.56415439955890178680419921875" lon="19.5435020886361598968505859375"><ele>1374.4000244140625</ele><time>2026-05-23T09:04:19.000Z</time></trkpt>
      <trkpt lat="49.5642434991896152496337890625" lon="19.5435148291289806365966796875"><ele>1379</ele><time>2026-05-23T09:05:16.000Z</time></trkpt>
      <trkpt lat="49.5643915235996246337890625" lon="19.54351365566253662109375"><ele>1387</ele><time>2026-05-23T09:06:04.000Z</time></trkpt>
      <trkpt lat="49.564580619335174560546875" lon="19.54363443888723850250244140625"><ele>1391.5999755859375</ele><time>2026-05-23T09:07:01.000Z</time></trkpt>
      <trkpt lat="49.5647138915956020355224609375" lon="19.5435691438615322113037109375"><ele>1397.4000244140625</ele><time>2026-05-23T09:07:50.000Z</time></trkpt>
      <trkpt lat="49.56501622684299945831298828125" lon="19.54349932260811328887939453125"><ele>1403.199951171875</ele><time>2026-05-23T09:08:33.000Z</time></trkpt>
      <trkpt lat="49.56524974666535854339599609375" lon="19.54341717995703220367431640625"><ele>1410.4000244140625</ele><time>2026-05-23T09:09:25.000Z</time></trkpt>
      <trkpt lat="49.56542291678488254547119140625" lon="19.5432948879897594451904296875"><ele>1417</ele><time>2026-05-23T09:10:04.000Z</time></trkpt>
      <trkpt lat="49.56558099947869777679443359375" lon="19.54320712946355342864990234375"><ele>1421.4000244140625</ele><time>2026-05-23T09:10:33.000Z</time></trkpt>
      <trkpt lat="49.56578015349805355072021484375" lon="19.54314979724586009979248046875"><ele>1426.5999755859375</ele><time>2026-05-23T09:11:13.000Z</time></trkpt>
      <trkpt lat="49.56592775881290435791015625" lon="19.54315499402582645416259765625"><ele>1433.199951171875</ele><time>2026-05-23T09:11:55.000Z</time></trkpt>
      <trkpt lat="49.56625540740787982940673828125" lon="19.543044604361057281494140625"><ele>1437.4000244140625</ele><time>2026-05-23T09:12:37.000Z</time></trkpt>
      <trkpt lat="49.56648741848766803741455078125" lon="19.5429190434515476226806640625"><ele>1441.5999755859375</ele><time>2026-05-23T09:13:18.000Z</time></trkpt>
      <trkpt lat="49.5667915977537631988525390625" lon="19.542509503662586212158203125"><ele>1446</ele><time>2026-05-23T09:14:06.000Z</time></trkpt>
      <trkpt lat="49.56700860522687435150146484375" lon="19.5422927476465702056884765625"><ele>1452</ele><time>2026-05-23T09:14:45.000Z</time></trkpt>
      <trkpt lat="49.56721513532102108001708984375" lon="19.5419614948332309722900390625"><ele>1455.4000244140625</ele><time>2026-05-23T09:15:28.000Z</time></trkpt>
      <trkpt lat="49.5674116909503936767578125" lon="19.54200088977813720703125"><ele>1458.5999755859375</ele><time>2026-05-23T09:16:11.000Z</time></trkpt>
      <trkpt lat="49.5675295405089855194091796875" lon="19.54178522340953350067138671875"><ele>1458.5999755859375</ele><time>2026-05-23T09:17:26.000Z</time></trkpt>
      <trkpt lat="49.567597098648548126220703125" lon="19.54157182015478610992431640625"><ele>1464</ele><time>2026-05-23T09:17:52.000Z</time></trkpt>
      <trkpt lat="49.5677501522004604339599609375" lon="19.541336707770824432373046875"><ele>1468.800048828125</ele><time>2026-05-23T09:18:24.000Z</time></trkpt>
      <trkpt lat="49.5679838396608829498291015625" lon="19.54108332283794879913330078125"><ele>1474.199951171875</ele><time>2026-05-23T09:19:07.000Z</time></trkpt>
      <trkpt lat="49.5681253261864185333251953125" lon="19.54088198952376842498779296875"><ele>1480.5999755859375</ele><time>2026-05-23T09:19:48.000Z</time></trkpt>
      <trkpt lat="49.568230770528316497802734375" lon="19.54058208502829074859619140625"><ele>1483.800048828125</ele><time>2026-05-23T09:20:32.000Z</time></trkpt>
      <trkpt lat="49.5683603547513484954833984375" lon="19.54032962210476398468017578125"><ele>1489.199951171875</ele><time>2026-05-23T09:21:14.000Z</time></trkpt>
      <trkpt lat="49.56846646964550018310546875" lon="19.540249407291412353515625"><ele>1494</ele><time>2026-05-23T09:21:51.000Z</time></trkpt>
      <trkpt lat="49.56867760978639125823974609375" lon="19.54000809229910373687744140625"><ele>1503.5999755859375</ele><time>2026-05-23T09:22:51.000Z</time></trkpt>
      <trkpt lat="49.568987824022769927978515625" lon="19.53971925191581249237060546875"><ele>1511.4000244140625</ele><time>2026-05-23T09:24:13.000Z</time></trkpt>
      <trkpt lat="49.5692914165556430816650390625" lon="19.5395159907639026641845703125"><ele>1515</ele><time>2026-05-23T09:24:59.000Z</time></trkpt>
      <trkpt lat="49.56953130662441253662109375" lon="19.539561755955219268798828125"><ele>1520.199951171875</ele><time>2026-05-23T09:25:37.000Z</time></trkpt>
      <trkpt lat="49.56975518725812435150146484375" lon="19.539497382938861846923828125"><ele>1525.5999755859375</ele><time>2026-05-23T09:26:22.000Z</time></trkpt>
      <trkpt lat="49.5699435286223888397216796875" lon="19.5393889211118221282958984375"><ele>1530.800048828125</ele><time>2026-05-23T09:27:07.000Z</time></trkpt>
      <trkpt lat="49.570119716227054595947265625" lon="19.53926193527877330780029296875"><ele>1535.4000244140625</ele><time>2026-05-23T09:27:58.000Z</time></trkpt>
      <trkpt lat="49.570397995412349700927734375" lon="19.539198316633701324462890625"><ele>1540.800048828125</ele><time>2026-05-23T09:28:40.000Z</time></trkpt>
      <trkpt lat="49.57067585550248622894287109375" lon="19.53905113041400909423828125"><ele>1546.199951171875</ele><time>2026-05-23T09:29:25.000Z</time></trkpt>
      <trkpt lat="49.57079219631850719451904296875" lon="19.5386449433863162994384765625"><ele>1552</ele><time>2026-05-23T09:30:17.000Z</time></trkpt>
      <trkpt lat="49.57088842056691646575927734375" lon="19.53815652988851070404052734375"><ele>1557.199951171875</ele><time>2026-05-23T09:31:09.000Z</time></trkpt>
      <trkpt lat="49.5708846487104892730712890625" lon="19.53788571059703826904296875"><ele>1561.4000244140625</ele><time>2026-05-23T09:32:19.000Z</time></trkpt>
      <trkpt lat="49.5710112154483795166015625" lon="19.53726637177169322967529296875"><ele>1567.800048828125</ele><time>2026-05-23T09:33:21.000Z</time></trkpt>
      <trkpt lat="49.5709991455078125" lon="19.536805450916290283203125"><ele>1573.199951171875</ele><time>2026-05-23T09:34:07.000Z</time></trkpt>
      <trkpt lat="49.57087215967476367950439453125" lon="19.5361752994358539581298828125"><ele>1579.5999755859375</ele><time>2026-05-23T09:35:03.000Z</time></trkpt>
      <trkpt lat="49.57079756073653697967529296875" lon="19.53552067279815673828125"><ele>1580.5999755859375</ele><time>2026-05-23T09:35:56.000Z</time></trkpt>
      <trkpt lat="49.5708940364420413970947265625" lon="19.53513502143323421478271484375"><ele>1585</ele><time>2026-05-23T09:36:46.000Z</time></trkpt>
      <trkpt lat="49.570960588753223419189453125" lon="19.53484685160219669342041015625"><ele>1590.4000244140625</ele><time>2026-05-23T09:37:22.000Z</time></trkpt>
      <trkpt lat="49.57099989987909793853759765625" lon="19.53467644751071929931640625"><ele>1595.800048828125</ele><time>2026-05-23T09:38:15.000Z</time></trkpt>
      <trkpt lat="49.571011550724506378173828125" lon="19.534449465572834014892578125"><ele>1603.5999755859375</ele><time>2026-05-23T09:38:56.000Z</time></trkpt>
      <trkpt lat="49.57093921490013599395751953125" lon="19.5339252613484859466552734375"><ele>1610.800048828125</ele><time>2026-05-23T09:40:03.000Z</time></trkpt>
      <trkpt lat="49.57092915661633014678955078125" lon="19.533640444278717041015625"><ele>1611.800048828125</ele><time>2026-05-23T09:40:40.000Z</time></trkpt>
      <trkpt lat="49.5708155818283557891845703125" lon="19.53293510712683200836181640625"><ele>1615.800048828125</ele><time>2026-05-23T09:41:38.000Z</time></trkpt>
      <trkpt lat="49.57066093571484088897705078125" lon="19.53267107717692852020263671875"><ele>1617.4000244140625</ele><time>2026-05-23T09:43:00.000Z</time></trkpt>
      <trkpt lat="49.57087534479796886444091796875" lon="19.5324460230767726898193359375"><ele>1619</ele><time>2026-05-23T09:44:46.000Z</time></trkpt>
      <trkpt lat="49.5709292404353618621826171875" lon="19.53223756514489650726318359375"><ele>1622.199951171875</ele><time>2026-05-23T09:45:13.000Z</time></trkpt>
      <trkpt lat="49.57079554907977581024169921875" lon="19.53201008029282093048095703125"><ele>1626.800048828125</ele><time>2026-05-23T09:45:50.000Z</time></trkpt>
      <trkpt lat="49.57072966732084751129150390625" lon="19.531847052276134490966796875"><ele>1631.199951171875</ele><time>2026-05-23T09:46:20.000Z</time></trkpt>
      <trkpt lat="49.5706787891685962677001953125" lon="19.531541280448436737060546875"><ele>1637.4000244140625</ele><time>2026-05-23T09:47:05.000Z</time></trkpt>
      <trkpt lat="49.57077358849346637725830078125" lon="19.53132879920303821563720703125"><ele>1644</ele><time>2026-05-23T09:47:50.000Z</time></trkpt>
      <trkpt lat="49.5709248818457126617431640625" lon="19.531199298799037933349609375"><ele>1650.199951171875</ele><time>2026-05-23T09:48:49.000Z</time></trkpt>
      <trkpt lat="49.57085103727877140045166015625" lon="19.53078732825815677642822265625"><ele>1653.4000244140625</ele><time>2026-05-23T09:49:33.000Z</time></trkpt>
      <trkpt lat="49.57076805643737316131591796875" lon="19.53040930442512035369873046875"><ele>1658.800048828125</ele><time>2026-05-23T09:50:11.000Z</time></trkpt>
      <trkpt lat="49.57071424461901187896728515625" lon="19.53009380958974361419677734375"><ele>1665.4000244140625</ele><time>2026-05-23T09:50:56.000Z</time></trkpt>
      <trkpt lat="49.5709235407412052154541015625" lon="19.52989566139876842498779296875"><ele>1669.5999755859375</ele><time>2026-05-23T09:51:43.000Z</time></trkpt>
      <trkpt lat="49.5712169073522090911865234375" lon="19.53000135719776153564453125"><ele>1673.4000244140625</ele><time>2026-05-23T09:52:39.000Z</time></trkpt>
      <trkpt lat="49.57150935195386409759521484375" lon="19.530283324420452117919921875"><ele>1679</ele><time>2026-05-23T09:53:34.000Z</time></trkpt>
      <trkpt lat="49.57161949016153812408447265625" lon="19.5303951390087604522705078125"><ele>1683.4000244140625</ele><time>2026-05-23T09:54:01.000Z</time></trkpt>
      <trkpt lat="49.57184613682329654693603515625" lon="19.53048625029623508453369140625"><ele>1690.4000244140625</ele><time>2026-05-23T09:54:43.000Z</time></trkpt>
      <trkpt lat="49.57199332304298877716064453125" lon="19.53038533218204975128173828125"><ele>1697</ele><time>2026-05-23T09:55:29.000Z</time></trkpt>
      <trkpt lat="49.5720795728266239166259765625" lon="19.530088193714618682861328125"><ele>1701.800048828125</ele><time>2026-05-23T09:56:06.000Z</time></trkpt>
      <trkpt lat="49.57233421504497528076171875" lon="19.530089534819126129150390625"><ele>1706.5999755859375</ele><time>2026-05-23T09:56:52.000Z</time></trkpt>
      <trkpt lat="49.57269924692809581756591796875" lon="19.5302663929760456085205078125"><ele>1713.199951171875</ele><time>2026-05-23T09:57:50.000Z</time></trkpt>
      <trkpt lat="49.572927989065647125244140625" lon="19.5300127565860748291015625"><ele>1719.199951171875</ele><time>2026-05-23T09:58:42.000Z</time></trkpt>
      <trkpt lat="49.57309604622423648834228515625" lon="19.52972064726054668426513671875"><ele>1722</ele><time>2026-05-23T09:59:23.000Z</time></trkpt>
      <trkpt lat="49.57306520082056522369384765625" lon="19.5294897258281707763671875"><ele>1722.5999755859375</ele><time>2026-05-23T10:00:28.000Z</time></trkpt>
      <trkpt lat="49.57289789803326129913330078125" lon="19.52946432866156101226806640625"><ele>1720.199951171875</ele><time>2026-05-23T10:01:39.000Z</time></trkpt>
      <trkpt lat="49.572889767587184906005859375" lon="19.52949316240847110748291015625"><ele>1721</ele><time>2026-05-23T10:05:44.000Z</time></trkpt>
      <trkpt lat="49.572895132005214691162109375" lon="19.52947656624019145965576171875"><ele>1719.5999755859375</ele><time>2026-05-23T10:12:40.000Z</time></trkpt>
      <trkpt lat="49.57289571873843669891357421875" lon="19.52947388403117656707763671875"><ele>1720.4000244140625</ele><time>2026-05-23T10:14:40.000Z</time></trkpt>
      <trkpt lat="49.57289638929069042205810546875" lon="19.52953423373401165008544921875"><ele>1720.4000244140625</ele><time>2026-05-23T10:16:47.000Z</time></trkpt>
      <trkpt lat="49.572886414825916290283203125" lon="19.52960983850061893463134765625"><ele>1722.5999755859375</ele><time>2026-05-23T10:18:41.000Z</time></trkpt>
      <trkpt lat="49.57290242426097393035888671875" lon="19.5295836031436920166015625"><ele>1722.4000244140625</ele><time>2026-05-23T10:21:03.000Z</time></trkpt>
      <trkpt lat="49.572900496423244476318359375" lon="19.52953959815204143524169921875"><ele>1721</ele><time>2026-05-23T10:26:28.000Z</time></trkpt>
      <trkpt lat="49.57290058024227619171142578125" lon="19.5295234210789203643798828125"><ele>1720.199951171875</ele><time>2026-05-23T10:30:21.000Z</time></trkpt>
      <trkpt lat="49.57290024496614933013916015625" lon="19.5295170508325099945068359375"><ele>1718.800048828125</ele><time>2026-05-23T10:32:49.000Z</time></trkpt>
      <trkpt lat="49.57289689220488071441650390625" lon="19.52951126731932163238525390625"><ele>1714.4000244140625</ele><time>2026-05-23T10:34:45.000Z</time></trkpt>
      <trkpt lat="49.57288205623626708984375" lon="19.5295022986829280853271484375"><ele>1706.800048828125</ele><time>2026-05-23T10:35:57.000Z</time></trkpt>
      <trkpt lat="49.57285850308835506439208984375" lon="19.5294932462275028228759765625"><ele>1698.199951171875</ele><time>2026-05-23T10:37:01.000Z</time></trkpt>
      <trkpt lat="49.57238425500690937042236328125" lon="19.529327116906642913818359375"><ele>1693</ele><time>2026-05-23T10:37:36.000Z</time></trkpt>
      <trkpt lat="49.5717670954763889312744140625" lon="19.52912586741149425506591796875"><ele>1688.4000244140625</ele><time>2026-05-23T10:38:03.000Z</time></trkpt>
      <trkpt lat="49.5714804343879222869873046875" lon="19.52922008000314235687255859375"><ele>1682</ele><time>2026-05-23T10:38:49.000Z</time></trkpt>
      <trkpt lat="49.57129108719527721405029296875" lon="19.52935385517776012420654296875"><ele>1678.5999755859375</ele><time>2026-05-23T10:39:30.000Z</time></trkpt>
      <trkpt lat="49.57094105891883373260498046875" lon="19.5294352434575557708740234375"><ele>1674</ele><time>2026-05-23T10:40:10.000Z</time></trkpt>
      <trkpt lat="49.57061466760933399200439453125" lon="19.52951327897608280181884765625"><ele>1667.4000244140625</ele><time>2026-05-23T10:40:50.000Z</time></trkpt>
      <trkpt lat="49.57036807201802730560302734375" lon="19.5296052284538745880126953125"><ele>1660.199951171875</ele><time>2026-05-23T10:41:30.000Z</time></trkpt>
      <trkpt lat="49.57014142535626888275146484375" lon="19.5295566134154796600341796875"><ele>1652.800048828125</ele><time>2026-05-23T10:42:05.000Z</time></trkpt>
      <trkpt lat="49.5698895491659641265869140625" lon="19.52946089208126068115234375"><ele>1645.199951171875</ele><time>2026-05-23T10:42:45.000Z</time></trkpt>
      <trkpt lat="49.56971361301839351654052734375" lon="19.52927774749696254730224609375"><ele>1638.800048828125</ele><time>2026-05-23T10:43:28.000Z</time></trkpt>
      <trkpt lat="49.5696206577122211456298828125" lon="19.52919845469295978546142578125"><ele>1633</ele><time>2026-05-23T10:44:17.000Z</time></trkpt>
      <trkpt lat="49.56941303797066211700439453125" lon="19.52894230373203754425048828125"><ele>1624.5999755859375</ele><time>2026-05-23T10:45:21.000Z</time></trkpt>
      <trkpt lat="49.5692183263599872589111328125" lon="19.528726972639560699462890625"><ele>1616.5999755859375</ele><time>2026-05-23T10:46:13.000Z</time></trkpt>
      <trkpt lat="49.56897449679672718048095703125" lon="19.52826060354709625244140625"><ele>1611.4000244140625</ele><time>2026-05-23T10:47:52.000Z</time></trkpt>
      <trkpt lat="49.5690040849149227142333984375" lon="19.527731873095035552978515625"><ele>1609.5999755859375</ele><time>2026-05-23T10:48:30.000Z</time></trkpt>
      <trkpt lat="49.5690402947366237640380859375" lon="19.527322836220264434814453125"><ele>1606.5999755859375</ele><time>2026-05-23T10:48:58.000Z</time></trkpt>
      <trkpt lat="49.569095782935619354248046875" lon="19.5268509350717067718505859375"><ele>1604.4000244140625</ele><time>2026-05-23T10:49:28.000Z</time></trkpt>
      <trkpt lat="49.56918152980506420135498046875" lon="19.52631072141230106353759765625"><ele>1599.4000244140625</ele><time>2026-05-23T10:50:09.000Z</time></trkpt>
      <trkpt lat="49.5692545361816883087158203125" lon="19.52569909393787384033203125"><ele>1597.199951171875</ele><time>2026-05-23T10:50:51.000Z</time></trkpt>
      <trkpt lat="49.56931161694228649139404296875" lon="19.525257535278797149658203125"><ele>1592</ele><time>2026-05-23T10:51:33.000Z</time></trkpt>
      <trkpt lat="49.56929770298302173614501953125" lon="19.524564184248447418212890625"><ele>1585</ele><time>2026-05-23T10:52:33.000Z</time></trkpt>
      <trkpt lat="49.5692503452301025390625" lon="19.52410242520272731781005859375"><ele>1578.800048828125</ele><time>2026-05-23T10:53:13.000Z</time></trkpt>
      <trkpt lat="49.569219835102558135986328125" lon="19.5235414244234561920166015625"><ele>1571.4000244140625</ele><time>2026-05-23T10:54:00.000Z</time></trkpt>
      <trkpt lat="49.569242298603057861328125" lon="19.52304479666054248809814453125"><ele>1568.199951171875</ele><time>2026-05-23T10:54:36.000Z</time></trkpt>
      <trkpt lat="49.569197036325931549072265625" lon="19.52250164933502674102783203125"><ele>1561.5999755859375</ele><time>2026-05-23T10:55:22.000Z</time></trkpt>
      <trkpt lat="49.56919443793594837188720703125" lon="19.52202723361551761627197265625"><ele>1555</ele><time>2026-05-23T10:55:58.000Z</time></trkpt>
      <trkpt lat="49.5692677795886993408203125" lon="19.52163445763289928436279296875"><ele>1548.800048828125</ele><time>2026-05-23T10:56:29.000Z</time></trkpt>
      <trkpt lat="49.569361992180347442626953125" lon="19.52107706107199192047119140625"><ele>1544.199951171875</ele><time>2026-05-23T10:57:07.000Z</time></trkpt>
      <trkpt lat="49.56950942985713481903076171875" lon="19.52042721211910247802734375"><ele>1540</ele><time>2026-05-23T10:57:56.000Z</time></trkpt>
      <trkpt lat="49.56946601159870624542236328125" lon="19.51986755244433879852294921875"><ele>1535.800048828125</ele><time>2026-05-23T10:58:36.000Z</time></trkpt>
      <trkpt lat="49.5695145428180694580078125" lon="19.519298337399959564208984375"><ele>1531</ele><time>2026-05-23T10:59:15.000Z</time></trkpt>
      <trkpt lat="49.5695039816200733184814453125" lon="19.518684111535549163818359375"><ele>1525.199951171875</ele><time>2026-05-23T11:00:00.000Z</time></trkpt>
      <trkpt lat="49.56942343153059482574462890625" lon="19.51837104745209217071533203125"><ele>1518.5999755859375</ele><time>2026-05-23T11:00:34.000Z</time></trkpt>
      <trkpt lat="49.56928186118602752685546875" lon="19.51785095036029815673828125"><ele>1511.800048828125</ele><time>2026-05-23T11:01:26.000Z</time></trkpt>
      <trkpt lat="49.56913928501307964324951171875" lon="19.5173371396958827972412109375"><ele>1504.4000244140625</ele><time>2026-05-23T11:02:11.000Z</time></trkpt>
      <trkpt lat="49.569056220352649688720703125" lon="19.5168442837893962860107421875"><ele>1498.800048828125</ele><time>2026-05-23T11:02:56.000Z</time></trkpt>
      <trkpt lat="49.5689849741756916046142578125" lon="19.51631278730928897857666015625"><ele>1493.4000244140625</ele><time>2026-05-23T11:03:42.000Z</time></trkpt>
      <trkpt lat="49.56884155981242656707763671875" lon="19.5158340968191623687744140625"><ele>1487</ele><time>2026-05-23T11:04:30.000Z</time></trkpt>
      <trkpt lat="49.56880182959139347076416015625" lon="19.515372253954410552978515625"><ele>1481.5999755859375</ele><time>2026-05-23T11:05:12.000Z</time></trkpt>
      <trkpt lat="49.568695127964019775390625" lon="19.51471134088933467864990234375"><ele>1475</ele><time>2026-05-23T11:06:04.000Z</time></trkpt>
      <trkpt lat="49.5686709880828857421875" lon="19.5141513459384441375732421875"><ele>1468.4000244140625</ele><time>2026-05-23T11:06:51.000Z</time></trkpt>
      <trkpt lat="49.56863016821444034576416015625" lon="19.51352764852344989776611328125"><ele>1460.800048828125</ele><time>2026-05-23T11:07:44.000Z</time></trkpt>
      <trkpt lat="49.568555988371372222900390625" lon="19.5131720043718814849853515625"><ele>1454</ele><time>2026-05-23T11:08:21.000Z</time></trkpt>
      <trkpt lat="49.56844559870660305023193359375" lon="19.512738324701786041259765625"><ele>1447.5999755859375</ele><time>2026-05-23T11:09:04.000Z</time></trkpt>
      <trkpt lat="49.56840184517204761505126953125" lon="19.5123908109962940216064453125"><ele>1442.4000244140625</ele><time>2026-05-23T11:09:43.000Z</time></trkpt>
      <trkpt lat="49.568352811038494110107421875" lon="19.5120709575712680816650390625"><ele>1438.5999755859375</ele><time>2026-05-23T11:10:17.000Z</time></trkpt>
      <trkpt lat="49.56828366033732891082763671875" lon="19.51168186962604522705078125"><ele>1432.199951171875</ele><time>2026-05-23T11:11:00.000Z</time></trkpt>
      <trkpt lat="49.5682646334171295166015625" lon="19.5112166740000247955322265625"><ele>1425.800048828125</ele><time>2026-05-23T11:11:45.000Z</time></trkpt>
      <trkpt lat="49.5681870169937610626220703125" lon="19.51079112477600574493408203125"><ele>1419.4000244140625</ele><time>2026-05-23T11:12:22.000Z</time></trkpt>
      <trkpt lat="49.568091295659542083740234375" lon="19.51047831214964389801025390625"><ele>1413.800048828125</ele><time>2026-05-23T11:12:57.000Z</time></trkpt>
      <trkpt lat="49.56800789572298526763916015625" lon="19.50999668799340724945068359375"><ele>1406.199951171875</ele><time>2026-05-23T11:13:41.000Z</time></trkpt>
      <trkpt lat="49.56783489324152469635009765625" lon="19.5097223483026027679443359375"><ele>1399.199951171875</ele><time>2026-05-23T11:14:16.000Z</time></trkpt>
      <trkpt lat="49.56763171590864658355712890625" lon="19.50950793921947479248046875"><ele>1392.5999755859375</ele><time>2026-05-23T11:14:48.000Z</time></trkpt>
      <trkpt lat="49.5673880539834499359130859375" lon="19.50935262255370616912841796875"><ele>1385</ele><time>2026-05-23T11:15:27.000Z</time></trkpt>
      <trkpt lat="49.5671248622238636016845703125" lon="19.50931490398943424224853515625"><ele>1378.4000244140625</ele><time>2026-05-23T11:16:04.000Z</time></trkpt>
      <trkpt lat="49.5669283904135227203369140625" lon="19.50916889123618602752685546875"><ele>1371.800048828125</ele><time>2026-05-23T11:16:37.000Z</time></trkpt>
      <trkpt lat="49.566801488399505615234375" lon="19.508997984230518341064453125"><ele>1366.800048828125</ele><time>2026-05-23T11:17:02.000Z</time></trkpt>
      <trkpt lat="49.56660878844559192657470703125" lon="19.5087973214685916900634765625"><ele>1360.199951171875</ele><time>2026-05-23T11:17:35.000Z</time></trkpt>
      <trkpt lat="49.56645288504660129547119140625" lon="19.50867888517677783966064453125"><ele>1355</ele><time>2026-05-23T11:18:13.000Z</time></trkpt>
      <trkpt lat="49.56627317704260349273681640625" lon="19.5086248219013214111328125"><ele>1349.800048828125</ele><time>2026-05-23T11:18:43.000Z</time></trkpt>
      <trkpt lat="49.56603328697383403778076171875" lon="19.50864988379180431365966796875"><ele>1344.199951171875</ele><time>2026-05-23T11:19:21.000Z</time></trkpt>
      <trkpt lat="49.5658132620155811309814453125" lon="19.50853119604289531707763671875"><ele>1336.800048828125</ele><time>2026-05-23T11:20:02.000Z</time></trkpt>
      <trkpt lat="49.56555090844631195068359375" lon="19.50841116718947887420654296875"><ele>1331</ele><time>2026-05-23T11:20:43.000Z</time></trkpt>
      <trkpt lat="49.56536524929106235504150390625" lon="19.508291892707347869873046875"><ele>1325</ele><time>2026-05-23T11:21:25.000Z</time></trkpt>
      <trkpt lat="49.56520331092178821563720703125" lon="19.5082417689263820648193359375"><ele>1321.4000244140625</ele><time>2026-05-23T11:22:07.000Z</time></trkpt>
      <trkpt lat="49.56499828957021236419677734375" lon="19.50814160518348217010498046875"><ele>1315.5999755859375</ele><time>2026-05-23T11:22:45.000Z</time></trkpt>
      <trkpt lat="49.5647812820971012115478515625" lon="19.5080691017210483551025390625"><ele>1310</ele><time>2026-05-23T11:23:13.000Z</time></trkpt>
      <trkpt lat="49.56461037509143352508544921875" lon="19.5080312155187129974365234375"><ele>1304.4000244140625</ele><time>2026-05-23T11:23:46.000Z</time></trkpt>
      <trkpt lat="49.56435330212116241455078125" lon="19.5079262740910053253173828125"><ele>1296.800048828125</ele><time>2026-05-23T11:24:30.000Z</time></trkpt>
      <trkpt lat="49.5641284994781017303466796875" lon="19.50795200653374195098876953125"><ele>1290.4000244140625</ele><time>2026-05-23T11:25:08.000Z</time></trkpt>
      <trkpt lat="49.563923142850399017333984375" lon="19.5079105161130428314208984375"><ele>1283</ele><time>2026-05-23T11:25:38.000Z</time></trkpt>
      <trkpt lat="49.56367545761168003082275390625" lon="19.5077948458492755889892578125"><ele>1277.199951171875</ele><time>2026-05-23T11:26:20.000Z</time></trkpt>
      <trkpt lat="49.56346213817596435546875" lon="19.5077810995280742645263671875"><ele>1270.800048828125</ele><time>2026-05-23T11:26:52.000Z</time></trkpt>
      <trkpt lat="49.5633208192884922027587890625" lon="19.507793672382831573486328125"><ele>1265.4000244140625</ele><time>2026-05-23T11:27:23.000Z</time></trkpt>
      <trkpt lat="49.56303943879902362823486328125" lon="19.50758169405162334442138671875"><ele>1260.199951171875</ele><time>2026-05-23T11:28:05.000Z</time></trkpt>
      <trkpt lat="49.562932737171649932861328125" lon="19.5070503652095794677734375"><ele>1255.800048828125</ele><time>2026-05-23T11:28:43.000Z</time></trkpt>
      <trkpt lat="49.56277641467750072479248046875" lon="19.50667527504265308380126953125"><ele>1249.800048828125</ele><time>2026-05-23T11:29:22.000Z</time></trkpt>
      <trkpt lat="49.56268622539937496185302734375" lon="19.50605300255119800567626953125"><ele>1245.5999755859375</ele><time>2026-05-23T11:30:02.000Z</time></trkpt>
      <trkpt lat="49.56260047852993011474609375" lon="19.50543257407844066619873046875"><ele>1240.199951171875</ele><time>2026-05-23T11:30:47.000Z</time></trkpt>
      <trkpt lat="49.56244222819805145263671875" lon="19.50515178032219409942626953125"><ele>1234.4000244140625</ele><time>2026-05-23T11:31:16.000Z</time></trkpt>
      <trkpt lat="49.5621627755463123321533203125" lon="19.504973329603672027587890625"><ele>1228.5999755859375</ele><time>2026-05-23T11:31:48.000Z</time></trkpt>
      <trkpt lat="49.56192146055400371551513671875" lon="19.5048192702233791351318359375"><ele>1222.5999755859375</ele><time>2026-05-23T11:32:24.000Z</time></trkpt>
      <trkpt lat="49.56166581250727176666259765625" lon="19.504448287189006805419921875"><ele>1215</ele><time>2026-05-23T11:32:54.000Z</time></trkpt>
      <trkpt lat="49.561513848602771759033203125" lon="19.5040146075189113616943359375"><ele>1207.5999755859375</ele><time>2026-05-23T11:33:24.000Z</time></trkpt>
      <trkpt lat="49.56133036874234676361083984375" lon="19.50354362837970256805419921875"><ele>1199</ele><time>2026-05-23T11:34:05.000Z</time></trkpt>
      <trkpt lat="49.56117765046656131744384765625" lon="19.50323567725718021392822265625"><ele>1192.4000244140625</ele><time>2026-05-23T11:34:37.000Z</time></trkpt>
      <trkpt lat="49.56091403961181640625" lon="19.50316091068089008331298828125"><ele>1186.5999755859375</ele><time>2026-05-23T11:35:14.000Z</time></trkpt>
      <trkpt lat="49.5608585514128208160400390625" lon="19.5030966214835643768310546875"><ele>1188.5999755859375</ele><time>2026-05-23T11:35:50.000Z</time></trkpt>
      <trkpt lat="49.5608572103083133697509765625" lon="19.50314498506486415863037109375"><ele>1189</ele><time>2026-05-23T11:37:13.000Z</time></trkpt>
      <trkpt lat="49.56070273183286190032958984375" lon="19.50330960564315319061279296875"><ele>1183.800048828125</ele><time>2026-05-23T11:38:08.000Z</time></trkpt>
      <trkpt lat="49.56048530526459217071533203125" lon="19.5033826120197772979736328125"><ele>1179.4000244140625</ele><time>2026-05-23T11:38:39.000Z</time></trkpt>
      <trkpt lat="49.560223035514354705810546875" lon="19.50355385430157184600830078125"><ele>1172.800048828125</ele><time>2026-05-23T11:39:24.000Z</time></trkpt>
      <trkpt lat="49.5599921979010105133056640625" lon="19.50355033390223979949951171875"><ele>1166.800048828125</ele><time>2026-05-23T11:39:59.000Z</time></trkpt>
      <trkpt lat="49.5597994141280651092529296875" lon="19.50350808911025524139404296875"><ele>1161.4000244140625</ele><time>2026-05-23T11:40:33.000Z</time></trkpt>
      <trkpt lat="49.55957067199051380157470703125" lon="19.50357891619205474853515625"><ele>1155.800048828125</ele><time>2026-05-23T11:41:08.000Z</time></trkpt>
      <trkpt lat="49.55932256765663623809814453125" lon="19.50370053760707378387451171875"><ele>1149.199951171875</ele><time>2026-05-23T11:41:52.000Z</time></trkpt>
      <trkpt lat="49.55913028679788112640380859375" lon="19.50379424728453159332275390625"><ele>1144.4000244140625</ele><time>2026-05-23T11:42:30.000Z</time></trkpt>
      <trkpt lat="49.558910764753818511962890625" lon="19.5039113424718379974365234375"><ele>1139.5999755859375</ele><time>2026-05-23T11:43:06.000Z</time></trkpt>
      <trkpt lat="49.5586569607257843017578125" lon="19.50418149121105670928955078125"><ele>1133.800048828125</ele><time>2026-05-23T11:43:44.000Z</time></trkpt>
      <trkpt lat="49.558486305177211761474609375" lon="19.50438022613525390625"><ele>1127.199951171875</ele><time>2026-05-23T11:44:20.000Z</time></trkpt>
      <trkpt lat="49.55828656442463397979736328125" lon="19.50453638099133968353271484375"><ele>1120.5999755859375</ele><time>2026-05-23T11:44:55.000Z</time></trkpt>
      <trkpt lat="49.55809034407138824462890625" lon="19.50476923026144504547119140625"><ele>1113</ele><time>2026-05-23T11:45:43.000Z</time></trkpt>
      <trkpt lat="49.5579738356173038482666015625" lon="19.50486260466277599334716796875"><ele>1108</ele><time>2026-05-23T11:46:11.000Z</time></trkpt>
      <trkpt lat="49.55778700299561023712158203125" lon="19.50496804900467395782470703125"><ele>1102.199951171875</ele><time>2026-05-23T11:46:48.000Z</time></trkpt>
      <trkpt lat="49.55756924115121364593505859375" lon="19.505075924098491668701171875"><ele>1097</ele><time>2026-05-23T11:47:29.000Z</time></trkpt>
      <trkpt lat="49.5572724379599094390869140625" lon="19.5052373595535755157470703125"><ele>1090.800048828125</ele><time>2026-05-23T11:48:20.000Z</time></trkpt>
      <trkpt lat="49.55701720900833606719970703125" lon="19.50531640090048313140869140625"><ele>1086.199951171875</ele><time>2026-05-23T11:48:57.000Z</time></trkpt>
      <trkpt lat="49.5567876286804676055908203125" lon="19.5053674466907978057861328125"><ele>1080</ele><time>2026-05-23T11:49:36.000Z</time></trkpt>
      <trkpt lat="49.5566608943045139312744140625" lon="19.50533785857260227203369140625"><ele>1075.199951171875</ele><time>2026-05-23T11:50:06.000Z</time></trkpt>
      <trkpt lat="49.55652954988181591033935546875" lon="19.50539435259997844696044921875"><ele>1071</ele><time>2026-05-23T11:50:34.000Z</time></trkpt>
      <trkpt lat="49.55636392347514629364013671875" lon="19.50534791685640811920166015625"><ele>1065.199951171875</ele><time>2026-05-23T11:51:06.000Z</time></trkpt>
      <trkpt lat="49.55613794736564159393310546875" lon="19.50536124408245086669921875"><ele>1060.199951171875</ele><time>2026-05-23T11:51:37.000Z</time></trkpt>
      <trkpt lat="49.5559264719486236572265625" lon="19.50534238480031490325927734375"><ele>1055.4000244140625</ele><time>2026-05-23T11:52:13.000Z</time></trkpt>
      <trkpt lat="49.55569588579237461090087890625" lon="19.5053211785852909088134765625"><ele>1049.800048828125</ele><time>2026-05-23T11:52:55.000Z</time></trkpt>
      <trkpt lat="49.55548281781375408172607421875" lon="19.50532042421400547027587890625"><ele>1040.800048828125</ele><time>2026-05-23T11:53:45.000Z</time></trkpt>
      <trkpt lat="49.55529271624982357025146484375" lon="19.50531858019530773162841796875"><ele>1035.4000244140625</ele><time>2026-05-23T11:54:27.000Z</time></trkpt>
      <trkpt lat="49.5550666563212871551513671875" lon="19.50536535121500492095947265625"><ele>1029.4000244140625</ele><time>2026-05-23T11:55:13.000Z</time></trkpt>
      <trkpt lat="49.5548326335847377777099609375" lon="19.505386054515838623046875"><ele>1022.5999755859375</ele><time>2026-05-23T11:55:53.000Z</time></trkpt>
      <trkpt lat="49.5546284504234790802001953125" lon="19.50539301149547100067138671875"><ele>1016.20001220703125</ele><time>2026-05-23T11:56:29.000Z</time></trkpt>
      <trkpt lat="49.55453775823116302490234375" lon="19.50543894432485103607177734375"><ele>1011</ele><time>2026-05-23T11:57:19.000Z</time></trkpt>
      <trkpt lat="49.55427867360413074493408203125" lon="19.50547481887042522430419921875"><ele>1000.79998779296875</ele><time>2026-05-23T11:58:20.000Z</time></trkpt>
      <trkpt lat="49.554043896496295928955078125" lon="19.50569442473351955413818359375"><ele>997</ele><time>2026-05-23T11:59:15.000Z</time></trkpt>
      <trkpt lat="49.55372898839414119720458984375" lon="19.50534372590482234954833984375"><ele>993.5999755859375</ele><time>2026-05-23T11:59:47.000Z</time></trkpt>
      <trkpt lat="49.55322221852838993072509765625" lon="19.50501884333789348602294921875"><ele>992</ele><time>2026-05-23T12:00:36.000Z</time></trkpt>
      <trkpt lat="49.5529289357364177703857421875" lon="19.504860676825046539306640625"><ele>993.5999755859375</ele><time>2026-05-23T12:01:14.000Z</time></trkpt>
      <trkpt lat="49.5524484850466251373291015625" lon="19.504752717912197113037109375"><ele>997.20001220703125</ele><time>2026-05-23T12:01:59.000Z</time></trkpt>
      <trkpt lat="49.5518144778907299041748046875" lon="19.50467996299266815185546875"><ele>996</ele><time>2026-05-23T12:02:54.000Z</time></trkpt>
      <trkpt lat="49.55089489929378032684326171875" lon="19.5047892630100250244140625"><ele>994.5999755859375</ele><time>2026-05-23T12:04:13.000Z</time></trkpt>
      <trkpt lat="49.55044160597026348114013671875" lon="19.50457309372723102569580078125"><ele>994</ele><time>2026-05-23T12:04:56.000Z</time></trkpt>
      <trkpt lat="49.55021982081234455108642578125" lon="19.50436656363308429718017578125"><ele>989.5999755859375</ele><time>2026-05-23T12:05:22.000Z</time></trkpt>
      <trkpt lat="49.54980273731052875518798828125" lon="19.5040436089038848876953125"><ele>985.20001220703125</ele><time>2026-05-23T12:06:03.000Z</time></trkpt>
      <trkpt lat="49.54940526746213436126708984375" lon="19.5038620568811893463134765625"><ele>982.79998779296875</ele><time>2026-05-23T12:06:48.000Z</time></trkpt>
      <trkpt lat="49.549146853387355804443359375" lon="19.50360246933996677398681640625"><ele>977.79998779296875</ele><time>2026-05-23T12:07:16.000Z</time></trkpt>
      <trkpt lat="49.54851678572595119476318359375" lon="19.50356290675699710845947265625"><ele>977</ele><time>2026-05-23T12:08:10.000Z</time></trkpt>
      <trkpt lat="49.54801068641245365142822265625" lon="19.5037202350795269012451171875"><ele>972.4000244140625</ele><time>2026-05-23T12:08:52.000Z</time></trkpt>
      <trkpt lat="49.54745915718376636505126953125" lon="19.5040273480117321014404296875"><ele>971</ele><time>2026-05-23T12:09:55.000Z</time></trkpt>
      <trkpt lat="49.5471088774502277374267578125" lon="19.503833390772342681884765625"><ele>973</ele><time>2026-05-23T12:10:24.000Z</time></trkpt>
      <trkpt lat="49.54675130546092987060546875" lon="19.50368528254330158233642578125"><ele>967</ele><time>2026-05-23T12:10:57.000Z</time></trkpt>
      <trkpt lat="49.54651569016277790069580078125" lon="19.50351261533796787261962890625"><ele>961.20001220703125</ele><time>2026-05-23T12:11:20.000Z</time></trkpt>
      <trkpt lat="49.546211846172809600830078125" lon="19.503446482121944427490234375"><ele>954.4000244140625</ele><time>2026-05-23T12:11:45.000Z</time></trkpt>
      <trkpt lat="49.54592652618885040283203125" lon="19.5036283694207668304443359375"><ele>947.5999755859375</ele><time>2026-05-23T12:12:15.000Z</time></trkpt>
      <trkpt lat="49.545514471828937530517578125" lon="19.50366868637502193450927734375"><ele>940.79998779296875</ele><time>2026-05-23T12:12:49.000Z</time></trkpt>
      <trkpt lat="49.54510979354381561279296875" lon="19.5035616494715213775634765625"><ele>935.20001220703125</ele><time>2026-05-23T12:13:23.000Z</time></trkpt>
      <trkpt lat="49.54474258236587047576904296875" lon="19.5033816061913967132568359375"><ele>931</ele><time>2026-05-23T12:13:57.000Z</time></trkpt>
      <trkpt lat="49.5444390736520290374755859375" lon="19.503111205995082855224609375"><ele>927</ele><time>2026-05-23T12:14:26.000Z</time></trkpt>
      <trkpt lat="49.543910510838031768798828125" lon="19.50292319990694522857666015625"><ele>920.5999755859375</ele><time>2026-05-23T12:15:10.000Z</time></trkpt>
      <trkpt lat="49.54344707541167736053466796875" lon="19.50279562734067440032958984375"><ele>916</ele><time>2026-05-23T12:15:44.000Z</time></trkpt>
      <trkpt lat="49.543090425431728363037109375" lon="19.5027368701994419097900390625"><ele>913</ele><time>2026-05-23T12:16:14.000Z</time></trkpt>
      <trkpt lat="49.54270519316196441650390625" lon="19.5029517821967601776123046875"><ele>909.20001220703125</ele><time>2026-05-23T12:16:52.000Z</time></trkpt>
      <trkpt lat="49.5425046980381011962890625" lon="19.50327314436435699462890625"><ele>906.4000244140625</ele><time>2026-05-23T12:17:17.000Z</time></trkpt>
      <trkpt lat="49.54195844940841197967529296875" lon="19.5035177282989025115966796875"><ele>902</ele><time>2026-05-23T12:17:55.000Z</time></trkpt>
      <trkpt lat="49.541837833821773529052734375" lon="19.503513872623443603515625"><ele>901.20001220703125</ele><time>2026-05-23T12:18:49.000Z</time></trkpt>
      <trkpt lat="49.5417159609496593475341796875" lon="19.503132663667201995849609375"><ele>899.5999755859375</ele><time>2026-05-23T12:20:41.000Z</time></trkpt>
      <trkpt lat="49.5414827764034271240234375" lon="19.50245733372867107391357421875"><ele>897.79998779296875</ele><time>2026-05-23T12:21:37.000Z</time></trkpt>
      <trkpt lat="49.541249088943004608154296875" lon="19.5016886293888092041015625"><ele>893.5999755859375</ele><time>2026-05-23T12:22:26.000Z</time></trkpt>
      <trkpt lat="49.54087533988058567047119140625" lon="19.50151897966861724853515625"><ele>891</ele><time>2026-05-23T12:23:09.000Z</time></trkpt>
      <trkpt lat="49.54080761410295963287353515625" lon="19.5018872804939746856689453125"><ele>889.20001220703125</ele><time>2026-05-23T12:24:00.000Z</time></trkpt>
      <trkpt lat="49.5406383834779262542724609375" lon="19.50269470922648906707763671875"><ele>883.20001220703125</ele><time>2026-05-23T12:24:44.000Z</time></trkpt>
      <trkpt lat="49.5405492000281810760498046875" lon="19.50323316268622875213623046875"><ele>878.5999755859375</ele><time>2026-05-23T12:25:17.000Z</time></trkpt>
      <trkpt lat="49.54042254947125911712646484375" lon="19.50397278182208538055419921875"><ele>872.5999755859375</ele><time>2026-05-23T12:25:57.000Z</time></trkpt>
      <trkpt lat="49.54041969962418079376220703125" lon="19.5045886002480983734130859375"><ele>867.5999755859375</ele><time>2026-05-23T12:26:35.000Z</time></trkpt>
      <trkpt lat="49.540640898048877716064453125" lon="19.50502973981201648712158203125"><ele>864.4000244140625</ele><time>2026-05-23T12:27:25.000Z</time></trkpt>
      <trkpt lat="49.5408884994685649871826171875" lon="19.50559794902801513671875"><ele>861.79998779296875</ele><time>2026-05-23T12:28:05.000Z</time></trkpt>
      <trkpt lat="49.541261494159698486328125" lon="19.5056225918233394622802734375"><ele>860.79998779296875</ele><time>2026-05-23T12:28:48.000Z</time></trkpt>
      <trkpt lat="49.5418926514685153961181640625" lon="19.50538446195423603057861328125"><ele>861.20001220703125</ele><time>2026-05-23T12:29:46.000Z</time></trkpt>
      <trkpt lat="49.54195710830390453338623046875" lon="19.5058002881705760955810546875"><ele>857</ele><time>2026-05-23T12:30:23.000Z</time></trkpt>
      <trkpt lat="49.5417055673897266387939453125" lon="19.50609524734318256378173828125"><ele>851.4000244140625</ele><time>2026-05-23T12:30:56.000Z</time></trkpt>
      <trkpt lat="49.541411362588405609130859375" lon="19.50642901472747325897216796875"><ele>846.79998779296875</ele><time>2026-05-23T12:31:26.000Z</time></trkpt>
      <trkpt lat="49.5412254519760608673095703125" lon="19.50684140436351299285888671875"><ele>842</ele><time>2026-05-23T12:32:06.000Z</time></trkpt>
      <trkpt lat="49.5411233603954315185546875" lon="19.507027901709079742431640625"><ele>838.79998779296875</ele><time>2026-05-23T12:32:40.000Z</time></trkpt>
      <trkpt lat="49.5412851311266422271728515625" lon="19.50716771185398101806640625"><ele>836.79998779296875</ele><time>2026-05-23T12:33:24.000Z</time></trkpt>
      <trkpt lat="49.54140339978039264678955078125" lon="19.5075024850666522979736328125"><ele>840.4000244140625</ele><time>2026-05-23T12:34:02.000Z</time></trkpt>
      <trkpt lat="49.54142636619508266448974609375" lon="19.50753978453576564788818359375"><ele>839.4000244140625</ele><time>2026-05-23T12:35:07.000Z</time></trkpt>
      <trkpt lat="49.54140365123748779296875" lon="19.507542550563812255859375"><ele>838</ele><time>2026-05-23T12:37:38.000Z</time></trkpt>
      <trkpt lat="49.54145704396069049835205078125" lon="19.50758001767098903656005859375"><ele>838</ele><time>2026-05-23T12:39:15.000Z</time></trkpt>
      <trkpt lat="49.5414041541516780853271484375" lon="19.50739712454378604888916015625"><ele>837</ele><time>2026-05-23T12:40:08.000Z</time></trkpt>
      <trkpt lat="49.541287980973720550537109375" lon="19.507253207266330718994140625"><ele>837</ele><time>2026-05-23T12:41:11.000Z</time></trkpt>
      <trkpt lat="49.5409391261637210845947265625" lon="19.507184810936450958251953125"><ele>835.20001220703125</ele><time>2026-05-23T12:42:19.000Z</time></trkpt>
      <trkpt lat="49.54073552973568439483642578125" lon="19.50748815201222896575927734375"><ele>831.20001220703125</ele><time>2026-05-23T12:42:52.000Z</time></trkpt>
      <trkpt lat="49.54036471433937549591064453125" lon="19.5078397728502750396728515625"><ele>827.5999755859375</ele><time>2026-05-23T12:43:26.000Z</time></trkpt>
      <trkpt lat="49.54010973684489727020263671875" lon="19.50806180946528911590576171875"><ele>824.5999755859375</ele><time>2026-05-23T12:43:57.000Z</time></trkpt>
      <trkpt lat="49.53991041518747806549072265625" lon="19.50848526321351528167724609375"><ele>820.4000244140625</ele><time>2026-05-23T12:44:25.000Z</time></trkpt>
      <trkpt lat="49.539740346372127532958984375" lon="19.5090217888355255126953125"><ele>817</ele><time>2026-05-23T12:44:54.000Z</time></trkpt>
      <trkpt lat="49.53978854231536388397216796875" lon="19.509583376348018646240234375"><ele>816.5999755859375</ele><time>2026-05-23T12:45:29.000Z</time></trkpt>
      <trkpt lat="49.539684355258941650390625" lon="19.5100877992808818817138671875"><ele>820.20001220703125</ele><time>2026-05-23T12:46:03.000Z</time></trkpt>
      <trkpt lat="49.53963045962154865264892578125" lon="19.5110642910003662109375"><ele>820.5999755859375</ele><time>2026-05-23T12:47:03.000Z</time></trkpt>
      <trkpt lat="49.53965510241687297821044921875" lon="19.51159344054758548736572265625"><ele>818.79998779296875</ele><time>2026-05-23T12:47:36.000Z</time></trkpt>
      <trkpt lat="49.53969835303723812103271484375" lon="19.51227589510381221771240234375"><ele>816.20001220703125</ele><time>2026-05-23T12:48:09.000Z</time></trkpt>
      <trkpt lat="49.53979457728564739227294921875" lon="19.51296907849609851837158203125"><ele>817</ele><time>2026-05-23T12:48:52.000Z</time></trkpt>
      <trkpt lat="49.53987143933773040771484375" lon="19.51325791887938976287841796875"><ele>819.20001220703125</ele><time>2026-05-23T12:49:15.000Z</time></trkpt>
      <trkpt lat="49.5398689247667789459228515625" lon="19.5136675424873828887939453125"><ele>821.20001220703125</ele><time>2026-05-23T12:49:43.000Z</time></trkpt>
      <trkpt lat="49.5397921465337276458740234375" lon="19.51428704895079135894775390625"><ele>825.5999755859375</ele><time>2026-05-23T12:50:21.000Z</time></trkpt>
      <trkpt lat="49.5395594649016857147216796875" lon="19.51490999199450016021728515625"><ele>828</ele><time>2026-05-23T12:51:03.000Z</time></trkpt>
      <trkpt lat="49.5394991151988506317138671875" lon="19.51579160057008266448974609375"><ele>828.20001220703125</ele><time>2026-05-23T12:51:45.000Z</time></trkpt>
      <trkpt lat="49.5396084152162075042724609375" lon="19.51650582253932952880859375"><ele>826.5999755859375</ele><time>2026-05-23T12:52:27.000Z</time></trkpt>
      <trkpt lat="49.5397368259727954864501953125" lon="19.5173240639269351959228515625"><ele>827.20001220703125</ele><time>2026-05-23T12:53:08.000Z</time></trkpt>
      <trkpt lat="49.53982559032738208770751953125" lon="19.5180308260023593902587890625"><ele>827.20001220703125</ele><time>2026-05-23T12:53:49.000Z</time></trkpt>
      <trkpt lat="49.54015231691300868988037109375" lon="19.51872644014656543731689453125"><ele>825.79998779296875</ele><time>2026-05-23T12:54:30.000Z</time></trkpt>
      <trkpt lat="49.540264718234539031982421875" lon="19.51947460882365703582763671875"><ele>826.5999755859375</ele><time>2026-05-23T12:55:11.000Z</time></trkpt>
      <trkpt lat="49.540399499237537384033203125" lon="19.5198842324316501617431640625"><ele>827.4000244140625</ele><time>2026-05-23T12:55:35.000Z</time></trkpt>
      <trkpt lat="49.54051340930163860321044921875" lon="19.52029670588672161102294921875"><ele>825.5999755859375</ele><time>2026-05-23T12:56:04.000Z</time></trkpt>
      <trkpt lat="49.54076017253100872039794921875" lon="19.52108963392674922943115234375"><ele>826.20001220703125</ele><time>2026-05-23T12:56:51.000Z</time></trkpt>
      <trkpt lat="49.54104415141046047210693359375" lon="19.52147595584392547607421875"><ele>829.79998779296875</ele><time>2026-05-23T12:57:26.000Z</time></trkpt>
      <trkpt lat="49.5413655973970890045166015625" lon="19.52192463912069797515869140625"><ele>832.4000244140625</ele><time>2026-05-23T12:58:04.000Z</time></trkpt>
      <trkpt lat="49.5417991094291210174560546875" lon="19.52241498045623302459716796875"><ele>837</ele><time>2026-05-23T12:58:56.000Z</time></trkpt>
      <trkpt lat="49.54199985601007938385009765625" lon="19.522708766162395477294921875"><ele>837.79998779296875</ele><time>2026-05-23T12:59:27.000Z</time></trkpt>
      <trkpt lat="49.54225047491490840911865234375" lon="19.52321193180978298187255859375"><ele>840.4000244140625</ele><time>2026-05-23T13:00:20.000Z</time></trkpt>
      <trkpt lat="49.5423922128975391387939453125" lon="19.5234332978725433349609375"><ele>842.4000244140625</ele><time>2026-05-23T13:00:55.000Z</time></trkpt>
      <trkpt lat="49.542727656662464141845703125" lon="19.523930512368679046630859375"><ele>845.79998779296875</ele><time>2026-05-23T13:01:46.000Z</time></trkpt>
      <trkpt lat="49.54296679235994815826416015625" lon="19.52432672493159770965576171875"><ele>848.79998779296875</ele><time>2026-05-23T13:02:22.000Z</time></trkpt>
      <trkpt lat="49.5432505197823047637939453125" lon="19.52473827637732028961181640625"><ele>852.5999755859375</ele><time>2026-05-23T13:03:05.000Z</time></trkpt>
      <trkpt lat="49.54357624053955078125" lon="19.52495184727013111114501953125"><ele>856.5999755859375</ele><time>2026-05-23T13:03:50.000Z</time></trkpt>
      <trkpt lat="49.54385049641132354736328125" lon="19.52531930990517139434814453125"><ele>861.79998779296875</ele><time>2026-05-23T13:04:33.000Z</time></trkpt>
      <trkpt lat="49.54401788301765918731689453125" lon="19.52565810643136501312255859375"><ele>865.79998779296875</ele><time>2026-05-23T13:05:12.000Z</time></trkpt>
      <trkpt lat="49.54430513083934783935546875" lon="19.52582809142768383026123046875"><ele>870.5999755859375</ele><time>2026-05-23T13:05:46.000Z</time></trkpt>
      <trkpt lat="49.54453219659626483917236328125" lon="19.526039063930511474609375"><ele>875.4000244140625</ele><time>2026-05-23T13:06:14.000Z</time></trkpt>
      <trkpt lat="49.54491139389574527740478515625" lon="19.52632279135286808013916015625"><ele>881.20001220703125</ele><time>2026-05-23T13:06:53.000Z</time></trkpt>
      <trkpt lat="49.54516603611409664154052734375" lon="19.5267833769321441650390625"><ele>884.5999755859375</ele><time>2026-05-23T13:07:25.000Z</time></trkpt>
      <trkpt lat="49.54540827311575412750244140625" lon="19.5269203372299671173095703125"><ele>886.5999755859375</ele><time>2026-05-23T13:07:58.000Z</time></trkpt>
      <trkpt lat="49.54571731388568878173828125" lon="19.527233652770519256591796875"><ele>893</ele><time>2026-05-23T13:08:31.000Z</time></trkpt>
      <trkpt lat="49.54586173407733440399169921875" lon="19.52756188809871673583984375"><ele>898</ele><time>2026-05-23T13:08:58.000Z</time></trkpt>
      <trkpt lat="49.5459454692900180816650390625" lon="19.52807092107832431793212890625"><ele>902.79998779296875</ele><time>2026-05-23T13:09:26.000Z</time></trkpt>
      <trkpt lat="49.5457288809120655059814453125" lon="19.5285625196993350982666015625"><ele>907.4000244140625</ele><time>2026-05-23T13:09:59.000Z</time></trkpt>
      <trkpt lat="49.5453728176653385162353515625" lon="19.5289393700659275054931640625"><ele>911.4000244140625</ele><time>2026-05-23T13:10:32.000Z</time></trkpt>
      <trkpt lat="49.545338451862335205078125" lon="19.52911329455673694610595703125"><ele>910.79998779296875</ele><time>2026-05-23T13:10:57.000Z</time></trkpt>
      <trkpt lat="49.5452298223972320556640625" lon="19.529496766626834869384765625"><ele>909</ele><time>2026-05-23T13:11:36.000Z</time></trkpt>
      <trkpt lat="49.54507601447403430938720703125" lon="19.5299673266708850860595703125"><ele>906.20001220703125</ele><time>2026-05-23T13:12:16.000Z</time></trkpt>
      <trkpt lat="49.54489865340292453765869140625" lon="19.53063678927719593048095703125"><ele>899.79998779296875</ele><time>2026-05-23T13:12:57.000Z</time></trkpt>
      <trkpt lat="49.54484383575618267059326171875" lon="19.53105538152158260345458984375"><ele>894.79998779296875</ele><time>2026-05-23T13:13:24.000Z</time></trkpt>
      <trkpt lat="49.544867388904094696044921875" lon="19.53136735595762729644775390625"><ele>890.5999755859375</ele><time>2026-05-23T13:13:45.000Z</time></trkpt>
      <trkpt lat="49.54486831091344356536865234375" lon="19.53181922435760498046875"><ele>885.4000244140625</ele><time>2026-05-23T13:14:14.000Z</time></trkpt>
      <trkpt lat="49.5448668859899044036865234375" lon="19.53220613300800323486328125"><ele>881.20001220703125</ele><time>2026-05-23T13:14:40.000Z</time></trkpt>
      <trkpt lat="49.544825144112110137939453125" lon="19.5324785448610782623291015625"><ele>878.4000244140625</ele><time>2026-05-23T13:14:58.000Z</time></trkpt>
      <trkpt lat="49.5447612740099430084228515625" lon="19.5326190255582332611083984375"><ele>876.20001220703125</ele><time>2026-05-23T13:15:31.000Z</time></trkpt>
      <trkpt lat="49.5448591746389865875244140625" lon="19.532852210104465484619140625"><ele>875.79998779296875</ele><time>2026-05-23T13:16:53.000Z</time></trkpt>
      <trkpt lat="49.54476990737020969390869140625" lon="19.53356274403631687164306640625"><ele>873.79998779296875</ele><time>2026-05-23T13:17:40.000Z</time></trkpt>
      <trkpt lat="49.54454912804067134857177734375" lon="19.53411879949271678924560546875"><ele>873.4000244140625</ele><time>2026-05-23T13:18:18.000Z</time></trkpt>
      <trkpt lat="49.544390626251697540283203125" lon="19.5345522277057170867919921875"><ele>876.5999755859375</ele><time>2026-05-23T13:18:49.000Z</time></trkpt>
      <trkpt lat="49.54418384470045566558837890625" lon="19.53492094762623310089111328125"><ele>877.79998779296875</ele><time>2026-05-23T13:19:13.000Z</time></trkpt>
      <trkpt lat="49.54409281723201274871826171875" lon="19.53552327118813991546630859375"><ele>881</ele><time>2026-05-23T13:19:45.000Z</time></trkpt>
      <trkpt lat="49.5440488122403621673583984375" lon="19.53602685593068599700927734375"><ele>884.79998779296875</ele><time>2026-05-23T13:20:10.000Z</time></trkpt>
      <trkpt lat="49.54390539787709712982177734375" lon="19.53679078258574008941650390625"><ele>888</ele><time>2026-05-23T13:20:49.000Z</time></trkpt>
      <trkpt lat="49.54390975646674633026123046875" lon="19.53735354356467723846435546875"><ele>887.20001220703125</ele><time>2026-05-23T13:21:20.000Z</time></trkpt>
      <trkpt lat="49.543936662375926971435546875" lon="19.53797581605613231658935546875"><ele>885.20001220703125</ele><time>2026-05-23T13:21:56.000Z</time></trkpt>
      <trkpt lat="49.54396356828510761260986328125" lon="19.53847705386579036712646484375"><ele>883</ele><time>2026-05-23T13:22:24.000Z</time></trkpt>
      <trkpt lat="49.54417211003601551055908203125" lon="19.5389862544834613800048828125"><ele>882</ele><time>2026-05-23T13:22:54.000Z</time></trkpt>
      <trkpt lat="49.54449263401329517364501953125" lon="19.53965705819427967071533203125"><ele>880.4000244140625</ele><time>2026-05-23T13:23:41.000Z</time></trkpt>
      <trkpt lat="49.5448346994817256927490234375" lon="19.54038745723664760589599609375"><ele>880.4000244140625</ele><time>2026-05-23T13:24:30.000Z</time></trkpt>
      <trkpt lat="49.54496235586702823638916015625" lon="19.5406079851090908050537109375"><ele>880</ele><time>2026-05-23T13:24:45.000Z</time></trkpt>
    </trkseg>
  </trk>
</gpx>
