<?xml version="1.0" encoding="UTF-8"?>
<gpx version="1.1" creator="W Dobrym Kierunku" xmlns="http://www.topografix.com/GPX/1/1">
  <metadata>
    <name>Babia - od Krowiarek Jabłonka Piesze wędrówki</name>
    <desc>Własny ślad GPS autora; plik uproszczony do co 10. punktu, z zachowanym czasem i wysokością.</desc>
    <time>2025-06-28T09:27:20.000Z</time>
  </metadata>
  <trk>
    <name>Babia - od Krowiarek Jabłonka Piesze wędrówki</name>
    <trkseg>
      <trkpt lat="49.58766345866024494171142578125" lon="19.58568845875561237335205078125"><ele>992.5999755859375</ele><time>2025-06-28T09:27:20.000Z</time></trkpt>
      <trkpt lat="49.5876236446201801300048828125" lon="19.5851655118167400360107421875"><ele>994.20001220703125</ele><time>2025-06-28T09:28:01.000Z</time></trkpt>
      <trkpt lat="49.58761341869831085205078125" lon="19.58456578664481639862060546875"><ele>997.5999755859375</ele><time>2025-06-28T09:28:36.000Z</time></trkpt>
      <trkpt lat="49.58768659271299839019775390625" lon="19.58398215472698211669921875"><ele>1001.4000244140625</ele><time>2025-06-28T09:29:11.000Z</time></trkpt>
      <trkpt lat="49.58776228129863739013671875" lon="19.5835394226014614105224609375"><ele>1003.5999755859375</ele><time>2025-06-28T09:29:35.000Z</time></trkpt>
      <trkpt lat="49.5879502035677433013916015625" lon="19.5830614864826202392578125"><ele>1006.20001220703125</ele><time>2025-06-28T09:30:06.000Z</time></trkpt>
      <trkpt lat="49.5882603339850902557373046875" lon="19.5827146433293819427490234375"><ele>1008</ele><time>2025-06-28T09:30:36.000Z</time></trkpt>
      <trkpt lat="49.58792857825756072998046875" lon="19.58220980130136013031005859375"><ele>1008</ele><time>2025-06-28T09:31:14.000Z</time></trkpt>
      <trkpt lat="49.587962441146373748779296875" lon="19.58217459730803966522216796875"><ele>1009.20001220703125</ele><time>2025-06-28T09:31:50.000Z</time></trkpt>
      <trkpt lat="49.587839730083942413330078125" lon="19.58203864283859729766845703125"><ele>1007.79998779296875</ele><time>2025-06-28T09:32:30.000Z</time></trkpt>
      <trkpt lat="49.58779321052134037017822265625" lon="19.58163128234446048736572265625"><ele>1008</ele><time>2025-06-28T09:33:36.000Z</time></trkpt>
      <trkpt lat="49.58783629350364208221435546875" lon="19.58110456354916095733642578125"><ele>1009.79998779296875</ele><time>2025-06-28T09:34:08.000Z</time></trkpt>
      <trkpt lat="49.58774560131132602691650390625" lon="19.58047156222164630889892578125"><ele>1011.4000244140625</ele><time>2025-06-28T09:34:40.000Z</time></trkpt>
      <trkpt lat="49.5878435857594013214111328125" lon="19.579542092978954315185546875"><ele>1014.20001220703125</ele><time>2025-06-28T09:35:31.000Z</time></trkpt>
      <trkpt lat="49.58807853050529956817626953125" lon="19.57873868755996227264404296875"><ele>1017</ele><time>2025-06-28T09:36:22.000Z</time></trkpt>
      <trkpt lat="49.5883059315383434295654296875" lon="19.577793963253498077392578125"><ele>1019.79998779296875</ele><time>2025-06-28T09:37:13.000Z</time></trkpt>
      <trkpt lat="49.58850257098674774169921875" lon="19.57727906294167041778564453125"><ele>1021.5999755859375</ele><time>2025-06-28T09:37:47.000Z</time></trkpt>
      <trkpt lat="49.58868118934333324432373046875" lon="19.57659744657576084136962890625"><ele>1024.5999755859375</ele><time>2025-06-28T09:38:27.000Z</time></trkpt>
      <trkpt lat="49.58860139362514019012451171875" lon="19.57587928511202335357666015625"><ele>1026.5999755859375</ele><time>2025-06-28T09:39:04.000Z</time></trkpt>
      <trkpt lat="49.5887102745473384857177734375" lon="19.5748691819608211517333984375"><ele>1029.800048828125</ele><time>2025-06-28T09:39:56.000Z</time></trkpt>
      <trkpt lat="49.58906256593763828277587890625" lon="19.57436467520892620086669921875"><ele>1031.4000244140625</ele><time>2025-06-28T09:40:41.000Z</time></trkpt>
      <trkpt lat="49.58943254314363002777099609375" lon="19.57398346625268459320068359375"><ele>1032.4000244140625</ele><time>2025-06-28T09:41:17.000Z</time></trkpt>
      <trkpt lat="49.58991014398634433746337890625" lon="19.5733671449124813079833984375"><ele>1032.199951171875</ele><time>2025-06-28T09:42:05.000Z</time></trkpt>
      <trkpt lat="49.5903276465833187103271484375" lon="19.5725380070507526397705078125"><ele>1031.800048828125</ele><time>2025-06-28T09:42:57.000Z</time></trkpt>
      <trkpt lat="49.5905325002968311309814453125" lon="19.57190475426614284515380859375"><ele>1031</ele><time>2025-06-28T09:44:11.000Z</time></trkpt>
      <trkpt lat="49.59075621329247951507568359375" lon="19.57116329111158847808837890625"><ele>1030.4000244140625</ele><time>2025-06-28T09:44:49.000Z</time></trkpt>
      <trkpt lat="49.590766020119190216064453125" lon="19.570606313645839691162109375"><ele>1030.4000244140625</ele><time>2025-06-28T09:45:18.000Z</time></trkpt>
      <trkpt lat="49.59088303148746490478515625" lon="19.56973752938210964202880859375"><ele>1030.5999755859375</ele><time>2025-06-28T09:46:02.000Z</time></trkpt>
      <trkpt lat="49.5910964347422122955322265625" lon="19.56902557052671909332275390625"><ele>1031.199951171875</ele><time>2025-06-28T09:46:42.000Z</time></trkpt>
      <trkpt lat="49.59092686884105205535888671875" lon="19.56828989088535308837890625"><ele>1032.199951171875</ele><time>2025-06-28T09:47:21.000Z</time></trkpt>
      <trkpt lat="49.59087758325040340423583984375" lon="19.56740073859691619873046875"><ele>1033</ele><time>2025-06-28T09:48:13.000Z</time></trkpt>
      <trkpt lat="49.5906277187168598175048828125" lon="19.56652407534420490264892578125"><ele>1033.800048828125</ele><time>2025-06-28T09:49:01.000Z</time></trkpt>
      <trkpt lat="49.590379782021045684814453125" lon="19.5658351667225360870361328125"><ele>1035</ele><time>2025-06-28T09:49:44.000Z</time></trkpt>
      <trkpt lat="49.59079912863671779632568359375" lon="19.56520576961338520050048828125"><ele>1036</ele><time>2025-06-28T09:50:32.000Z</time></trkpt>
      <trkpt lat="49.59089518524706363677978515625" lon="19.56445357762277126312255859375"><ele>1037.199951171875</ele><time>2025-06-28T09:51:19.000Z</time></trkpt>
      <trkpt lat="49.59083877503871917724609375" lon="19.5638419501483440399169921875"><ele>1037.5999755859375</ele><time>2025-06-28T09:51:53.000Z</time></trkpt>
      <trkpt lat="49.59106768481433391571044921875" lon="19.5631472580134868621826171875"><ele>1039.199951171875</ele><time>2025-06-28T09:52:33.000Z</time></trkpt>
      <trkpt lat="49.5910464785993099212646484375" lon="19.5625819824635982513427734375"><ele>1041.4000244140625</ele><time>2025-06-28T09:53:07.000Z</time></trkpt>
      <trkpt lat="49.59082159213721752166748046875" lon="19.56215844489634037017822265625"><ele>1042.5999755859375</ele><time>2025-06-28T09:53:37.000Z</time></trkpt>
      <trkpt lat="49.59081740118563175201416015625" lon="19.56157791428267955780029296875"><ele>1044.4000244140625</ele><time>2025-06-28T09:54:08.000Z</time></trkpt>
      <trkpt lat="49.5907068438827991485595703125" lon="19.56084935925900936126708984375"><ele>1045.800048828125</ele><time>2025-06-28T09:54:47.000Z</time></trkpt>
      <trkpt lat="49.59040869958698749542236328125" lon="19.55998904071748256683349609375"><ele>1047.4000244140625</ele><time>2025-06-28T09:55:34.000Z</time></trkpt>
      <trkpt lat="49.5904654450714588165283203125" lon="19.5594069175422191619873046875"><ele>1051.4000244140625</ele><time>2025-06-28T09:56:04.000Z</time></trkpt>
      <trkpt lat="49.59051582030951976776123046875" lon="19.55904641188681125640869140625"><ele>1052.800048828125</ele><time>2025-06-28T09:56:29.000Z</time></trkpt>
      <trkpt lat="49.59077448584139347076416015625" lon="19.55826018936932086944580078125"><ele>1054</ele><time>2025-06-28T09:57:15.000Z</time></trkpt>
      <trkpt lat="49.59093994460999965667724609375" lon="19.55755024217069149017333984375"><ele>1056.199951171875</ele><time>2025-06-28T09:57:50.000Z</time></trkpt>
      <trkpt lat="49.5907504297792911529541015625" lon="19.55658112652599811553955078125"><ele>1058.800048828125</ele><time>2025-06-28T09:58:41.000Z</time></trkpt>
      <trkpt lat="49.5905274711549282073974609375" lon="19.55569599755108356475830078125"><ele>1062.800048828125</ele><time>2025-06-28T09:59:25.000Z</time></trkpt>
      <trkpt lat="49.5901204459369182586669921875" lon="19.55524723045527935028076171875"><ele>1065.800048828125</ele><time>2025-06-28T10:00:03.000Z</time></trkpt>
      <trkpt lat="49.59003922529518604278564453125" lon="19.554428569972515106201171875"><ele>1068.800048828125</ele><time>2025-06-28T10:00:45.000Z</time></trkpt>
      <trkpt lat="49.5896879397332668304443359375" lon="19.55384158529341220855712890625"><ele>1071.5999755859375</ele><time>2025-06-28T10:01:29.000Z</time></trkpt>
      <trkpt lat="49.58933212794363498687744140625" lon="19.5532851107418537139892578125"><ele>1074.199951171875</ele><time>2025-06-28T10:02:08.000Z</time></trkpt>
      <trkpt lat="49.58855085074901580810546875" lon="19.55237491987645626068115234375"><ele>1076.5999755859375</ele><time>2025-06-28T10:03:23.000Z</time></trkpt>
      <trkpt lat="49.58816327154636383056640625" lon="19.5516432635486125946044921875"><ele>1078.800048828125</ele><time>2025-06-28T10:04:22.000Z</time></trkpt>
      <trkpt lat="49.58814776502549648284912109375" lon="19.550669454038143157958984375"><ele>1079.4000244140625</ele><time>2025-06-28T10:05:18.000Z</time></trkpt>
      <trkpt lat="49.58799353800714015960693359375" lon="19.549917094409465789794921875"><ele>1080.4000244140625</ele><time>2025-06-28T10:05:59.000Z</time></trkpt>
      <trkpt lat="49.58774752914905548095703125" lon="19.54939330928027629852294921875"><ele>1083.199951171875</ele><time>2025-06-28T10:06:33.000Z</time></trkpt>
      <trkpt lat="49.5872407592833042144775390625" lon="19.54940571449697017669677734375"><ele>1085.800048828125</ele><time>2025-06-28T10:07:08.000Z</time></trkpt>
      <trkpt lat="49.586778581142425537109375" lon="19.549725987017154693603515625"><ele>1090</ele><time>2025-06-28T10:07:53.000Z</time></trkpt>
      <trkpt lat="49.58650700747966766357421875" lon="19.54957368783652782440185546875"><ele>1092.199951171875</ele><time>2025-06-28T10:08:20.000Z</time></trkpt>
      <trkpt lat="49.58625362254679203033447265625" lon="19.54885485582053661346435546875"><ele>1096.4000244140625</ele><time>2025-06-28T10:09:01.000Z</time></trkpt>
      <trkpt lat="49.58608615212142467498779296875" lon="19.54851622693240642547607421875"><ele>1099.5999755859375</ele><time>2025-06-28T10:09:27.000Z</time></trkpt>
      <trkpt lat="49.58597903139889240264892578125" lon="19.54809897579252719879150390625"><ele>1103.4000244140625</ele><time>2025-06-28T10:09:54.000Z</time></trkpt>
      <trkpt lat="49.58622713573276996612548828125" lon="19.54776026308536529541015625"><ele>1108</ele><time>2025-06-28T10:10:25.000Z</time></trkpt>
      <trkpt lat="49.58631833083927631378173828125" lon="19.54727604053914546966552734375"><ele>1112.4000244140625</ele><time>2025-06-28T10:10:56.000Z</time></trkpt>
      <trkpt lat="49.58593301475048065185546875" lon="19.5469614677131175994873046875"><ele>1118</ele><time>2025-06-28T10:11:38.000Z</time></trkpt>
      <trkpt lat="49.5857414044439792633056640625" lon="19.546232409775257110595703125"><ele>1123.199951171875</ele><time>2025-06-28T10:12:25.000Z</time></trkpt>
      <trkpt lat="49.5853950642049312591552734375" lon="19.54586167819797992706298828125"><ele>1127.5999755859375</ele><time>2025-06-28T10:13:07.000Z</time></trkpt>
      <trkpt lat="49.58513413555920124053955078125" lon="19.5453333668410778045654296875"><ele>1131.5999755859375</ele><time>2025-06-28T10:13:47.000Z</time></trkpt>
      <trkpt lat="49.58497035317122936248779296875" lon="19.54485115595161914825439453125"><ele>1134.5999755859375</ele><time>2025-06-28T10:14:20.000Z</time></trkpt>
      <trkpt lat="49.5847992785274982452392578125" lon="19.544300548732280731201171875"><ele>1140</ele><time>2025-06-28T10:15:00.000Z</time></trkpt>
      <trkpt lat="49.584602974355220794677734375" lon="19.543710462749004364013671875"><ele>1144.4000244140625</ele><time>2025-06-28T10:15:37.000Z</time></trkpt>
      <trkpt lat="49.5844408683478832244873046875" lon="19.5433223806321620941162109375"><ele>1147.800048828125</ele><time>2025-06-28T10:16:07.000Z</time></trkpt>
      <trkpt lat="49.5842192508280277252197265625" lon="19.54296573065221309661865234375"><ele>1151</ele><time>2025-06-28T10:16:50.000Z</time></trkpt>
      <trkpt lat="49.58409109152853488922119140625" lon="19.54244387336075305938720703125"><ele>1154.800048828125</ele><time>2025-06-28T10:17:24.000Z</time></trkpt>
      <trkpt lat="49.58416543900966644287109375" lon="19.54166829586029052734375"><ele>1158.199951171875</ele><time>2025-06-28T10:18:05.000Z</time></trkpt>
      <trkpt lat="49.584191925823688507080078125" lon="19.54113654792308807373046875"><ele>1162</ele><time>2025-06-28T10:18:41.000Z</time></trkpt>
      <trkpt lat="49.5840140618383884429931640625" lon="19.54078744165599346160888671875"><ele>1164.4000244140625</ele><time>2025-06-28T10:19:07.000Z</time></trkpt>
      <trkpt lat="49.584032334387302398681640625" lon="19.5405335538089275360107421875"><ele>1167.800048828125</ele><time>2025-06-28T10:19:27.000Z</time></trkpt>
      <trkpt lat="49.5843257009983062744140625" lon="19.54007263295352458953857421875"><ele>1171</ele><time>2025-06-28T10:19:57.000Z</time></trkpt>
      <trkpt lat="49.5845592208206653594970703125" lon="19.53947466798126697540283203125"><ele>1173.800048828125</ele><time>2025-06-28T10:20:42.000Z</time></trkpt>
      <trkpt lat="49.584303237497806549072265625" lon="19.53877645544707775115966796875"><ele>1176.5999755859375</ele><time>2025-06-28T10:21:25.000Z</time></trkpt>
      <trkpt lat="49.584418237209320068359375" lon="19.538230709731578826904296875"><ele>1178</ele><time>2025-06-28T10:22:00.000Z</time></trkpt>
      <trkpt lat="49.5848227478563785552978515625" lon="19.53789048828184604644775390625"><ele>1179.4000244140625</ele><time>2025-06-28T10:22:40.000Z</time></trkpt>
      <trkpt lat="49.5847047306597232818603515625" lon="19.5373997278511524200439453125"><ele>1181</ele><time>2025-06-28T10:23:16.000Z</time></trkpt>
      <trkpt lat="49.5844925008714199066162109375" lon="19.5364924706518650054931640625"><ele>1184</ele><time>2025-06-28T10:24:04.000Z</time></trkpt>
      <trkpt lat="49.5845562033355236053466796875" lon="19.53554456122219562530517578125"><ele>1186.199951171875</ele><time>2025-06-28T10:25:00.000Z</time></trkpt>
      <trkpt lat="49.58419603295624256134033203125" lon="19.5350950397551059722900390625"><ele>1188.800048828125</ele><time>2025-06-28T10:25:42.000Z</time></trkpt>
      <trkpt lat="49.58382270298898220062255859375" lon="19.53431443311274051666259765625"><ele>1191.800048828125</ele><time>2025-06-28T10:26:36.000Z</time></trkpt>
      <trkpt lat="49.5834162645041942596435546875" lon="19.53381679952144622802734375"><ele>1193.5999755859375</ele><time>2025-06-28T10:27:20.000Z</time></trkpt>
      <trkpt lat="49.58318634890019893646240234375" lon="19.5335980318486690521240234375"><ele>1194.800048828125</ele><time>2025-06-28T10:27:53.000Z</time></trkpt>
      <trkpt lat="49.5829187147319316864013671875" lon="19.53328094445168972015380859375"><ele>1196.800048828125</ele><time>2025-06-28T10:28:31.000Z</time></trkpt>
      <trkpt lat="49.58245561458170413970947265625" lon="19.5328993164002895355224609375"><ele>1198.800048828125</ele><time>2025-06-28T10:29:08.000Z</time></trkpt>
      <trkpt lat="49.5821814425289630889892578125" lon="19.53244174830615520477294921875"><ele>1201.199951171875</ele><time>2025-06-28T10:29:44.000Z</time></trkpt>
      <trkpt lat="49.581875838339328765869140625" lon="19.5319719426333904266357421875"><ele>1203.199951171875</ele><time>2025-06-28T10:30:21.000Z</time></trkpt>
      <trkpt lat="49.5818562246859073638916015625" lon="19.53125470317900180816650390625"><ele>1206.199951171875</ele><time>2025-06-28T10:30:57.000Z</time></trkpt>
      <trkpt lat="49.58219669759273529052734375" lon="19.53056269325315952301025390625"><ele>1209.4000244140625</ele><time>2025-06-28T10:31:44.000Z</time></trkpt>
      <trkpt lat="49.5821975357830524444580078125" lon="19.53009397722780704498291015625"><ele>1211.4000244140625</ele><time>2025-06-28T10:32:16.000Z</time></trkpt>
      <trkpt lat="49.5823661796748638153076171875" lon="19.52911882661283016204833984375"><ele>1214.4000244140625</ele><time>2025-06-28T10:33:17.000Z</time></trkpt>
      <trkpt lat="49.58218194544315338134765625" lon="19.5285107195377349853515625"><ele>1216.5999755859375</ele><time>2025-06-28T10:33:53.000Z</time></trkpt>
      <trkpt lat="49.58173401653766632080078125" lon="19.5284160040318965911865234375"><ele>1219</ele><time>2025-06-28T10:34:33.000Z</time></trkpt>
      <trkpt lat="49.58139966242015361785888671875" lon="19.52822900377213954925537109375"><ele>1221</ele><time>2025-06-28T10:35:01.000Z</time></trkpt>
      <trkpt lat="49.58160216920077800750732421875" lon="19.527741260826587677001953125"><ele>1223</ele><time>2025-06-28T10:35:30.000Z</time></trkpt>
      <trkpt lat="49.58215252496302127838134765625" lon="19.52715025283396244049072265625"><ele>1225.800048828125</ele><time>2025-06-28T10:36:27.000Z</time></trkpt>
      <trkpt lat="49.582288563251495361328125" lon="19.52621432952582836151123046875"><ele>1223.5999755859375</ele><time>2025-06-28T10:37:32.000Z</time></trkpt>
      <trkpt lat="49.5825173892080783843994140625" lon="19.52541134320199489593505859375"><ele>1221.4000244140625</ele><time>2025-06-28T10:38:17.000Z</time></trkpt>
      <trkpt lat="49.58276532590389251708984375" lon="19.5248870551586151123046875"><ele>1219</ele><time>2025-06-28T10:38:58.000Z</time></trkpt>
      <trkpt lat="49.58270095288753509521484375" lon="19.52435589395463466644287109375"><ele>1218</ele><time>2025-06-28T10:39:38.000Z</time></trkpt>
      <trkpt lat="49.58324904553592205047607421875" lon="19.52448631636798381805419921875"><ele>1215.199951171875</ele><time>2025-06-28T10:40:28.000Z</time></trkpt>
      <trkpt lat="49.58352849818766117095947265625" lon="19.5239420793950557708740234375"><ele>1212.4000244140625</ele><time>2025-06-28T10:41:00.000Z</time></trkpt>
      <trkpt lat="49.58361667580902576446533203125" lon="19.52350563369691371917724609375"><ele>1210.5999755859375</ele><time>2025-06-28T10:41:22.000Z</time></trkpt>
      <trkpt lat="49.583700411021709442138671875" lon="19.52307245694100856781005859375"><ele>1209.800048828125</ele><time>2025-06-28T10:41:48.000Z</time></trkpt>
      <trkpt lat="49.584016241133213043212890625" lon="19.5222646929323673248291015625"><ele>1207</ele><time>2025-06-28T10:42:34.000Z</time></trkpt>
      <trkpt lat="49.58434204570949077606201171875" lon="19.5215653069317340850830078125"><ele>1205.800048828125</ele><time>2025-06-28T10:43:17.000Z</time></trkpt>
      <trkpt lat="49.584674052894115447998046875" lon="19.5210835151374340057373046875"><ele>1203.800048828125</ele><time>2025-06-28T10:43:49.000Z</time></trkpt>
      <trkpt lat="49.5854302681982517242431640625" lon="19.5201413892209529876708984375"><ele>1203.199951171875</ele><time>2025-06-28T10:45:03.000Z</time></trkpt>
      <trkpt lat="49.58608212880790233612060546875" lon="19.5196528919041156768798828125"><ele>1204</ele><time>2025-06-28T10:45:58.000Z</time></trkpt>
      <trkpt lat="49.58657163195312023162841796875" lon="19.51946790330111980438232421875"><ele>1204.5999755859375</ele><time>2025-06-28T10:46:36.000Z</time></trkpt>
      <trkpt lat="49.5865993760526180267333984375" lon="19.51870330609381198883056640625"><ele>1205</ele><time>2025-06-28T10:47:18.000Z</time></trkpt>
      <trkpt lat="49.58687673322856426239013671875" lon="19.51795178465545177459716796875"><ele>1205.800048828125</ele><time>2025-06-28T10:47:59.000Z</time></trkpt>
      <trkpt lat="49.58714076317846775054931640625" lon="19.5174573361873626708984375"><ele>1205.5999755859375</ele><time>2025-06-28T10:48:36.000Z</time></trkpt>
      <trkpt lat="49.58739750087261199951171875" lon="19.51696448028087615966796875"><ele>1205.4000244140625</ele><time>2025-06-28T10:49:12.000Z</time></trkpt>
      <trkpt lat="49.5877104811370372772216796875" lon="19.51688393019139766693115234375"><ele>1200.800048828125</ele><time>2025-06-28T10:49:50.000Z</time></trkpt>
      <trkpt lat="49.5877151750028133392333984375" lon="19.51671679504215717315673828125"><ele>1199</ele><time>2025-06-28T10:51:35.000Z</time></trkpt>
      <trkpt lat="49.5877138338983058929443359375" lon="19.5167363248765468597412109375"><ele>1197.4000244140625</ele><time>2025-06-28T10:53:43.000Z</time></trkpt>
      <trkpt lat="49.587713666260242462158203125" lon="19.51673355884850025177001953125"><ele>1196.5999755859375</ele><time>2025-06-28T10:54:41.000Z</time></trkpt>
      <trkpt lat="49.58767888136208057403564453125" lon="19.51669156551361083984375"><ele>1194.800048828125</ele><time>2025-06-28T10:57:33.000Z</time></trkpt>
      <trkpt lat="49.58770989440381526947021484375" lon="19.51670740731060504913330078125"><ele>1194.199951171875</ele><time>2025-06-28T10:58:24.000Z</time></trkpt>
      <trkpt lat="49.5876866765320301055908203125" lon="19.51672869734466075897216796875"><ele>1192.4000244140625</ele><time>2025-06-28T11:01:39.000Z</time></trkpt>
      <trkpt lat="49.5877309329807758331298828125" lon="19.516733475029468536376953125"><ele>1191.800048828125</ele><time>2025-06-28T11:03:10.000Z</time></trkpt>
      <trkpt lat="49.58770955912768840789794921875" lon="19.51673917472362518310546875"><ele>1191.4000244140625</ele><time>2025-06-28T11:04:28.000Z</time></trkpt>
      <trkpt lat="49.58765189163386821746826171875" lon="19.5167621411383152008056640625"><ele>1190.4000244140625</ele><time>2025-06-28T11:06:38.000Z</time></trkpt>
      <trkpt lat="49.58750478923320770263671875" lon="19.51668930239975452423095703125"><ele>1192.5999755859375</ele><time>2025-06-28T11:06:59.000Z</time></trkpt>
      <trkpt lat="49.58729012869298458099365234375" lon="19.51714712195098400115966796875"><ele>1193.800048828125</ele><time>2025-06-28T11:07:47.000Z</time></trkpt>
      <trkpt lat="49.5870348997414112091064453125" lon="19.51774273999035358428955078125"><ele>1193.4000244140625</ele><time>2025-06-28T11:08:20.000Z</time></trkpt>
      <trkpt lat="49.5867046527564525604248046875" lon="19.5184505917131900787353515625"><ele>1194.199951171875</ele><time>2025-06-28T11:09:12.000Z</time></trkpt>
      <trkpt lat="49.58664153702557086944580078125" lon="19.5189575292170047760009765625"><ele>1194.5999755859375</ele><time>2025-06-28T11:09:41.000Z</time></trkpt>
      <trkpt lat="49.58661018870770931243896484375" lon="19.51954132877290248870849609375"><ele>1194.4000244140625</ele><time>2025-06-28T11:10:12.000Z</time></trkpt>
      <trkpt lat="49.58621422760188579559326171875" lon="19.51976479031145572662353515625"><ele>1194.4000244140625</ele><time>2025-06-28T11:10:41.000Z</time></trkpt>
      <trkpt lat="49.5856587588787078857421875" lon="19.51993611641228199005126953125"><ele>1194.800048828125</ele><time>2025-06-28T11:11:31.000Z</time></trkpt>
      <trkpt lat="49.58505325019359588623046875" lon="19.5205417089164257049560546875"><ele>1193.4000244140625</ele><time>2025-06-28T11:12:26.000Z</time></trkpt>
      <trkpt lat="49.58467648364603519439697265625" lon="19.52119993977248668670654296875"><ele>1194</ele><time>2025-06-28T11:13:14.000Z</time></trkpt>
      <trkpt lat="49.58443374373018741607666015625" lon="19.52173101715743541717529296875"><ele>1196</ele><time>2025-06-28T11:13:55.000Z</time></trkpt>
      <trkpt lat="49.58418496884405612945556640625" lon="19.52210132963955402374267578125"><ele>1197.4000244140625</ele><time>2025-06-28T11:14:25.000Z</time></trkpt>
      <trkpt lat="49.58403845317661762237548828125" lon="19.52253215946257114410400390625"><ele>1198.4000244140625</ele><time>2025-06-28T11:14:49.000Z</time></trkpt>
      <trkpt lat="49.5837612636387348175048828125" lon="19.52306977473199367523193359375"><ele>1200.800048828125</ele><time>2025-06-28T11:15:23.000Z</time></trkpt>
      <trkpt lat="49.58361298777163028717041015625" lon="19.52348032034933567047119140625"><ele>1203</ele><time>2025-06-28T11:16:00.000Z</time></trkpt>
      <trkpt lat="49.5835326053202152252197265625" lon="19.52358811162412166595458984375"><ele>1208.800048828125</ele><time>2025-06-28T11:16:35.000Z</time></trkpt>
      <trkpt lat="49.58346412517130374908447265625" lon="19.52363270334899425506591796875"><ele>1214.5999755859375</ele><time>2025-06-28T11:17:08.000Z</time></trkpt>
      <trkpt lat="49.58336270414292812347412109375" lon="19.52366204001009464263916015625"><ele>1220.800048828125</ele><time>2025-06-28T11:17:36.000Z</time></trkpt>
      <trkpt lat="49.58323261700570583343505859375" lon="19.52381241135299205780029296875"><ele>1223.800048828125</ele><time>2025-06-28T11:18:23.000Z</time></trkpt>
      <trkpt lat="49.58285258151590824127197265625" lon="19.52389991842210292816162109375"><ele>1228.4000244140625</ele><time>2025-06-28T11:18:59.000Z</time></trkpt>
      <trkpt lat="49.5826853625476360321044921875" lon="19.52388952486217021942138671875"><ele>1232.4000244140625</ele><time>2025-06-28T11:19:27.000Z</time></trkpt>
      <trkpt lat="49.582493416965007781982421875" lon="19.5237348787486553192138671875"><ele>1236.5999755859375</ele><time>2025-06-28T11:19:53.000Z</time></trkpt>
      <trkpt lat="49.58228026516735553741455078125" lon="19.52365248464047908782958984375"><ele>1241.199951171875</ele><time>2025-06-28T11:20:30.000Z</time></trkpt>
      <trkpt lat="49.58220013417303562164306640625" lon="19.5235987566411495208740234375"><ele>1247</ele><time>2025-06-28T11:21:01.000Z</time></trkpt>
      <trkpt lat="49.58189721219241619110107421875" lon="19.52350110746920108795166015625"><ele>1252.800048828125</ele><time>2025-06-28T11:21:35.000Z</time></trkpt>
      <trkpt lat="49.5818337611854076385498046875" lon="19.5233053900301456451416015625"><ele>1257.4000244140625</ele><time>2025-06-28T11:22:02.000Z</time></trkpt>
      <trkpt lat="49.58170308731496334075927734375" lon="19.523185528814792633056640625"><ele>1261.5999755859375</ele><time>2025-06-28T11:22:44.000Z</time></trkpt>
      <trkpt lat="49.581524468958377838134765625" lon="19.52301261015236377716064453125"><ele>1265</ele><time>2025-06-28T11:23:30.000Z</time></trkpt>
      <trkpt lat="49.5811715908348560333251953125" lon="19.52285536564886569976806640625"><ele>1271.199951171875</ele><time>2025-06-28T11:24:12.000Z</time></trkpt>
      <trkpt lat="49.5810411684215068817138671875" lon="19.522797279059886932373046875"><ele>1278.4000244140625</ele><time>2025-06-28T11:24:45.000Z</time></trkpt>
      <trkpt lat="49.5808400027453899383544921875" lon="19.52260918915271759033203125"><ele>1282.5999755859375</ele><time>2025-06-28T11:25:31.000Z</time></trkpt>
      <trkpt lat="49.5806539244949817657470703125" lon="19.52251271344721317291259765625"><ele>1286.800048828125</ele><time>2025-06-28T11:26:06.000Z</time></trkpt>
      <trkpt lat="49.58053951151669025421142578125" lon="19.5224859751760959625244140625"><ele>1291.4000244140625</ele><time>2025-06-28T11:26:39.000Z</time></trkpt>
      <trkpt lat="49.580287970602512359619140625" lon="19.52242319472134113311767578125"><ele>1297.5999755859375</ele><time>2025-06-28T11:27:21.000Z</time></trkpt>
      <trkpt lat="49.58009116351604461669921875" lon="19.52234557829797267913818359375"><ele>1305</ele><time>2025-06-28T11:28:01.000Z</time></trkpt>
      <trkpt lat="49.5799957774579524993896484375" lon="19.52229361049830913543701171875"><ele>1310.5999755859375</ele><time>2025-06-28T11:28:30.000Z</time></trkpt>
      <trkpt lat="49.57977189682424068450927734375" lon="19.52207551337778568267822265625"><ele>1311.5999755859375</ele><time>2025-06-28T11:29:14.000Z</time></trkpt>
      <trkpt lat="49.57952748052775859832763671875" lon="19.5219639502465724945068359375"><ele>1315.199951171875</ele><time>2025-06-28T11:29:52.000Z</time></trkpt>
      <trkpt lat="49.57928876392543315887451171875" lon="19.52205489389598369598388671875"><ele>1316.199951171875</ele><time>2025-06-28T11:30:14.000Z</time></trkpt>
      <trkpt lat="49.57912079058587551116943359375" lon="19.52207869850099086761474609375"><ele>1320.5999755859375</ele><time>2025-06-28T11:30:46.000Z</time></trkpt>
      <trkpt lat="49.57891861908137798309326171875" lon="19.522081799805164337158203125"><ele>1325.199951171875</ele><time>2025-06-28T11:31:17.000Z</time></trkpt>
      <trkpt lat="49.57871393300592899322509765625" lon="19.52192547731101512908935546875"><ele>1329</ele><time>2025-06-28T11:31:55.000Z</time></trkpt>
      <trkpt lat="49.57853950560092926025390625" lon="19.5219331048429012298583984375"><ele>1332.5999755859375</ele><time>2025-06-28T11:32:23.000Z</time></trkpt>
      <trkpt lat="49.5782912336289882659912109375" lon="19.52185154892504215240478515625"><ele>1338</ele><time>2025-06-28T11:33:07.000Z</time></trkpt>
      <trkpt lat="49.57801287062466144561767578125" lon="19.5217166841030120849609375"><ele>1341.4000244140625</ele><time>2025-06-28T11:33:40.000Z</time></trkpt>
      <trkpt lat="49.57789720036089420318603515625" lon="19.5216598547995090484619140625"><ele>1343</ele><time>2025-06-28T11:34:31.000Z</time></trkpt>
      <trkpt lat="49.57797230221331119537353515625" lon="19.521620459854602813720703125"><ele>1343.4000244140625</ele><time>2025-06-28T11:35:51.000Z</time></trkpt>
      <trkpt lat="49.578030221164226531982421875" lon="19.52156874351203441619873046875"><ele>1343.199951171875</ele><time>2025-06-28T11:36:44.000Z</time></trkpt>
      <trkpt lat="49.577693939208984375" lon="19.52157779596745967864990234375"><ele>1346.5999755859375</ele><time>2025-06-28T11:37:27.000Z</time></trkpt>
      <trkpt lat="49.5774895884096622467041015625" lon="19.52166865579783916473388671875"><ele>1353.4000244140625</ele><time>2025-06-28T11:38:08.000Z</time></trkpt>
      <trkpt lat="49.57740752957761287689208984375" lon="19.52176488004624843597412109375"><ele>1359.800048828125</ele><time>2025-06-28T11:38:42.000Z</time></trkpt>
      <trkpt lat="49.5773226208984851837158203125" lon="19.52194056473672389984130859375"><ele>1365.5999755859375</ele><time>2025-06-28T11:39:16.000Z</time></trkpt>
      <trkpt lat="49.57714886404573917388916015625" lon="19.522061012685298919677734375"><ele>1370.800048828125</ele><time>2025-06-28T11:39:57.000Z</time></trkpt>
      <trkpt lat="49.57696412689983844757080078125" lon="19.52217542566359043121337890625"><ele>1376.199951171875</ele><time>2025-06-28T11:40:33.000Z</time></trkpt>
      <trkpt lat="49.57685172557830810546875" lon="19.522244744002819061279296875"><ele>1381.800048828125</ele><time>2025-06-28T11:41:21.000Z</time></trkpt>
      <trkpt lat="49.576617367565631866455078125" lon="19.5225889049470424652099609375"><ele>1385.800048828125</ele><time>2025-06-28T11:42:02.000Z</time></trkpt>
      <trkpt lat="49.576390050351619720458984375" lon="19.52259175479412078857421875"><ele>1391.199951171875</ele><time>2025-06-28T11:42:40.000Z</time></trkpt>
      <trkpt lat="49.5763389207422733306884765625" lon="19.522388912737369537353515625"><ele>1394.4000244140625</ele><time>2025-06-28T11:43:23.000Z</time></trkpt>
      <trkpt lat="49.576328359544277191162109375" lon="19.5222576521337032318115234375"><ele>1396</ele><time>2025-06-28T11:44:27.000Z</time></trkpt>
      <trkpt lat="49.57628921605646610260009765625" lon="19.5222046785056591033935546875"><ele>1398.800048828125</ele><time>2025-06-28T11:45:14.000Z</time></trkpt>
      <trkpt lat="49.5761977694928646087646484375" lon="19.5222130604088306427001953125"><ele>1403.199951171875</ele><time>2025-06-28T11:45:46.000Z</time></trkpt>
      <trkpt lat="49.5760495774447917938232421875" lon="19.5221872441470623016357421875"><ele>1409.800048828125</ele><time>2025-06-28T11:47:05.000Z</time></trkpt>
      <trkpt lat="49.57603507675230503082275390625" lon="19.52218732796609401702880859375"><ele>1416.199951171875</ele><time>2025-06-28T11:48:16.000Z</time></trkpt>
      <trkpt lat="49.57600406371057033538818359375" lon="19.52220191247761249542236328125"><ele>1423</ele><time>2025-06-28T11:49:29.000Z</time></trkpt>
      <trkpt lat="49.57598042674362659454345703125" lon="19.52221012674272060394287109375"><ele>1427.5999755859375</ele><time>2025-06-28T11:50:14.000Z</time></trkpt>
      <trkpt lat="49.57593977451324462890625" lon="19.5222335122525691986083984375"><ele>1433</ele><time>2025-06-28T11:51:31.000Z</time></trkpt>
      <trkpt lat="49.5753709785640239715576171875" lon="19.5229587145149707794189453125"><ele>1437.4000244140625</ele><time>2025-06-28T11:52:57.000Z</time></trkpt>
      <trkpt lat="49.5754202641546726226806640625" lon="19.52337604947388172149658203125"><ele>1439</ele><time>2025-06-28T11:54:00.000Z</time></trkpt>
      <trkpt lat="49.57541062496602535247802734375" lon="19.523561708629131317138671875"><ele>1443.4000244140625</ele><time>2025-06-28T11:55:22.000Z</time></trkpt>
      <trkpt lat="49.575510956346988677978515625" lon="19.52389069832861423492431640625"><ele>1444.4000244140625</ele><time>2025-06-28T11:56:52.000Z</time></trkpt>
      <trkpt lat="49.57544348202645778656005859375" lon="19.52421491034328937530517578125"><ele>1449.5999755859375</ele><time>2025-06-28T11:57:56.000Z</time></trkpt>
      <trkpt lat="49.57536938600242137908935546875" lon="19.52434457838535308837890625"><ele>1456.4000244140625</ele><time>2025-06-28T11:58:28.000Z</time></trkpt>
      <trkpt lat="49.57532077096402645111083984375" lon="19.52456158585846424102783203125"><ele>1461.800048828125</ele><time>2025-06-28T11:59:11.000Z</time></trkpt>
      <trkpt lat="49.5753106288611888885498046875" lon="19.52465177513659000396728515625"><ele>1465.199951171875</ele><time>2025-06-28T11:59:59.000Z</time></trkpt>
      <trkpt lat="49.5753263868391513824462890625" lon="19.525004737079143524169921875"><ele>1471.800048828125</ele><time>2025-06-28T12:00:41.000Z</time></trkpt>
      <trkpt lat="49.57524709403514862060546875" lon="19.52512652613222599029541015625"><ele>1479.800048828125</ele><time>2025-06-28T12:01:04.000Z</time></trkpt>
      <trkpt lat="49.57523829303681850433349609375" lon="19.52516793273389339447021484375"><ele>1484</ele><time>2025-06-28T12:02:01.000Z</time></trkpt>
      <trkpt lat="49.5752164162695407867431640625" lon="19.52522291801869869232177734375"><ele>1485.199951171875</ele><time>2025-06-28T12:02:52.000Z</time></trkpt>
      <trkpt lat="49.57518464885652065277099609375" lon="19.52525493688881397247314453125"><ele>1490</ele><time>2025-06-28T12:03:53.000Z</time></trkpt>
      <trkpt lat="49.575108624994754791259765625" lon="19.52520313672721385955810546875"><ele>1494.800048828125</ele><time>2025-06-28T12:04:33.000Z</time></trkpt>
      <trkpt lat="49.57504685036838054656982421875" lon="19.52524018473923206329345703125"><ele>1499</ele><time>2025-06-28T12:05:11.000Z</time></trkpt>
      <trkpt lat="49.57507467828691005706787109375" lon="19.52550865709781646728515625"><ele>1507</ele><time>2025-06-28T12:06:27.000Z</time></trkpt>
      <trkpt lat="49.5750264823436737060546875" lon="19.52562893740832805633544921875"><ele>1511.5999755859375</ele><time>2025-06-28T12:07:23.000Z</time></trkpt>
      <trkpt lat="49.5749847404658794403076171875" lon="19.525677300989627838134765625"><ele>1517.4000244140625</ele><time>2025-06-28T12:08:15.000Z</time></trkpt>
      <trkpt lat="49.57501181401312351226806640625" lon="19.52585809864103794097900390625"><ele>1523.199951171875</ele><time>2025-06-28T12:09:24.000Z</time></trkpt>
      <trkpt lat="49.57501298747956752777099609375" lon="19.52591107226908206939697265625"><ele>1526.800048828125</ele><time>2025-06-28T12:10:02.000Z</time></trkpt>
      <trkpt lat="49.57500695250928401947021484375" lon="19.52593085356056690216064453125"><ele>1531.5999755859375</ele><time>2025-06-28T12:11:23.000Z</time></trkpt>
      <trkpt lat="49.57500259391963481903076171875" lon="19.52594359405338764190673828125"><ele>1533.5999755859375</ele><time>2025-06-28T12:12:17.000Z</time></trkpt>
      <trkpt lat="49.5749525539577007293701171875" lon="19.526130259037017822265625"><ele>1535.4000244140625</ele><time>2025-06-28T12:13:18.000Z</time></trkpt>
      <trkpt lat="49.5749379694461822509765625" lon="19.5261307619512081146240234375"><ele>1538.5999755859375</ele><time>2025-06-28T12:14:17.000Z</time></trkpt>
      <trkpt lat="49.5749357901513576507568359375" lon="19.52621080912649631500244140625"><ele>1546.800048828125</ele><time>2025-06-28T12:15:34.000Z</time></trkpt>
      <trkpt lat="49.5749240554869174957275390625" lon="19.526241905987262725830078125"><ele>1551.199951171875</ele><time>2025-06-28T12:16:25.000Z</time></trkpt>
      <trkpt lat="49.5749146677553653717041015625" lon="19.526255987584590911865234375"><ele>1558.199951171875</ele><time>2025-06-28T12:17:19.000Z</time></trkpt>
      <trkpt lat="49.57490100525319576263427734375" lon="19.52628775499761104583740234375"><ele>1561.5999755859375</ele><time>2025-06-28T12:18:26.000Z</time></trkpt>
      <trkpt lat="49.57478835247457027435302734375" lon="19.52692084014415740966796875"><ele>1567.199951171875</ele><time>2025-06-28T12:19:02.000Z</time></trkpt>
      <trkpt lat="49.5747958123683929443359375" lon="19.526967108249664306640625"><ele>1571.4000244140625</ele><time>2025-06-28T12:20:18.000Z</time></trkpt>
      <trkpt lat="49.57481416873633861541748046875" lon="19.52718176878988742828369140625"><ele>1576.199951171875</ele><time>2025-06-28T12:20:42.000Z</time></trkpt>
      <trkpt lat="49.57477594725787639617919921875" lon="19.5273166336119174957275390625"><ele>1581.199951171875</ele><time>2025-06-28T12:21:22.000Z</time></trkpt>
      <trkpt lat="49.57472733221948146820068359375" lon="19.52755861915647983551025390625"><ele>1590.4000244140625</ele><time>2025-06-28T12:22:36.000Z</time></trkpt>
      <trkpt lat="49.574691541492938995361328125" lon="19.52783153392374515533447265625"><ele>1595</ele><time>2025-06-28T12:23:22.000Z</time></trkpt>
      <trkpt lat="49.57462289370596408843994140625" lon="19.52783890999853610992431640625"><ele>1599.5999755859375</ele><time>2025-06-28T12:23:49.000Z</time></trkpt>
      <trkpt lat="49.5745301060378551483154296875" lon="19.52778451144695281982421875"><ele>1607.4000244140625</ele><time>2025-06-28T12:24:50.000Z</time></trkpt>
      <trkpt lat="49.57449934445321559906005859375" lon="19.52779834158718585968017578125"><ele>1609.4000244140625</ele><time>2025-06-28T12:25:41.000Z</time></trkpt>
      <trkpt lat="49.57448643632233142852783203125" lon="19.52787059359252452850341796875"><ele>1613.199951171875</ele><time>2025-06-28T12:27:02.000Z</time></trkpt>
      <trkpt lat="49.57443061284720897674560546875" lon="19.5280210487544536590576171875"><ele>1618.5999755859375</ele><time>2025-06-28T12:27:22.000Z</time></trkpt>
      <trkpt lat="49.5743691734969615936279296875" lon="19.5280949771404266357421875"><ele>1623</ele><time>2025-06-28T12:27:57.000Z</time></trkpt>
      <trkpt lat="49.5743064768612384796142578125" lon="19.5281984098255634307861328125"><ele>1631.800048828125</ele><time>2025-06-28T12:28:51.000Z</time></trkpt>
      <trkpt lat="49.57427638582885265350341796875" lon="19.52825129963457584381103515625"><ele>1634.4000244140625</ele><time>2025-06-28T12:29:39.000Z</time></trkpt>
      <trkpt lat="49.57423430867493152618408203125" lon="19.5283868350088596343994140625"><ele>1640.4000244140625</ele><time>2025-06-28T12:30:08.000Z</time></trkpt>
      <trkpt lat="49.57418854348361492156982421875" lon="19.52857199124991893768310546875"><ele>1651.800048828125</ele><time>2025-06-28T12:31:07.000Z</time></trkpt>
      <trkpt lat="49.5740922354161739349365234375" lon="19.5288352668285369873046875"><ele>1657.4000244140625</ele><time>2025-06-28T12:32:08.000Z</time></trkpt>
      <trkpt lat="49.5740583725273609161376953125" lon="19.528897292912006378173828125"><ele>1660.5999755859375</ele><time>2025-06-28T12:32:53.000Z</time></trkpt>
      <trkpt lat="49.57404018379747867584228515625" lon="19.52909602783620357513427734375"><ele>1668.199951171875</ele><time>2025-06-28T12:33:13.000Z</time></trkpt>
      <trkpt lat="49.57402191124856472015380859375" lon="19.5291130430996417999267578125"><ele>1666.800048828125</ele><time>2025-06-28T12:34:01.000Z</time></trkpt>
      <trkpt lat="49.573963992297649383544921875" lon="19.5291797630488872528076171875"><ele>1675.4000244140625</ele><time>2025-06-28T12:34:21.000Z</time></trkpt>
      <trkpt lat="49.5738974399864673614501953125" lon="19.52928923070430755615234375"><ele>1680</ele><time>2025-06-28T12:34:51.000Z</time></trkpt>
      <trkpt lat="49.5738920755684375762939453125" lon="19.529281519353389739990234375"><ele>1680.4000244140625</ele><time>2025-06-28T12:35:35.000Z</time></trkpt>
      <trkpt lat="49.5737633295357227325439453125" lon="19.52944655902683734893798828125"><ele>1688.199951171875</ele><time>2025-06-28T12:36:11.000Z</time></trkpt>
      <trkpt lat="49.573721587657928466796875" lon="19.52955317683517932891845703125"><ele>1693.800048828125</ele><time>2025-06-28T12:36:55.000Z</time></trkpt>
      <trkpt lat="49.57359443418681621551513671875" lon="19.52966633252799510955810546875"><ele>1702.199951171875</ele><time>2025-06-28T12:37:46.000Z</time></trkpt>
      <trkpt lat="49.57358219660818576812744140625" lon="19.52972450293600559234619140625"><ele>1705.800048828125</ele><time>2025-06-28T12:38:25.000Z</time></trkpt>
      <trkpt lat="49.57347926683723926544189453125" lon="19.52981502749025821685791015625"><ele>1713.5999755859375</ele><time>2025-06-28T12:39:00.000Z</time></trkpt>
      <trkpt lat="49.573249518871307373046875" lon="19.52995601110160350799560546875"><ele>1719.800048828125</ele><time>2025-06-28T12:39:43.000Z</time></trkpt>
      <trkpt lat="49.57316025160253047943115234375" lon="19.529676474630832672119140625"><ele>1724.199951171875</ele><time>2025-06-28T12:40:28.000Z</time></trkpt>
      <trkpt lat="49.573078863322734832763671875" lon="19.529476650059223175048828125"><ele>1723.5999755859375</ele><time>2025-06-28T12:41:28.000Z</time></trkpt>
      <trkpt lat="49.5729911886155605316162109375" lon="19.5294526778161525726318359375"><ele>1719.199951171875</ele><time>2025-06-28T12:42:32.000Z</time></trkpt>
      <trkpt lat="49.572876356542110443115234375" lon="19.52944404445588588714599609375"><ele>1719.800048828125</ele><time>2025-06-28T12:43:22.000Z</time></trkpt>
      <trkpt lat="49.57288180477917194366455078125" lon="19.52943583019077777862548828125"><ele>1719.4000244140625</ele><time>2025-06-28T12:45:07.000Z</time></trkpt>
      <trkpt lat="49.572881720960140228271484375" lon="19.52943482436239719390869140625"><ele>1719.199951171875</ele><time>2025-06-28T12:46:21.000Z</time></trkpt>
      <trkpt lat="49.57288130186498165130615234375" lon="19.529433734714984893798828125"><ele>1717.800048828125</ele><time>2025-06-28T12:49:17.000Z</time></trkpt>
      <trkpt lat="49.5728815533220767974853515625" lon="19.52943230979144573211669921875"><ele>1717.4000244140625</ele><time>2025-06-28T12:52:10.000Z</time></trkpt>
      <trkpt lat="49.57288096658885478973388671875" lon="19.529431723058223724365234375"><ele>1720</ele><time>2025-06-28T12:54:52.000Z</time></trkpt>
      <trkpt lat="49.5731997303664684295654296875" lon="19.5298392511904239654541015625"><ele>1720.800048828125</ele><time>2025-06-28T12:55:55.000Z</time></trkpt>
      <trkpt lat="49.57325245253741741180419921875" lon="19.53012649901211261749267578125"><ele>1716.4000244140625</ele><time>2025-06-28T12:56:35.000Z</time></trkpt>
      <trkpt lat="49.5734461583197116851806640625" lon="19.53056906349956989288330078125"><ele>1716.800048828125</ele><time>2025-06-28T12:57:20.000Z</time></trkpt>
      <trkpt lat="49.57356174476444721221923828125" lon="19.53097374178469181060791015625"><ele>1722</ele><time>2025-06-28T12:57:53.000Z</time></trkpt>
      <trkpt lat="49.5735578052699565887451171875" lon="19.531275741755962371826171875"><ele>1725.5999755859375</ele><time>2025-06-28T12:58:17.000Z</time></trkpt>
      <trkpt lat="49.573651514947414398193359375" lon="19.53158461488783359527587890625"><ele>1720.5999755859375</ele><time>2025-06-28T12:58:41.000Z</time></trkpt>
      <trkpt lat="49.57370943389832973480224609375" lon="19.5318653248250484466552734375"><ele>1721.800048828125</ele><time>2025-06-28T12:59:37.000Z</time></trkpt>
      <trkpt lat="49.57377397455275058746337890625" lon="19.5323883555829524993896484375"><ele>1715.4000244140625</ele><time>2025-06-28T13:00:12.000Z</time></trkpt>
      <trkpt lat="49.5738637447357177734375" lon="19.53295840881764888763427734375"><ele>1708.199951171875</ele><time>2025-06-28T13:00:53.000Z</time></trkpt>
      <trkpt lat="49.57396625541150569915771484375" lon="19.53373457305133342742919921875"><ele>1704.800048828125</ele><time>2025-06-28T13:01:41.000Z</time></trkpt>
      <trkpt lat="49.57401218824088573455810546875" lon="19.5346383936703205108642578125"><ele>1701.5999755859375</ele><time>2025-06-28T13:02:36.000Z</time></trkpt>
      <trkpt lat="49.57405275665223598480224609375" lon="19.53502488322556018829345703125"><ele>1695.5999755859375</ele><time>2025-06-28T13:03:08.000Z</time></trkpt>
      <trkpt lat="49.57408561371266841888427734375" lon="19.53531347215175628662109375"><ele>1693</ele><time>2025-06-28T13:03:39.000Z</time></trkpt>
      <trkpt lat="49.57412148825824260711669921875" lon="19.53556601889431476593017578125"><ele>1687.4000244140625</ele><time>2025-06-28T13:04:22.000Z</time></trkpt>
      <trkpt lat="49.5741153694689273834228515625" lon="19.535963237285614013671875"><ele>1678.199951171875</ele><time>2025-06-28T13:04:58.000Z</time></trkpt>
      <trkpt lat="49.574248977005481719970703125" lon="19.53641963191330432891845703125"><ele>1673</ele><time>2025-06-28T13:05:35.000Z</time></trkpt>
      <trkpt lat="49.57450722344219684600830078125" lon="19.53735052607953548431396484375"><ele>1671.5999755859375</ele><time>2025-06-28T13:06:39.000Z</time></trkpt>
      <trkpt lat="49.57460202276706695556640625" lon="19.537819325923919677734375"><ele>1667.4000244140625</ele><time>2025-06-28T13:07:27.000Z</time></trkpt>
      <trkpt lat="49.5748184435069561004638671875" lon="19.5382493175566196441650390625"><ele>1663.800048828125</ele><time>2025-06-28T13:08:32.000Z</time></trkpt>
      <trkpt lat="49.5747931301593780517578125" lon="19.5384950749576091766357421875"><ele>1663.5999755859375</ele><time>2025-06-28T13:09:38.000Z</time></trkpt>
      <trkpt lat="49.57470235414803028106689453125" lon="19.53894786536693572998046875"><ele>1658.5999755859375</ele><time>2025-06-28T13:10:24.000Z</time></trkpt>
      <trkpt lat="49.57489765249192714691162109375" lon="19.53935631550848484039306640625"><ele>1655.4000244140625</ele><time>2025-06-28T13:11:15.000Z</time></trkpt>
      <trkpt lat="49.57507702521979808807373046875" lon="19.54016181640326976776123046875"><ele>1655.199951171875</ele><time>2025-06-28T13:12:25.000Z</time></trkpt>
      <trkpt lat="49.57511239685118198394775390625" lon="19.54043917357921600341796875"><ele>1649.5999755859375</ele><time>2025-06-28T13:13:06.000Z</time></trkpt>
      <trkpt lat="49.57526729442179203033447265625" lon="19.54085449688136577606201171875"><ele>1645</ele><time>2025-06-28T13:14:42.000Z</time></trkpt>
      <trkpt lat="49.57540140487253665924072265625" lon="19.54135456122457981109619140625"><ele>1642</ele><time>2025-06-28T13:15:19.000Z</time></trkpt>
      <trkpt lat="49.57550332881510257720947265625" lon="19.54182713292539119720458984375"><ele>1634.5999755859375</ele><time>2025-06-28T13:16:04.000Z</time></trkpt>
      <trkpt lat="49.5756194181740283966064453125" lon="19.54270706512033939361572265625"><ele>1631.199951171875</ele><time>2025-06-28T13:17:03.000Z</time></trkpt>
      <trkpt lat="49.57570382393896579742431640625" lon="19.54302473925054073333740234375"><ele>1624</ele><time>2025-06-28T13:17:36.000Z</time></trkpt>
      <trkpt lat="49.5758745633065700531005859375" lon="19.543413408100605010986328125"><ele>1618.5999755859375</ele><time>2025-06-28T13:18:11.000Z</time></trkpt>
      <trkpt lat="49.57614370621740818023681640625" lon="19.543994106352329254150390625"><ele>1616.199951171875</ele><time>2025-06-28T13:18:56.000Z</time></trkpt>
      <trkpt lat="49.5762517489492893218994140625" lon="19.54475493170320987701416015625"><ele>1613.4000244140625</ele><time>2025-06-28T13:19:46.000Z</time></trkpt>
      <trkpt lat="49.57628033123910427093505859375" lon="19.54515977762639522552490234375"><ele>1607.800048828125</ele><time>2025-06-28T13:20:21.000Z</time></trkpt>
      <trkpt lat="49.5762978494167327880859375" lon="19.5454808883368968963623046875"><ele>1601.800048828125</ele><time>2025-06-28T13:20:50.000Z</time></trkpt>
      <trkpt lat="49.57629659213125705718994140625" lon="19.54579948447644710540771484375"><ele>1594</ele><time>2025-06-28T13:21:21.000Z</time></trkpt>
      <trkpt lat="49.57628536038100719451904296875" lon="19.54618387855589389801025390625"><ele>1586.199951171875</ele><time>2025-06-28T13:21:51.000Z</time></trkpt>
      <trkpt lat="49.5762960053980350494384765625" lon="19.54661504365503787994384765625"><ele>1579.4000244140625</ele><time>2025-06-28T13:22:23.000Z</time></trkpt>
      <trkpt lat="49.57628267817199230194091796875" lon="19.54708023928105831146240234375"><ele>1571.5999755859375</ele><time>2025-06-28T13:22:57.000Z</time></trkpt>
      <trkpt lat="49.57638560794293880462646484375" lon="19.5475423336029052734375"><ele>1567.5999755859375</ele><time>2025-06-28T13:23:29.000Z</time></trkpt>
      <trkpt lat="49.5765260048210620880126953125" lon="19.54815295524895191192626953125"><ele>1567.4000244140625</ele><time>2025-06-28T13:24:07.000Z</time></trkpt>
      <trkpt lat="49.57665936090052127838134765625" lon="19.54875242896378040313720703125"><ele>1569.5999755859375</ele><time>2025-06-28T13:24:46.000Z</time></trkpt>
      <trkpt lat="49.57695524208247661590576171875" lon="19.54973730258643627166748046875"><ele>1568.800048828125</ele><time>2025-06-28T13:25:47.000Z</time></trkpt>
      <trkpt lat="49.57722011022269725799560546875" lon="19.5504999719560146331787109375"><ele>1567.199951171875</ele><time>2025-06-28T13:26:37.000Z</time></trkpt>
      <trkpt lat="49.5773698948323726654052734375" lon="19.5509861223399639129638671875"><ele>1561.199951171875</ele><time>2025-06-28T13:27:21.000Z</time></trkpt>
      <trkpt lat="49.5774580724537372589111328125" lon="19.551342017948627471923828125"><ele>1557.800048828125</ele><time>2025-06-28T13:27:51.000Z</time></trkpt>
      <trkpt lat="49.57748916931450366973876953125" lon="19.55178399570286273956298828125"><ele>1552.4000244140625</ele><time>2025-06-28T13:28:25.000Z</time></trkpt>
      <trkpt lat="49.577574916183948516845703125" lon="19.55224231816828250885009765625"><ele>1547.199951171875</ele><time>2025-06-28T13:28:55.000Z</time></trkpt>
      <trkpt lat="49.57775806076824665069580078125" lon="19.55246862955391407012939453125"><ele>1543.5999755859375</ele><time>2025-06-28T13:29:24.000Z</time></trkpt>
      <trkpt lat="49.5779232680797576904296875" lon="19.5528797619044780731201171875"><ele>1540.4000244140625</ele><time>2025-06-28T13:29:52.000Z</time></trkpt>
      <trkpt lat="49.57819056697189807891845703125" lon="19.55327010713517665863037109375"><ele>1534.5999755859375</ele><time>2025-06-28T13:30:29.000Z</time></trkpt>
      <trkpt lat="49.5783690176904201507568359375" lon="19.55370579846203327178955078125"><ele>1534</ele><time>2025-06-28T13:31:01.000Z</time></trkpt>
      <trkpt lat="49.5785537548363208770751953125" lon="19.55406337045133113861083984375"><ele>1535</ele><time>2025-06-28T13:31:31.000Z</time></trkpt>
      <trkpt lat="49.578576050698757171630859375" lon="19.55461540259420871734619140625"><ele>1530.4000244140625</ele><time>2025-06-28T13:32:06.000Z</time></trkpt>
      <trkpt lat="49.57873974926769733428955078125" lon="19.5549598149955272674560546875"><ele>1527</ele><time>2025-06-28T13:32:32.000Z</time></trkpt>
      <trkpt lat="49.57897813059389591217041015625" lon="19.5557594485580921173095703125"><ele>1525.199951171875</ele><time>2025-06-28T13:33:23.000Z</time></trkpt>
      <trkpt lat="49.57932229153811931610107421875" lon="19.5562958903610706329345703125"><ele>1522.5999755859375</ele><time>2025-06-28T13:34:08.000Z</time></trkpt>
      <trkpt lat="49.57970500923693180084228515625" lon="19.55699988640844821929931640625"><ele>1519.800048828125</ele><time>2025-06-28T13:35:08.000Z</time></trkpt>
      <trkpt lat="49.57969595678150653839111328125" lon="19.55734781920909881591796875"><ele>1515.800048828125</ele><time>2025-06-28T13:36:13.000Z</time></trkpt>
      <trkpt lat="49.5796896703541278839111328125" lon="19.5573556981980800628662109375"><ele>1515.4000244140625</ele><time>2025-06-28T13:39:32.000Z</time></trkpt>
      <trkpt lat="49.5796474255621433258056640625" lon="19.5573000423610210418701171875"><ele>1515.4000244140625</ele><time>2025-06-28T13:40:32.000Z</time></trkpt>
      <trkpt lat="49.57954667508602142333984375" lon="19.55768368206918239593505859375"><ele>1510</ele><time>2025-06-28T13:41:06.000Z</time></trkpt>
      <trkpt lat="49.57961716689169406890869140625" lon="19.55815910361707210540771484375"><ele>1505.4000244140625</ele><time>2025-06-28T13:41:37.000Z</time></trkpt>
      <trkpt lat="49.579659663140773773193359375" lon="19.5585469342768192291259765625"><ele>1497.5999755859375</ele><time>2025-06-28T13:42:15.000Z</time></trkpt>
      <trkpt lat="49.57968137226998805999755859375" lon="19.55883485265076160430908203125"><ele>1493</ele><time>2025-06-28T13:42:37.000Z</time></trkpt>
      <trkpt lat="49.5797578990459442138671875" lon="19.55933944322168827056884765625"><ele>1488</ele><time>2025-06-28T13:43:07.000Z</time></trkpt>
      <trkpt lat="49.579854793846607208251953125" lon="19.559476487338542938232421875"><ele>1482.199951171875</ele><time>2025-06-28T13:43:35.000Z</time></trkpt>
      <trkpt lat="49.5800430513918399810791015625" lon="19.55980514176189899444580078125"><ele>1476.5999755859375</ele><time>2025-06-28T13:44:14.000Z</time></trkpt>
      <trkpt lat="49.580190740525722503662109375" lon="19.560128934681415557861328125"><ele>1470</ele><time>2025-06-28T13:44:51.000Z</time></trkpt>
      <trkpt lat="49.58042870275676250457763671875" lon="19.56031878478825092315673828125"><ele>1464.199951171875</ele><time>2025-06-28T13:45:20.000Z</time></trkpt>
      <trkpt lat="49.580703042447566986083984375" lon="19.5605582557618618011474609375"><ele>1457.5999755859375</ele><time>2025-06-28T13:45:53.000Z</time></trkpt>
      <trkpt lat="49.58099079318344593048095703125" lon="19.56078775227069854736328125"><ele>1451</ele><time>2025-06-28T13:46:37.000Z</time></trkpt>
      <trkpt lat="49.581194221973419189453125" lon="19.5609414763748645782470703125"><ele>1444.199951171875</ele><time>2025-06-28T13:47:09.000Z</time></trkpt>
      <trkpt lat="49.5814852416515350341796875" lon="19.5610678754746913909912109375"><ele>1437.199951171875</ele><time>2025-06-28T13:47:43.000Z</time></trkpt>
      <trkpt lat="49.58166855387389659881591796875" lon="19.56118337810039520263671875"><ele>1430</ele><time>2025-06-28T13:48:11.000Z</time></trkpt>
      <trkpt lat="49.58187642507255077362060546875" lon="19.56132142804563045501708984375"><ele>1425</ele><time>2025-06-28T13:48:41.000Z</time></trkpt>
      <trkpt lat="49.58208731375634670257568359375" lon="19.5614061690866947174072265625"><ele>1416.5999755859375</ele><time>2025-06-28T13:49:15.000Z</time></trkpt>
      <trkpt lat="49.5822548680007457733154296875" lon="19.56151588819921016693115234375"><ele>1409.800048828125</ele><time>2025-06-28T13:49:40.000Z</time></trkpt>
      <trkpt lat="49.58244538865983486175537109375" lon="19.5617555268108844757080078125"><ele>1401.199951171875</ele><time>2025-06-28T13:50:19.000Z</time></trkpt>
      <trkpt lat="49.58266046829521656036376953125" lon="19.56194638274610042572021484375"><ele>1394.4000244140625</ele><time>2025-06-28T13:50:51.000Z</time></trkpt>
      <trkpt lat="49.582897759974002838134765625" lon="19.5621756277978420257568359375"><ele>1389.5999755859375</ele><time>2025-06-28T13:51:19.000Z</time></trkpt>
      <trkpt lat="49.58324602805078029632568359375" lon="19.56256471574306488037109375"><ele>1384.5999755859375</ele><time>2025-06-28T13:51:59.000Z</time></trkpt>
      <trkpt lat="49.58343051373958587646484375" lon="19.5628441683948040008544921875"><ele>1380.199951171875</ele><time>2025-06-28T13:52:23.000Z</time></trkpt>
      <trkpt lat="49.58361466415226459503173828125" lon="19.56300535239279270172119140625"><ele>1375.199951171875</ele><time>2025-06-28T13:52:47.000Z</time></trkpt>
      <trkpt lat="49.5842068456113338470458984375" lon="19.56321858800947666168212890625"><ele>1372.5999755859375</ele><time>2025-06-28T13:53:41.000Z</time></trkpt>
      <trkpt lat="49.58453047089278697967529296875" lon="19.5632667839527130126953125"><ele>1369.5999755859375</ele><time>2025-06-28T13:54:54.000Z</time></trkpt>
      <trkpt lat="49.5847000367939472198486328125" lon="19.56351916305720806121826171875"><ele>1366.4000244140625</ele><time>2025-06-28T13:55:17.000Z</time></trkpt>
      <trkpt lat="49.58475108258426189422607421875" lon="19.563873969018459320068359375"><ele>1363.4000244140625</ele><time>2025-06-28T13:55:37.000Z</time></trkpt>
      <trkpt lat="49.584843702614307403564453125" lon="19.56416557542979717254638671875"><ele>1359.800048828125</ele><time>2025-06-28T13:55:56.000Z</time></trkpt>
      <trkpt lat="49.58491645753383636474609375" lon="19.56438149325549602508544921875"><ele>1356.4000244140625</ele><time>2025-06-28T13:56:12.000Z</time></trkpt>
      <trkpt lat="49.58483724854886531829833984375" lon="19.56484551541507244110107421875"><ele>1349.199951171875</ele><time>2025-06-28T13:56:43.000Z</time></trkpt>
      <trkpt lat="49.58482953719794750213623046875" lon="19.56517140381038188934326171875"><ele>1342.800048828125</ele><time>2025-06-28T13:57:14.000Z</time></trkpt>
      <trkpt lat="49.58480120636522769927978515625" lon="19.56554356031119823455810546875"><ele>1339.800048828125</ele><time>2025-06-28T13:57:38.000Z</time></trkpt>
      <trkpt lat="49.5848755538463592529296875" lon="19.56572578288614749908447265625"><ele>1335.199951171875</ele><time>2025-06-28T13:57:56.000Z</time></trkpt>
      <trkpt lat="49.5849506556987762451171875" lon="19.565926529467105865478515625"><ele>1330.5999755859375</ele><time>2025-06-28T13:58:17.000Z</time></trkpt>
      <trkpt lat="49.58510563708841800689697265625" lon="19.5661694370210170745849609375"><ele>1325</ele><time>2025-06-28T13:58:42.000Z</time></trkpt>
      <trkpt lat="49.58522298373281955718994140625" lon="19.56646154634654521942138671875"><ele>1318.800048828125</ele><time>2025-06-28T13:59:09.000Z</time></trkpt>
      <trkpt lat="49.585388861596584320068359375" lon="19.56667545251548290252685546875"><ele>1311.199951171875</ele><time>2025-06-28T13:59:39.000Z</time></trkpt>
      <trkpt lat="49.585631601512432098388671875" lon="19.566948115825653076171875"><ele>1304</ele><time>2025-06-28T14:00:13.000Z</time></trkpt>
      <trkpt lat="49.585896469652652740478515625" lon="19.567153640091419219970703125"><ele>1296.4000244140625</ele><time>2025-06-28T14:00:45.000Z</time></trkpt>
      <trkpt lat="49.58614180795848369598388671875" lon="19.567261599004268646240234375"><ele>1288.5999755859375</ele><time>2025-06-28T14:01:20.000Z</time></trkpt>
      <trkpt lat="49.58635135553777217864990234375" lon="19.5675527863204479217529296875"><ele>1279.5999755859375</ele><time>2025-06-28T14:01:54.000Z</time></trkpt>
      <trkpt lat="49.586485885083675384521484375" lon="19.56780784763395786285400390625"><ele>1274</ele><time>2025-06-28T14:02:16.000Z</time></trkpt>
      <trkpt lat="49.58655059337615966796875" lon="19.56807665526866912841796875"><ele>1268.800048828125</ele><time>2025-06-28T14:02:36.000Z</time></trkpt>
      <trkpt lat="49.5866023935377597808837890625" lon="19.5683245919644832611083984375"><ele>1262.800048828125</ele><time>2025-06-28T14:02:58.000Z</time></trkpt>
      <trkpt lat="49.5866560377180576324462890625" lon="19.568645954132080078125"><ele>1257.199951171875</ele><time>2025-06-28T14:03:22.000Z</time></trkpt>
      <trkpt lat="49.586644135415554046630859375" lon="19.56896312534809112548828125"><ele>1251.4000244140625</ele><time>2025-06-28T14:03:46.000Z</time></trkpt>
      <trkpt lat="49.586778581142425537109375" lon="19.5692489482462406158447265625"><ele>1243.5999755859375</ele><time>2025-06-28T14:04:15.000Z</time></trkpt>
      <trkpt lat="49.5868317224085330963134765625" lon="19.56964532844722270965576171875"><ele>1238.199951171875</ele><time>2025-06-28T14:04:43.000Z</time></trkpt>
      <trkpt lat="49.586916379630565643310546875" lon="19.56979955546557903289794921875"><ele>1232.4000244140625</ele><time>2025-06-28T14:05:10.000Z</time></trkpt>
      <trkpt lat="49.5870856940746307373046875" lon="19.5701075904071331024169921875"><ele>1224.199951171875</ele><time>2025-06-28T14:05:44.000Z</time></trkpt>
      <trkpt lat="49.587276466190814971923828125" lon="19.57041964866220951080322265625"><ele>1218.800048828125</ele><time>2025-06-28T14:06:24.000Z</time></trkpt>
      <trkpt lat="49.58738140761852264404296875" lon="19.57063858397305011749267578125"><ele>1213</ele><time>2025-06-28T14:06:46.000Z</time></trkpt>
      <trkpt lat="49.58750747144222259521484375" lon="19.5709166117012500762939453125"><ele>1205.4000244140625</ele><time>2025-06-28T14:07:19.000Z</time></trkpt>
      <trkpt lat="49.58763261325657367706298828125" lon="19.5712569169700145721435546875"><ele>1197.4000244140625</ele><time>2025-06-28T14:07:49.000Z</time></trkpt>
      <trkpt lat="49.587731771171092987060546875" lon="19.5716149918735027313232421875"><ele>1190.800048828125</ele><time>2025-06-28T14:08:19.000Z</time></trkpt>
      <trkpt lat="49.58776001818478107452392578125" lon="19.57192503847181797027587890625"><ele>1184</ele><time>2025-06-28T14:08:48.000Z</time></trkpt>
      <trkpt lat="49.58787183277308940887451171875" lon="19.57224925048649311065673828125"><ele>1177.4000244140625</ele><time>2025-06-28T14:09:19.000Z</time></trkpt>
      <trkpt lat="49.5879398100078105926513671875" lon="19.5726813375949859619140625"><ele>1167.800048828125</ele><time>2025-06-28T14:10:00.000Z</time></trkpt>
      <trkpt lat="49.58796168677508831024169921875" lon="19.57290102727711200714111328125"><ele>1161.4000244140625</ele><time>2025-06-28T14:10:25.000Z</time></trkpt>
      <trkpt lat="49.5879703201353549957275390625" lon="19.573315680027008056640625"><ele>1152</ele><time>2025-06-28T14:11:04.000Z</time></trkpt>
      <trkpt lat="49.58793939091265201568603515625" lon="19.57369311712682247161865234375"><ele>1146.4000244140625</ele><time>2025-06-28T14:11:32.000Z</time></trkpt>
      <trkpt lat="49.58773051388561725616455078125" lon="19.57410768605768680572509765625"><ele>1141.199951171875</ele><time>2025-06-28T14:11:59.000Z</time></trkpt>
      <trkpt lat="49.58757796324789524078369140625" lon="19.57453985698521137237548828125"><ele>1134</ele><time>2025-06-28T14:12:29.000Z</time></trkpt>
      <trkpt lat="49.5874182879924774169921875" lon="19.57502416335046291351318359375"><ele>1127.4000244140625</ele><time>2025-06-28T14:13:01.000Z</time></trkpt>
      <trkpt lat="49.58733891136944293975830078125" lon="19.575330354273319244384765625"><ele>1122.199951171875</ele><time>2025-06-28T14:13:24.000Z</time></trkpt>
      <trkpt lat="49.58733773790299892425537109375" lon="19.57575942389667034149169921875"><ele>1115.4000244140625</ele><time>2025-06-28T14:13:52.000Z</time></trkpt>
      <trkpt lat="49.58737696520984172821044921875" lon="19.57621581852436065673828125"><ele>1108.5999755859375</ele><time>2025-06-28T14:14:25.000Z</time></trkpt>
      <trkpt lat="49.5873554237186908721923828125" lon="19.5765056647360324859619140625"><ele>1103.4000244140625</ele><time>2025-06-28T14:14:47.000Z</time></trkpt>
      <trkpt lat="49.5873329602181911468505859375" lon="19.57686281763017177581787109375"><ele>1095.800048828125</ele><time>2025-06-28T14:15:19.000Z</time></trkpt>
      <trkpt lat="49.5873386599123477935791015625" lon="19.57720211707055568695068359375"><ele>1089</ele><time>2025-06-28T14:15:51.000Z</time></trkpt>
      <trkpt lat="49.5873467065393924713134765625" lon="19.5776144228875637054443359375"><ele>1081.199951171875</ele><time>2025-06-28T14:16:20.000Z</time></trkpt>
      <trkpt lat="49.587377049028873443603515625" lon="19.5779718272387981414794921875"><ele>1074.4000244140625</ele><time>2025-06-28T14:16:47.000Z</time></trkpt>
      <trkpt lat="49.58734712563455104827880859375" lon="19.57829587161540985107421875"><ele>1067.800048828125</ele><time>2025-06-28T14:17:14.000Z</time></trkpt>
      <trkpt lat="49.5872762985527515411376953125" lon="19.57878914661705493927001953125"><ele>1062</ele><time>2025-06-28T14:17:43.000Z</time></trkpt>
      <trkpt lat="49.58719809539616107940673828125" lon="19.57915686070919036865234375"><ele>1056.800048828125</ele><time>2025-06-28T14:18:08.000Z</time></trkpt>
      <trkpt lat="49.58719541318714618682861328125" lon="19.5796032808721065521240234375"><ele>1050.5999755859375</ele><time>2025-06-28T14:18:36.000Z</time></trkpt>
      <trkpt lat="49.587250314652919769287109375" lon="19.57985691726207733154296875"><ele>1046.5999755859375</ele><time>2025-06-28T14:18:56.000Z</time></trkpt>
      <trkpt lat="49.58735818974673748016357421875" lon="19.5802513696253299713134765625"><ele>1041</ele><time>2025-06-28T14:19:28.000Z</time></trkpt>
      <trkpt lat="49.58743999712169170379638671875" lon="19.5807065069675445556640625"><ele>1035.5999755859375</ele><time>2025-06-28T14:19:59.000Z</time></trkpt>
      <trkpt lat="49.5875636301934719085693359375" lon="19.581080339848995208740234375"><ele>1030</ele><time>2025-06-28T14:20:26.000Z</time></trkpt>
      <trkpt lat="49.5877175219357013702392578125" lon="19.5814467966556549072265625"><ele>1022.5999755859375</ele><time>2025-06-28T14:21:03.000Z</time></trkpt>
      <trkpt lat="49.5878224633634090423583984375" lon="19.58178567700088024139404296875"><ele>1018.4000244140625</ele><time>2025-06-28T14:21:24.000Z</time></trkpt>
      <trkpt lat="49.5879384689033031463623046875" lon="19.58219186402857303619384765625"><ele>1018.20001220703125</ele><time>2025-06-28T14:22:08.000Z</time></trkpt>
      <trkpt lat="49.58806579001247882843017578125" lon="19.58252881653606891632080078125"><ele>1018</ele><time>2025-06-28T14:22:32.000Z</time></trkpt>
    </trkseg>
  </trk>
</gpx>
