<?xml version="1.0" encoding="UTF-8"?>
<gpx version="1.1" creator="mapy-pipeline (Babia Gora 01)" xmlns="http://www.topografix.com/GPX/1/1">
  <metadata>
    <name>Polana Stańcowa – Diablak</name>
    <desc>Wejście na Diablaka — TYLKO PODEJŚCIE, bez drogi powrotnej. 4.5 km, przewyższenie +827 m. Wysokości z modelu terenu (DEM 25 m), wartości przybliżone.</desc>
    <link href="https://bgpn.gov.pl/turystyka-piesza"><text>Babiogorski Park Narodowy - szlaki</text></link>
  </metadata>
  <trk>
    <name>Polana Stańcowa – Diablak (wejscie)</name>
    <desc>Wejście na Diablaka — TYLKO PODEJŚCIE, bez drogi powrotnej. 4.5 km, przewyższenie +827 m. Wysokości z modelu terenu (DEM 25 m), wartości przybliżone.</desc>
    <trkseg>
      <trkpt lat="49.545037" lon="19.543098"><ele>885.7</ele></trkpt>
      <trkpt lat="49.545171" lon="19.542526"><ele>886.4</ele></trkpt>
      <trkpt lat="49.545233" lon="19.542727"><ele>886.4</ele></trkpt>
      <trkpt lat="49.545306" lon="19.543048"><ele>886.4</ele></trkpt>
      <trkpt lat="49.545477" lon="19.543229"><ele>886.4</ele></trkpt>
      <trkpt lat="49.545674" lon="19.543266"><ele>888.3</ele></trkpt>
      <trkpt lat="49.545889" lon="19.543198"><ele>888.3</ele></trkpt>
      <trkpt lat="49.546071" lon="19.543193"><ele>891.1</ele></trkpt>
      <trkpt lat="49.546299" lon="19.543233"><ele>891.1</ele></trkpt>
      <trkpt lat="49.546555" lon="19.543408"><ele>895.7</ele></trkpt>
      <trkpt lat="49.546866" lon="19.543561"><ele>895.7</ele></trkpt>
      <trkpt lat="49.547055" lon="19.543565"><ele>899.6</ele></trkpt>
      <trkpt lat="49.547350" lon="19.543553"><ele>899.6</ele></trkpt>
      <trkpt lat="49.547441" lon="19.543529"><ele>903.1</ele></trkpt>
      <trkpt lat="49.547695" lon="19.543706"><ele>903.1</ele></trkpt>
      <trkpt lat="49.547909" lon="19.543805"><ele>906.5</ele></trkpt>
      <trkpt lat="49.548158" lon="19.543819"><ele>906.5</ele></trkpt>
      <trkpt lat="49.548389" lon="19.543751"><ele>908.6</ele></trkpt>
      <trkpt lat="49.548655" lon="19.543656"><ele>908.6</ele></trkpt>
      <trkpt lat="49.548877" lon="19.543565"><ele>911.2</ele></trkpt>
      <trkpt lat="49.548952" lon="19.543470"><ele>911.2</ele></trkpt>
      <trkpt lat="49.549128" lon="19.543199"><ele>913.1</ele></trkpt>
      <trkpt lat="49.549271" lon="19.542916"><ele>913.1</ele></trkpt>
      <trkpt lat="49.549731" lon="19.542609"><ele>914.3</ele></trkpt>
      <trkpt lat="49.549982" lon="19.542433"><ele>914.3</ele></trkpt>
      <trkpt lat="49.550622" lon="19.542188"><ele>916.9</ele></trkpt>
      <trkpt lat="49.550921" lon="19.542220"><ele>918.5</ele></trkpt>
      <trkpt lat="49.551111" lon="19.542315"><ele>918.5</ele></trkpt>
      <trkpt lat="49.551250" lon="19.542427"><ele>919.3</ele></trkpt>
      <trkpt lat="49.551490" lon="19.542453"><ele>919.3</ele></trkpt>
      <trkpt lat="49.551600" lon="19.542410"><ele>920.5</ele></trkpt>
      <trkpt lat="49.551900" lon="19.542516"><ele>920.5</ele></trkpt>
      <trkpt lat="49.552171" lon="19.542581"><ele>922.5</ele></trkpt>
      <trkpt lat="49.552481" lon="19.542559"><ele>922.5</ele></trkpt>
      <trkpt lat="49.552853" lon="19.542623"><ele>924.7</ele></trkpt>
      <trkpt lat="49.553196" lon="19.542445"><ele>924.7</ele></trkpt>
      <trkpt lat="49.553562" lon="19.542323"><ele>926.7</ele></trkpt>
      <trkpt lat="49.553847" lon="19.542274"><ele>926.7</ele></trkpt>
      <trkpt lat="49.554146" lon="19.542144"><ele>928.4</ele></trkpt>
      <trkpt lat="49.554723" lon="19.542037"><ele>928.4</ele></trkpt>
      <trkpt lat="49.555094" lon="19.541875"><ele>930.5</ele></trkpt>
      <trkpt lat="49.555217" lon="19.541766"><ele>930.5</ele></trkpt>
      <trkpt lat="49.555490" lon="19.541604"><ele>932.7</ele></trkpt>
      <trkpt lat="49.555656" lon="19.541562"><ele>932.7</ele></trkpt>
      <trkpt lat="49.555863" lon="19.541345"><ele>934.4</ele></trkpt>
      <trkpt lat="49.556030" lon="19.541066"><ele>934.4</ele></trkpt>
      <trkpt lat="49.556429" lon="19.540824"><ele>936.9</ele></trkpt>
      <trkpt lat="49.557008" lon="19.540576"><ele>936.9</ele></trkpt>
      <trkpt lat="49.557149" lon="19.540547"><ele>940.4</ele></trkpt>
      <trkpt lat="49.557325" lon="19.540449"><ele>940.4</ele></trkpt>
      <trkpt lat="49.557767" lon="19.540363"><ele>943.9</ele></trkpt>
      <trkpt lat="49.558763" lon="19.540266"><ele>947.9</ele></trkpt>
      <trkpt lat="49.559139" lon="19.540336"><ele>947.9</ele></trkpt>
      <trkpt lat="49.559324" lon="19.540342"><ele>951.8</ele></trkpt>
      <trkpt lat="49.559593" lon="19.540298"><ele>951.8</ele></trkpt>
      <trkpt lat="49.559800" lon="19.540289"><ele>954.4</ele></trkpt>
      <trkpt lat="49.559930" lon="19.540335"><ele>954.4</ele></trkpt>
      <trkpt lat="49.559970" lon="19.540400"><ele>956.9</ele></trkpt>
      <trkpt lat="49.559972" lon="19.540560"><ele>956.9</ele></trkpt>
      <trkpt lat="49.559921" lon="19.540689"><ele>959.1</ele></trkpt>
      <trkpt lat="49.559756" lon="19.541162"><ele>959.1</ele></trkpt>
      <trkpt lat="49.559539" lon="19.541542"><ele>963.2</ele></trkpt>
      <trkpt lat="49.559530" lon="19.541647"><ele>963.2</ele></trkpt>
      <trkpt lat="49.559549" lon="19.541757"><ele>969.2</ele></trkpt>
      <trkpt lat="49.559629" lon="19.541819"><ele>969.2</ele></trkpt>
      <trkpt lat="49.559715" lon="19.541825"><ele>975.4</ele></trkpt>
      <trkpt lat="49.559841" lon="19.541851"><ele>975.4</ele></trkpt>
      <trkpt lat="49.559918" lon="19.541934"><ele>980.1</ele></trkpt>
      <trkpt lat="49.560086" lon="19.542460"><ele>980.1</ele></trkpt>
      <trkpt lat="49.560178" lon="19.542638"><ele>985.2</ele></trkpt>
      <trkpt lat="49.560268" lon="19.542811"><ele>985.2</ele></trkpt>
      <trkpt lat="49.560480" lon="19.543108"><ele>990.8</ele></trkpt>
      <trkpt lat="49.560741" lon="19.543469"><ele>990.8</ele></trkpt>
      <trkpt lat="49.560977" lon="19.543752"><ele>996.6</ele></trkpt>
      <trkpt lat="49.561091" lon="19.543836"><ele>996.6</ele></trkpt>
      <trkpt lat="49.561157" lon="19.543779"><ele>1002.3</ele></trkpt>
      <trkpt lat="49.561205" lon="19.543645"><ele>1008.3</ele></trkpt>
      <trkpt lat="49.561252" lon="19.543436"><ele>1008.3</ele></trkpt>
      <trkpt lat="49.561303" lon="19.543353"><ele>1013.4</ele></trkpt>
      <trkpt lat="49.561403" lon="19.543280"><ele>1013.4</ele></trkpt>
      <trkpt lat="49.561520" lon="19.543286"><ele>1018.2</ele></trkpt>
      <trkpt lat="49.561653" lon="19.543331"><ele>1018.2</ele></trkpt>
      <trkpt lat="49.561790" lon="19.543350"><ele>1023.0</ele></trkpt>
      <trkpt lat="49.562427" lon="19.543335"><ele>1023.0</ele></trkpt>
      <trkpt lat="49.562474" lon="19.543329"><ele>1026.0</ele></trkpt>
      <trkpt lat="49.562663" lon="19.543479"><ele>1026.0</ele></trkpt>
      <trkpt lat="49.562863" lon="19.543487"><ele>1029.5</ele></trkpt>
      <trkpt lat="49.563018" lon="19.543396"><ele>1029.5</ele></trkpt>
      <trkpt lat="49.563145" lon="19.543371"><ele>1032.1</ele></trkpt>
      <trkpt lat="49.563316" lon="19.543396"><ele>1032.1</ele></trkpt>
      <trkpt lat="49.563455" lon="19.543350"><ele>1034.7</ele></trkpt>
      <trkpt lat="49.563558" lon="19.543331"><ele>1034.7</ele></trkpt>
      <trkpt lat="49.563665" lon="19.543371"><ele>1037.7</ele></trkpt>
      <trkpt lat="49.563952" lon="19.543532"><ele>1037.7</ele></trkpt>
      <trkpt lat="49.564086" lon="19.543586"><ele>1040.7</ele></trkpt>
      <trkpt lat="49.564217" lon="19.543554"><ele>1040.7</ele></trkpt>
      <trkpt lat="49.564342" lon="19.543548"><ele>1044.3</ele></trkpt>
      <trkpt lat="49.564521" lon="19.543638"><ele>1044.3</ele></trkpt>
      <trkpt lat="49.564662" lon="19.543672"><ele>1047.2</ele></trkpt>
      <trkpt lat="49.564747" lon="19.543632"><ele>1047.2</ele></trkpt>
      <trkpt lat="49.564841" lon="19.543573"><ele>1049.0</ele></trkpt>
      <trkpt lat="49.564988" lon="19.543558"><ele>1053.3</ele></trkpt>
      <trkpt lat="49.565076" lon="19.543498"><ele>1053.3</ele></trkpt>
      <trkpt lat="49.565139" lon="19.543471"><ele>1061.0</ele></trkpt>
      <trkpt lat="49.565207" lon="19.543471"><ele>1061.0</ele></trkpt>
      <trkpt lat="49.565308" lon="19.543437"><ele>1064.8</ele></trkpt>
      <trkpt lat="49.565487" lon="19.543347"><ele>1064.8</ele></trkpt>
      <trkpt lat="49.565652" lon="19.543245"><ele>1067.9</ele></trkpt>
      <trkpt lat="49.565717" lon="19.543182"><ele>1067.9</ele></trkpt>
      <trkpt lat="49.565757" lon="19.543166"><ele>1071.0</ele></trkpt>
      <trkpt lat="49.565804" lon="19.543154"><ele>1071.0</ele></trkpt>
      <trkpt lat="49.565887" lon="19.543197"><ele>1075.1</ele></trkpt>
      <trkpt lat="49.565937" lon="19.543176"><ele>1075.1</ele></trkpt>
      <trkpt lat="49.565983" lon="19.543198"><ele>1079.3</ele></trkpt>
      <trkpt lat="49.566082" lon="19.543154"><ele>1079.3</ele></trkpt>
      <trkpt lat="49.566158" lon="19.543117"><ele>1085.6</ele></trkpt>
      <trkpt lat="49.566214" lon="19.543096"><ele>1085.6</ele></trkpt>
      <trkpt lat="49.566254" lon="19.543122"><ele>1092.5</ele></trkpt>
      <trkpt lat="49.566306" lon="19.543049"><ele>1092.5</ele></trkpt>
      <trkpt lat="49.566380" lon="19.543076"><ele>1100.0</ele></trkpt>
      <trkpt lat="49.566498" lon="19.542910"><ele>1100.0</ele></trkpt>
      <trkpt lat="49.566545" lon="19.542874"><ele>1106.1</ele></trkpt>
      <trkpt lat="49.566615" lon="19.542835"><ele>1106.1</ele></trkpt>
      <trkpt lat="49.566634" lon="19.542774"><ele>1110.4</ele></trkpt>
      <trkpt lat="49.566664" lon="19.542707"><ele>1110.4</ele></trkpt>
      <trkpt lat="49.566699" lon="19.542694"><ele>1118.7</ele></trkpt>
      <trkpt lat="49.566719" lon="19.542676"><ele>1125.4</ele></trkpt>
      <trkpt lat="49.566739" lon="19.542630"><ele>1125.4</ele></trkpt>
      <trkpt lat="49.566771" lon="19.542601"><ele>1131.4</ele></trkpt>
      <trkpt lat="49.566811" lon="19.542495"><ele>1131.4</ele></trkpt>
      <trkpt lat="49.567009" lon="19.542361"><ele>1137.6</ele></trkpt>
      <trkpt lat="49.567038" lon="19.542307"><ele>1137.6</ele></trkpt>
      <trkpt lat="49.567085" lon="19.542090"><ele>1145.1</ele></trkpt>
      <trkpt lat="49.567126" lon="19.542036"><ele>1145.1</ele></trkpt>
      <trkpt lat="49.567170" lon="19.541964"><ele>1151.8</ele></trkpt>
      <trkpt lat="49.567224" lon="19.541949"><ele>1151.8</ele></trkpt>
      <trkpt lat="49.567287" lon="19.541950"><ele>1158.2</ele></trkpt>
      <trkpt lat="49.567380" lon="19.542001"><ele>1158.2</ele></trkpt>
      <trkpt lat="49.567406" lon="19.541995"><ele>1165.3</ele></trkpt>
      <trkpt lat="49.567424" lon="19.541948"><ele>1165.3</ele></trkpt>
      <trkpt lat="49.567541" lon="19.541790"><ele>1168.7</ele></trkpt>
      <trkpt lat="49.567545" lon="19.541734"><ele>1168.7</ele></trkpt>
      <trkpt lat="49.567538" lon="19.541663"><ele>1171.7</ele></trkpt>
      <trkpt lat="49.567547" lon="19.541618"><ele>1171.7</ele></trkpt>
      <trkpt lat="49.567580" lon="19.541592"><ele>1173.8</ele></trkpt>
      <trkpt lat="49.567607" lon="19.541556"><ele>1173.8</ele></trkpt>
      <trkpt lat="49.567639" lon="19.541475"><ele>1174.0</ele></trkpt>
      <trkpt lat="49.567747" lon="19.541331"><ele>1174.0</ele></trkpt>
      <trkpt lat="49.567787" lon="19.541327"><ele>1182.3</ele></trkpt>
      <trkpt lat="49.567810" lon="19.541304"><ele>1182.3</ele></trkpt>
      <trkpt lat="49.567814" lon="19.541267"><ele>1192.1</ele></trkpt>
      <trkpt lat="49.567826" lon="19.541230"><ele>1201.2</ele></trkpt>
      <trkpt lat="49.567859" lon="19.541204"><ele>1201.2</ele></trkpt>
      <trkpt lat="49.567895" lon="19.541204"><ele>1206.1</ele></trkpt>
      <trkpt lat="49.567929" lon="19.541193"><ele>1206.1</ele></trkpt>
      <trkpt lat="49.567973" lon="19.541137"><ele>1211.2</ele></trkpt>
      <trkpt lat="49.568073" lon="19.541040"><ele>1211.2</ele></trkpt>
      <trkpt lat="49.568095" lon="19.540969"><ele>1217.9</ele></trkpt>
      <trkpt lat="49.568122" lon="19.540922"><ele>1217.9</ele></trkpt>
      <trkpt lat="49.568129" lon="19.540867"><ele>1224.6</ele></trkpt>
      <trkpt lat="49.568148" lon="19.540814"><ele>1224.6</ele></trkpt>
      <trkpt lat="49.568162" lon="19.540740"><ele>1230.0</ele></trkpt>
      <trkpt lat="49.568184" lon="19.540677"><ele>1230.0</ele></trkpt>
      <trkpt lat="49.568230" lon="19.540563"><ele>1235.9</ele></trkpt>
      <trkpt lat="49.568234" lon="19.540487"><ele>1235.9</ele></trkpt>
      <trkpt lat="49.568275" lon="19.540393"><ele>1240.9</ele></trkpt>
      <trkpt lat="49.568303" lon="19.540355"><ele>1240.9</ele></trkpt>
      <trkpt lat="49.568399" lon="19.540315"><ele>1249.2</ele></trkpt>
      <trkpt lat="49.568454" lon="19.540251"><ele>1249.2</ele></trkpt>
      <trkpt lat="49.568522" lon="19.540117"><ele>1256.4</ele></trkpt>
      <trkpt lat="49.568547" lon="19.540101"><ele>1256.4</ele></trkpt>
      <trkpt lat="49.568589" lon="19.540093"><ele>1266.8</ele></trkpt>
      <trkpt lat="49.568721" lon="19.539949"><ele>1266.8</ele></trkpt>
      <trkpt lat="49.568737" lon="19.539889"><ele>1277.2</ele></trkpt>
      <trkpt lat="49.568758" lon="19.539873"><ele>1277.2</ele></trkpt>
      <trkpt lat="49.568777" lon="19.539871"><ele>1285.5</ele></trkpt>
      <trkpt lat="49.568792" lon="19.539866"><ele>1293.8</ele></trkpt>
      <trkpt lat="49.568848" lon="19.539811"><ele>1293.8</ele></trkpt>
      <trkpt lat="49.568860" lon="19.539781"><ele>1302.8</ele></trkpt>
      <trkpt lat="49.568891" lon="19.539742"><ele>1302.8</ele></trkpt>
      <trkpt lat="49.568968" lon="19.539659"><ele>1311.5</ele></trkpt>
      <trkpt lat="49.569009" lon="19.539668"><ele>1311.5</ele></trkpt>
      <trkpt lat="49.569075" lon="19.539655"><ele>1321.3</ele></trkpt>
      <trkpt lat="49.569114" lon="19.539662"><ele>1321.3</ele></trkpt>
      <trkpt lat="49.569153" lon="19.539650"><ele>1328.8</ele></trkpt>
      <trkpt lat="49.569215" lon="19.539558"><ele>1328.8</ele></trkpt>
      <trkpt lat="49.569237" lon="19.539491"><ele>1337.2</ele></trkpt>
      <trkpt lat="49.569266" lon="19.539472"><ele>1337.2</ele></trkpt>
      <trkpt lat="49.569323" lon="19.539526"><ele>1345.3</ele></trkpt>
      <trkpt lat="49.569411" lon="19.539507"><ele>1345.3</ele></trkpt>
      <trkpt lat="49.569524" lon="19.539564"><ele>1352.8</ele></trkpt>
      <trkpt lat="49.569602" lon="19.539544"><ele>1352.8</ele></trkpt>
      <trkpt lat="49.569682" lon="19.539556"><ele>1358.4</ele></trkpt>
      <trkpt lat="49.569740" lon="19.539523"><ele>1358.4</ele></trkpt>
      <trkpt lat="49.569787" lon="19.539538"><ele>1364.9</ele></trkpt>
      <trkpt lat="49.569847" lon="19.539532"><ele>1364.9</ele></trkpt>
      <trkpt lat="49.569869" lon="19.539512"><ele>1372.0</ele></trkpt>
      <trkpt lat="49.569885" lon="19.539467"><ele>1372.0</ele></trkpt>
      <trkpt lat="49.569909" lon="19.539421"><ele>1378.8</ele></trkpt>
      <trkpt lat="49.569957" lon="19.539374"><ele>1384.1</ele></trkpt>
      <trkpt lat="49.570135" lon="19.539280"><ele>1384.1</ele></trkpt>
      <trkpt lat="49.570299" lon="19.539168"><ele>1390.7</ele></trkpt>
      <trkpt lat="49.570434" lon="19.539210"><ele>1390.7</ele></trkpt>
      <trkpt lat="49.570531" lon="19.539169"><ele>1398.2</ele></trkpt>
      <trkpt lat="49.570570" lon="19.539108"><ele>1398.2</ele></trkpt>
      <trkpt lat="49.570614" lon="19.539089"><ele>1404.5</ele></trkpt>
      <trkpt lat="49.570651" lon="19.539081"><ele>1404.5</ele></trkpt>
      <trkpt lat="49.570684" lon="19.539060"><ele>1409.5</ele></trkpt>
      <trkpt lat="49.570723" lon="19.538971"><ele>1409.5</ele></trkpt>
      <trkpt lat="49.570733" lon="19.538903"><ele>1414.5</ele></trkpt>
      <trkpt lat="49.570761" lon="19.538853"><ele>1414.5</ele></trkpt>
      <trkpt lat="49.570788" lon="19.538729"><ele>1419.8</ele></trkpt>
      <trkpt lat="49.570785" lon="19.538671"><ele>1419.8</ele></trkpt>
      <trkpt lat="49.570803" lon="19.538450"><ele>1424.7</ele></trkpt>
      <trkpt lat="49.570836" lon="19.538293"><ele>1424.7</ele></trkpt>
      <trkpt lat="49.570859" lon="19.538263"><ele>1428.3</ele></trkpt>
      <trkpt lat="49.570873" lon="19.538210"><ele>1428.3</ele></trkpt>
      <trkpt lat="49.570870" lon="19.538083"><ele>1431.1</ele></trkpt>
      <trkpt lat="49.570883" lon="19.537993"><ele>1431.1</ele></trkpt>
      <trkpt lat="49.570874" lon="19.537876"><ele>1434.8</ele></trkpt>
      <trkpt lat="49.570893" lon="19.537805"><ele>1434.8</ele></trkpt>
      <trkpt lat="49.570903" lon="19.537704"><ele>1439.9</ele></trkpt>
      <trkpt lat="49.570921" lon="19.537644"><ele>1439.9</ele></trkpt>
      <trkpt lat="49.570950" lon="19.537578"><ele>1442.6</ele></trkpt>
      <trkpt lat="49.570948" lon="19.537511"><ele>1447.0</ele></trkpt>
      <trkpt lat="49.570985" lon="19.537399"><ele>1447.0</ele></trkpt>
      <trkpt lat="49.570988" lon="19.537334"><ele>1451.5</ele></trkpt>
      <trkpt lat="49.571019" lon="19.537172"><ele>1451.5</ele></trkpt>
      <trkpt lat="49.571004" lon="19.537049"><ele>1454.4</ele></trkpt>
      <trkpt lat="49.571025" lon="19.536968"><ele>1454.4</ele></trkpt>
      <trkpt lat="49.571026" lon="19.536903"><ele>1459.6</ele></trkpt>
      <trkpt lat="49.571003" lon="19.536830"><ele>1459.6</ele></trkpt>
      <trkpt lat="49.571000" lon="19.536756"><ele>1466.4</ele></trkpt>
      <trkpt lat="49.570922" lon="19.536568"><ele>1466.4</ele></trkpt>
      <trkpt lat="49.570907" lon="19.536446"><ele>1473.0</ele></trkpt>
      <trkpt lat="49.570866" lon="19.536268"><ele>1473.0</ele></trkpt>
      <trkpt lat="49.570864" lon="19.536156"><ele>1476.6</ele></trkpt>
      <trkpt lat="49.570847" lon="19.536049"><ele>1476.6</ele></trkpt>
      <trkpt lat="49.570867" lon="19.535929"><ele>1480.3</ele></trkpt>
      <trkpt lat="49.570813" lon="19.535777"><ele>1480.3</ele></trkpt>
      <trkpt lat="49.570768" lon="19.535573"><ele>1485.9</ele></trkpt>
      <trkpt lat="49.570787" lon="19.535478"><ele>1485.9</ele></trkpt>
      <trkpt lat="49.570853" lon="19.535276"><ele>1491.4</ele></trkpt>
      <trkpt lat="49.570918" lon="19.535019"><ele>1491.4</ele></trkpt>
      <trkpt lat="49.570950" lon="19.534878"><ele>1497.0</ele></trkpt>
      <trkpt lat="49.570971" lon="19.534785"><ele>1497.0</ele></trkpt>
      <trkpt lat="49.571000" lon="19.534693"><ele>1502.7</ele></trkpt>
      <trkpt lat="49.571002" lon="19.534650"><ele>1502.7</ele></trkpt>
      <trkpt lat="49.570995" lon="19.534598"><ele>1508.2</ele></trkpt>
      <trkpt lat="49.570999" lon="19.534585"><ele>1513.7</ele></trkpt>
      <trkpt lat="49.570998" lon="19.534542"><ele>1513.7</ele></trkpt>
      <trkpt lat="49.571001" lon="19.534477"><ele>1519.6</ele></trkpt>
      <trkpt lat="49.570992" lon="19.534375"><ele>1519.6</ele></trkpt>
      <trkpt lat="49.570977" lon="19.534333"><ele>1525.4</ele></trkpt>
      <trkpt lat="49.570984" lon="19.534184"><ele>1525.4</ele></trkpt>
      <trkpt lat="49.570978" lon="19.534117"><ele>1530.2</ele></trkpt>
      <trkpt lat="49.570920" lon="19.533894"><ele>1530.2</ele></trkpt>
      <trkpt lat="49.570917" lon="19.533853"><ele>1534.1</ele></trkpt>
      <trkpt lat="49.570936" lon="19.533695"><ele>1534.1</ele></trkpt>
      <trkpt lat="49.570892" lon="19.533398"><ele>1537.4</ele></trkpt>
      <trkpt lat="49.570864" lon="19.533310"><ele>1537.4</ele></trkpt>
      <trkpt lat="49.570818" lon="19.533140"><ele>1542.0</ele></trkpt>
      <trkpt lat="49.570818" lon="19.533027"><ele>1542.0</ele></trkpt>
      <trkpt lat="49.570821" lon="19.532955"><ele>1545.8</ele></trkpt>
      <trkpt lat="49.570776" lon="19.532819"><ele>1545.8</ele></trkpt>
      <trkpt lat="49.570744" lon="19.532711"><ele>1548.3</ele></trkpt>
      <trkpt lat="49.570751" lon="19.532654"><ele>1548.3</ele></trkpt>
      <trkpt lat="49.570753" lon="19.532639"><ele>1552.2</ele></trkpt>
      <trkpt lat="49.570744" lon="19.532579"><ele>1552.2</ele></trkpt>
      <trkpt lat="49.570756" lon="19.532535"><ele>1555.3</ele></trkpt>
      <trkpt lat="49.570766" lon="19.532518"><ele>1555.3</ele></trkpt>
      <trkpt lat="49.570786" lon="19.532502"><ele>1560.7</ele></trkpt>
      <trkpt lat="49.570825" lon="19.532491"><ele>1560.7</ele></trkpt>
      <trkpt lat="49.570869" lon="19.532470"><ele>1565.8</ele></trkpt>
      <trkpt lat="49.570894" lon="19.532443"><ele>1569.7</ele></trkpt>
      <trkpt lat="49.570921" lon="19.532421"><ele>1569.7</ele></trkpt>
      <trkpt lat="49.570940" lon="19.532371"><ele>1572.0</ele></trkpt>
      <trkpt lat="49.570940" lon="19.532291"><ele>1572.0</ele></trkpt>
      <trkpt lat="49.570923" lon="19.532213"><ele>1574.4</ele></trkpt>
      <trkpt lat="49.570899" lon="19.532167"><ele>1574.4</ele></trkpt>
      <trkpt lat="49.570808" lon="19.532063"><ele>1575.2</ele></trkpt>
      <trkpt lat="49.570784" lon="19.531982"><ele>1575.2</ele></trkpt>
      <trkpt lat="49.570768" lon="19.531896"><ele>1576.5</ele></trkpt>
      <trkpt lat="49.570732" lon="19.531840"><ele>1576.5</ele></trkpt>
      <trkpt lat="49.570713" lon="19.531802"><ele>1581.7</ele></trkpt>
      <trkpt lat="49.570712" lon="19.531751"><ele>1581.7</ele></trkpt>
      <trkpt lat="49.570671" lon="19.531637"><ele>1587.5</ele></trkpt>
      <trkpt lat="49.570663" lon="19.531536"><ele>1587.5</ele></trkpt>
      <trkpt lat="49.570663" lon="19.531392"><ele>1593.4</ele></trkpt>
      <trkpt lat="49.570675" lon="19.531340"><ele>1593.4</ele></trkpt>
      <trkpt lat="49.570701" lon="19.531307"><ele>1598.1</ele></trkpt>
      <trkpt lat="49.570732" lon="19.531311"><ele>1598.1</ele></trkpt>
      <trkpt lat="49.570818" lon="19.531319"><ele>1599.7</ele></trkpt>
      <trkpt lat="49.570842" lon="19.531335"><ele>1599.7</ele></trkpt>
      <trkpt lat="49.570894" lon="19.531337"><ele>1602.4</ele></trkpt>
      <trkpt lat="49.570914" lon="19.531328"><ele>1602.4</ele></trkpt>
      <trkpt lat="49.570926" lon="19.531288"><ele>1603.6</ele></trkpt>
      <trkpt lat="49.570923" lon="19.531229"><ele>1603.6</ele></trkpt>
      <trkpt lat="49.570915" lon="19.531178"><ele>1607.7</ele></trkpt>
      <trkpt lat="49.570880" lon="19.531081"><ele>1612.0</ele></trkpt>
      <trkpt lat="49.570857" lon="19.530925"><ele>1612.0</ele></trkpt>
      <trkpt lat="49.570839" lon="19.530736"><ele>1621.0</ele></trkpt>
      <trkpt lat="49.570796" lon="19.530543"><ele>1621.0</ele></trkpt>
      <trkpt lat="49.570747" lon="19.530298"><ele>1623.7</ele></trkpt>
      <trkpt lat="49.570708" lon="19.530210"><ele>1623.7</ele></trkpt>
      <trkpt lat="49.570693" lon="19.530143"><ele>1626.3</ele></trkpt>
      <trkpt lat="49.570702" lon="19.530072"><ele>1626.3</ele></trkpt>
      <trkpt lat="49.570742" lon="19.529941"><ele>1630.0</ele></trkpt>
      <trkpt lat="49.570780" lon="19.529897"><ele>1630.0</ele></trkpt>
      <trkpt lat="49.570864" lon="19.529878"><ele>1636.1</ele></trkpt>
      <trkpt lat="49.571040" lon="19.529824"><ele>1636.1</ele></trkpt>
      <trkpt lat="49.571088" lon="19.529835"><ele>1642.2</ele></trkpt>
      <trkpt lat="49.571137" lon="19.529888"><ele>1642.2</ele></trkpt>
      <trkpt lat="49.571210" lon="19.530040"><ele>1645.8</ele></trkpt>
      <trkpt lat="49.571303" lon="19.530116"><ele>1645.8</ele></trkpt>
      <trkpt lat="49.571622" lon="19.530378"><ele>1650.7</ele></trkpt>
      <trkpt lat="49.571836" lon="19.530475"><ele>1650.7</ele></trkpt>
      <trkpt lat="49.571883" lon="19.530487"><ele>1654.6</ele></trkpt>
      <trkpt lat="49.571918" lon="19.530479"><ele>1654.6</ele></trkpt>
      <trkpt lat="49.571956" lon="19.530431"><ele>1659.6</ele></trkpt>
      <trkpt lat="49.571998" lon="19.530295"><ele>1659.6</ele></trkpt>
      <trkpt lat="49.572021" lon="19.530209"><ele>1664.9</ele></trkpt>
      <trkpt lat="49.572031" lon="19.530148"><ele>1664.9</ele></trkpt>
      <trkpt lat="49.572062" lon="19.530099"><ele>1667.2</ele></trkpt>
      <trkpt lat="49.572098" lon="19.530033"><ele>1669.4</ele></trkpt>
      <trkpt lat="49.572128" lon="19.530004"><ele>1669.4</ele></trkpt>
      <trkpt lat="49.572171" lon="19.530000"><ele>1673.8</ele></trkpt>
      <trkpt lat="49.572217" lon="19.530016"><ele>1673.8</ele></trkpt>
      <trkpt lat="49.572342" lon="19.530098"><ele>1680.9</ele></trkpt>
      <trkpt lat="49.572398" lon="19.530146"><ele>1680.9</ele></trkpt>
      <trkpt lat="49.572469" lon="19.530178"><ele>1687.3</ele></trkpt>
      <trkpt lat="49.572564" lon="19.530222"><ele>1687.3</ele></trkpt>
      <trkpt lat="49.572654" lon="19.530262"><ele>1691.9</ele></trkpt>
      <trkpt lat="49.572700" lon="19.530256"><ele>1691.9</ele></trkpt>
      <trkpt lat="49.572725" lon="19.530242"><ele>1697.6</ele></trkpt>
      <trkpt lat="49.572762" lon="19.530197"><ele>1697.6</ele></trkpt>
      <trkpt lat="49.572807" lon="19.530152"><ele>1702.0</ele></trkpt>
      <trkpt lat="49.572846" lon="19.530093"><ele>1702.0</ele></trkpt>
      <trkpt lat="49.572896" lon="19.530047"><ele>1706.2</ele></trkpt>
      <trkpt lat="49.572933" lon="19.530000"><ele>1706.2</ele></trkpt>
      <trkpt lat="49.572995" lon="19.529925"><ele>1710.4</ele></trkpt>
      <trkpt lat="49.573057" lon="19.529798"><ele>1710.4</ele></trkpt>
      <trkpt lat="49.573086" lon="19.529735"><ele>1710.8</ele></trkpt>
      <trkpt lat="49.573107" lon="19.529701"><ele>1710.8</ele></trkpt>
      <trkpt lat="49.573150" lon="19.529657"><ele>1710.8</ele></trkpt>
      <trkpt lat="49.573139" lon="19.529596"><ele>1710.8</ele></trkpt>
      <trkpt lat="49.573114" lon="19.529511"><ele>1712.4</ele></trkpt>
      <trkpt lat="49.573087" lon="19.529446"><ele>1712.4</ele></trkpt>
      <trkpt lat="49.572941" lon="19.529333"><ele>1710.8</ele></trkpt>
    </trkseg>
  </trk>
</gpx>
