<?xml version="1.0" encoding="UTF-8"?>
<gpx version="1.1" creator="mapy-pipeline (Babia Gora 01)" xmlns="http://www.topografix.com/GPX/1/1">
  <metadata>
    <name>Krowiarki – Schronisko PTTK – Perć Akademików – Diablak</name>
    <desc>Wejście na Diablaka — TYLKO PODEJŚCIE, bez drogi powrotnej. 8.8 km, przewyższenie +776 m. Wysokości z modelu terenu (DEM 25 m), wartości przybliżone.</desc>
    <link href="https://bgpn.gov.pl/turystyka-piesza"><text>Babiogorski Park Narodowy - szlaki</text></link>
  </metadata>
  <trk>
    <name>Krowiarki – Schronisko PTTK – Perć Akademików – Diablak (wejscie)</name>
    <desc>Wejście na Diablaka — TYLKO PODEJŚCIE, bez drogi powrotnej. 8.8 km, przewyższenie +776 m. Wysokości z modelu terenu (DEM 25 m), wartości przybliżone.</desc>
    <trkseg>
      <trkpt lat="49.587811" lon="19.581809"><ele>1022.5</ele></trkpt>
      <trkpt lat="49.587806" lon="19.581689"><ele>1024.4</ele></trkpt>
      <trkpt lat="49.587810" lon="19.581417"><ele>1024.4</ele></trkpt>
      <trkpt lat="49.587806" lon="19.581222"><ele>1024.4</ele></trkpt>
      <trkpt lat="49.587788" lon="19.580835"><ele>1024.4</ele></trkpt>
      <trkpt lat="49.587742" lon="19.580609"><ele>1026.5</ele></trkpt>
      <trkpt lat="49.587728" lon="19.580319"><ele>1026.5</ele></trkpt>
      <trkpt lat="49.587739" lon="19.580051"><ele>1030.0</ele></trkpt>
      <trkpt lat="49.587804" lon="19.579809"><ele>1030.0</ele></trkpt>
      <trkpt lat="49.587874" lon="19.579412"><ele>1032.0</ele></trkpt>
      <trkpt lat="49.588021" lon="19.578921"><ele>1032.0</ele></trkpt>
      <trkpt lat="49.588120" lon="19.578461"><ele>1032.3</ele></trkpt>
      <trkpt lat="49.588292" lon="19.577920"><ele>1032.3</ele></trkpt>
      <trkpt lat="49.588442" lon="19.577577"><ele>1034.7</ele></trkpt>
      <trkpt lat="49.588546" lon="19.577186"><ele>1034.7</ele></trkpt>
      <trkpt lat="49.588659" lon="19.576616"><ele>1037.4</ele></trkpt>
      <trkpt lat="49.588615" lon="19.576288"><ele>1037.4</ele></trkpt>
      <trkpt lat="49.588582" lon="19.575992"><ele>1040.9</ele></trkpt>
      <trkpt lat="49.588580" lon="19.575694"><ele>1043.5</ele></trkpt>
      <trkpt lat="49.588649" lon="19.575150"><ele>1043.5</ele></trkpt>
      <trkpt lat="49.588710" lon="19.574874"><ele>1043.5</ele></trkpt>
      <trkpt lat="49.588840" lon="19.574687"><ele>1043.5</ele></trkpt>
      <trkpt lat="49.589368" lon="19.574154"><ele>1043.5</ele></trkpt>
      <trkpt lat="49.589656" lon="19.573824"><ele>1043.5</ele></trkpt>
      <trkpt lat="49.590012" lon="19.573454"><ele>1043.5</ele></trkpt>
      <trkpt lat="49.590306" lon="19.572694"><ele>1043.5</ele></trkpt>
      <trkpt lat="49.590463" lon="19.572220"><ele>1043.5</ele></trkpt>
      <trkpt lat="49.590654" lon="19.571487"><ele>1043.5</ele></trkpt>
      <trkpt lat="49.590747" lon="19.570945"><ele>1045.7</ele></trkpt>
      <trkpt lat="49.590767" lon="19.570577"><ele>1045.7</ele></trkpt>
      <trkpt lat="49.590764" lon="19.570164"><ele>1046.8</ele></trkpt>
      <trkpt lat="49.590792" lon="19.569896"><ele>1046.8</ele></trkpt>
      <trkpt lat="49.590910" lon="19.569648"><ele>1049.9</ele></trkpt>
      <trkpt lat="49.591041" lon="19.569332"><ele>1049.9</ele></trkpt>
      <trkpt lat="49.591077" lon="19.569087"><ele>1052.5</ele></trkpt>
      <trkpt lat="49.591032" lon="19.568789"><ele>1054.6</ele></trkpt>
      <trkpt lat="49.590887" lon="19.568379"><ele>1054.6</ele></trkpt>
      <trkpt lat="49.590775" lon="19.568001"><ele>1057.1</ele></trkpt>
      <trkpt lat="49.590766" lon="19.567820"><ele>1057.1</ele></trkpt>
      <trkpt lat="49.590852" lon="19.567390"><ele>1057.1</ele></trkpt>
      <trkpt lat="49.590850" lon="19.567162"><ele>1057.1</ele></trkpt>
      <trkpt lat="49.590796" lon="19.566984"><ele>1057.1</ele></trkpt>
      <trkpt lat="49.590721" lon="19.566765"><ele>1057.1</ele></trkpt>
      <trkpt lat="49.590624" lon="19.566715"><ele>1056.8</ele></trkpt>
      <trkpt lat="49.590511" lon="19.566430"><ele>1056.8</ele></trkpt>
      <trkpt lat="49.590419" lon="19.566268"><ele>1056.3</ele></trkpt>
      <trkpt lat="49.590387" lon="19.566168"><ele>1056.3</ele></trkpt>
      <trkpt lat="49.590369" lon="19.566060"><ele>1054.7</ele></trkpt>
      <trkpt lat="49.590373" lon="19.565924"><ele>1054.7</ele></trkpt>
      <trkpt lat="49.590411" lon="19.565822"><ele>1053.5</ele></trkpt>
      <trkpt lat="49.590462" lon="19.565733"><ele>1053.5</ele></trkpt>
      <trkpt lat="49.590534" lon="19.565732"><ele>1053.5</ele></trkpt>
      <trkpt lat="49.590557" lon="19.565722"><ele>1053.5</ele></trkpt>
      <trkpt lat="49.590636" lon="19.565553"><ele>1053.5</ele></trkpt>
      <trkpt lat="49.590658" lon="19.565339"><ele>1055.6</ele></trkpt>
      <trkpt lat="49.590708" lon="19.565245"><ele>1055.6</ele></trkpt>
      <trkpt lat="49.590925" lon="19.565068"><ele>1057.0</ele></trkpt>
      <trkpt lat="49.590975" lon="19.565004"><ele>1057.0</ele></trkpt>
      <trkpt lat="49.591001" lon="19.564896"><ele>1058.1</ele></trkpt>
      <trkpt lat="49.590977" lon="19.564767"><ele>1058.1</ele></trkpt>
      <trkpt lat="49.590932" lon="19.564695"><ele>1058.8</ele></trkpt>
      <trkpt lat="49.590854" lon="19.564474"><ele>1058.8</ele></trkpt>
      <trkpt lat="49.590771" lon="19.564218"><ele>1059.6</ele></trkpt>
      <trkpt lat="49.590731" lon="19.564057"><ele>1059.6</ele></trkpt>
      <trkpt lat="49.590724" lon="19.563923"><ele>1060.1</ele></trkpt>
      <trkpt lat="49.590779" lon="19.563647"><ele>1060.1</ele></trkpt>
      <trkpt lat="49.590831" lon="19.563553"><ele>1060.6</ele></trkpt>
      <trkpt lat="49.590884" lon="19.563421"><ele>1060.6</ele></trkpt>
      <trkpt lat="49.591021" lon="19.563258"><ele>1060.9</ele></trkpt>
      <trkpt lat="49.591129" lon="19.563028"><ele>1060.9</ele></trkpt>
      <trkpt lat="49.591082" lon="19.562757"><ele>1061.7</ele></trkpt>
      <trkpt lat="49.591005" lon="19.562627"><ele>1061.7</ele></trkpt>
      <trkpt lat="49.590927" lon="19.562383"><ele>1061.7</ele></trkpt>
      <trkpt lat="49.590792" lon="19.562238"><ele>1061.7</ele></trkpt>
      <trkpt lat="49.590769" lon="19.562136"><ele>1061.7</ele></trkpt>
      <trkpt lat="49.590790" lon="19.562018"><ele>1058.9</ele></trkpt>
      <trkpt lat="49.590859" lon="19.561870"><ele>1058.9</ele></trkpt>
      <trkpt lat="49.590861" lon="19.561790"><ele>1058.9</ele></trkpt>
      <trkpt lat="49.590790" lon="19.561693"><ele>1058.9</ele></trkpt>
      <trkpt lat="49.590769" lon="19.561548"><ele>1058.9</ele></trkpt>
      <trkpt lat="49.590812" lon="19.561389"><ele>1058.9</ele></trkpt>
      <trkpt lat="49.590792" lon="19.561287"><ele>1058.9</ele></trkpt>
      <trkpt lat="49.590753" lon="19.561220"><ele>1058.9</ele></trkpt>
      <trkpt lat="49.590681" lon="19.561029"><ele>1060.6</ele></trkpt>
      <trkpt lat="49.590639" lon="19.560704"><ele>1060.6</ele></trkpt>
      <trkpt lat="49.590520" lon="19.560357"><ele>1060.6</ele></trkpt>
      <trkpt lat="49.590370" lon="19.560084"><ele>1060.6</ele></trkpt>
      <trkpt lat="49.590333" lon="19.559911"><ele>1060.6</ele></trkpt>
      <trkpt lat="49.590321" lon="19.559757"><ele>1062.3</ele></trkpt>
      <trkpt lat="49.590332" lon="19.559610"><ele>1062.3</ele></trkpt>
      <trkpt lat="49.590399" lon="19.559341"><ele>1062.3</ele></trkpt>
      <trkpt lat="49.590498" lon="19.559144"><ele>1062.3</ele></trkpt>
      <trkpt lat="49.590499" lon="19.558899"><ele>1062.4</ele></trkpt>
      <trkpt lat="49.590564" lon="19.558716"><ele>1062.4</ele></trkpt>
      <trkpt lat="49.590640" lon="19.558594"><ele>1068.7</ele></trkpt>
      <trkpt lat="49.590680" lon="19.558318"><ele>1068.7</ele></trkpt>
      <trkpt lat="49.590759" lon="19.558173"><ele>1069.9</ele></trkpt>
      <trkpt lat="49.590821" lon="19.558022"><ele>1069.9</ele></trkpt>
      <trkpt lat="49.590858" lon="19.557911"><ele>1069.9</ele></trkpt>
      <trkpt lat="49.590877" lon="19.557534"><ele>1069.9</ele></trkpt>
      <trkpt lat="49.590870" lon="19.557348"><ele>1069.9</ele></trkpt>
      <trkpt lat="49.590693" lon="19.556623"><ele>1069.9</ele></trkpt>
      <trkpt lat="49.590665" lon="19.556391"><ele>1067.5</ele></trkpt>
      <trkpt lat="49.590605" lon="19.556153"><ele>1067.5</ele></trkpt>
      <trkpt lat="49.590573" lon="19.555905"><ele>1065.8</ele></trkpt>
      <trkpt lat="49.590513" lon="19.555720"><ele>1065.8</ele></trkpt>
      <trkpt lat="49.590424" lon="19.555629"><ele>1065.8</ele></trkpt>
      <trkpt lat="49.590344" lon="19.555430"><ele>1065.8</ele></trkpt>
      <trkpt lat="49.590257" lon="19.555404"><ele>1065.8</ele></trkpt>
      <trkpt lat="49.590182" lon="19.555352"><ele>1066.9</ele></trkpt>
      <trkpt lat="49.590131" lon="19.555287"><ele>1066.9</ele></trkpt>
      <trkpt lat="49.590101" lon="19.555218"><ele>1068.2</ele></trkpt>
      <trkpt lat="49.590077" lon="19.555134"><ele>1068.2</ele></trkpt>
      <trkpt lat="49.590080" lon="19.555048"><ele>1068.2</ele></trkpt>
      <trkpt lat="49.590106" lon="19.554900"><ele>1068.2</ele></trkpt>
      <trkpt lat="49.590111" lon="19.554745"><ele>1068.2</ele></trkpt>
      <trkpt lat="49.590037" lon="19.554581"><ele>1068.2</ele></trkpt>
      <trkpt lat="49.590002" lon="19.554393"><ele>1068.2</ele></trkpt>
      <trkpt lat="49.589932" lon="19.554272"><ele>1068.2</ele></trkpt>
      <trkpt lat="49.589713" lon="19.554072"><ele>1068.2</ele></trkpt>
      <trkpt lat="49.589665" lon="19.553998"><ele>1068.2</ele></trkpt>
      <trkpt lat="49.589656" lon="19.553911"><ele>1068.5</ele></trkpt>
      <trkpt lat="49.589630" lon="19.553655"><ele>1068.5</ele></trkpt>
      <trkpt lat="49.589587" lon="19.553588"><ele>1073.0</ele></trkpt>
      <trkpt lat="49.589468" lon="19.553512"><ele>1073.4</ele></trkpt>
      <trkpt lat="49.589375" lon="19.553380"><ele>1073.4</ele></trkpt>
      <trkpt lat="49.589304" lon="19.553226"><ele>1073.9</ele></trkpt>
      <trkpt lat="49.589225" lon="19.553165"><ele>1073.9</ele></trkpt>
      <trkpt lat="49.588978" lon="19.553062"><ele>1074.6</ele></trkpt>
      <trkpt lat="49.588836" lon="19.552854"><ele>1074.6</ele></trkpt>
      <trkpt lat="49.588697" lon="19.552554"><ele>1074.6</ele></trkpt>
      <trkpt lat="49.588400" lon="19.552245"><ele>1074.6</ele></trkpt>
      <trkpt lat="49.588279" lon="19.552083"><ele>1075.6</ele></trkpt>
      <trkpt lat="49.588166" lon="19.551904"><ele>1075.6</ele></trkpt>
      <trkpt lat="49.588109" lon="19.551656"><ele>1075.6</ele></trkpt>
      <trkpt lat="49.588060" lon="19.551461"><ele>1075.6</ele></trkpt>
      <trkpt lat="49.588050" lon="19.551327"><ele>1079.0</ele></trkpt>
      <trkpt lat="49.588148" lon="19.551157"><ele>1079.0</ele></trkpt>
      <trkpt lat="49.588220" lon="19.551059"><ele>1081.0</ele></trkpt>
      <trkpt lat="49.588222" lon="19.550911"><ele>1081.0</ele></trkpt>
      <trkpt lat="49.588170" lon="19.550820"><ele>1081.0</ele></trkpt>
      <trkpt lat="49.588119" lon="19.550742"><ele>1081.0</ele></trkpt>
      <trkpt lat="49.588090" lon="19.550589"><ele>1081.0</ele></trkpt>
      <trkpt lat="49.588109" lon="19.550225"><ele>1076.9</ele></trkpt>
      <trkpt lat="49.588080" lon="19.550156"><ele>1076.9</ele></trkpt>
      <trkpt lat="49.587900" lon="19.549763"><ele>1075.7</ele></trkpt>
      <trkpt lat="49.587872" lon="19.549584"><ele>1075.7</ele></trkpt>
      <trkpt lat="49.587778" lon="19.549423"><ele>1072.7</ele></trkpt>
      <trkpt lat="49.587635" lon="19.549415"><ele>1072.7</ele></trkpt>
      <trkpt lat="49.587520" lon="19.549435"><ele>1070.6</ele></trkpt>
      <trkpt lat="49.587422" lon="19.549415"><ele>1070.6</ele></trkpt>
      <trkpt lat="49.587285" lon="19.549454"><ele>1070.6</ele></trkpt>
      <trkpt lat="49.586883" lon="19.549695"><ele>1070.6</ele></trkpt>
      <trkpt lat="49.586782" lon="19.549769"><ele>1070.6</ele></trkpt>
      <trkpt lat="49.586692" lon="19.549761"><ele>1070.6</ele></trkpt>
      <trkpt lat="49.586627" lon="19.549718"><ele>1074.4</ele></trkpt>
      <trkpt lat="49.586559" lon="19.549637"><ele>1074.4</ele></trkpt>
      <trkpt lat="49.586500" lon="19.549535"><ele>1076.5</ele></trkpt>
      <trkpt lat="49.586394" lon="19.549379"><ele>1077.3</ele></trkpt>
      <trkpt lat="49.586096" lon="19.548752"><ele>1077.3</ele></trkpt>
      <trkpt lat="49.585974" lon="19.548460"><ele>1079.1</ele></trkpt>
      <trkpt lat="49.585930" lon="19.548175"><ele>1079.1</ele></trkpt>
      <trkpt lat="49.585934" lon="19.548052"><ele>1081.2</ele></trkpt>
      <trkpt lat="49.585984" lon="19.547953"><ele>1081.2</ele></trkpt>
      <trkpt lat="49.586114" lon="19.547804"><ele>1084.7</ele></trkpt>
      <trkpt lat="49.586206" lon="19.547677"><ele>1084.7</ele></trkpt>
      <trkpt lat="49.586251" lon="19.547592"><ele>1086.9</ele></trkpt>
      <trkpt lat="49.586298" lon="19.547450"><ele>1086.9</ele></trkpt>
      <trkpt lat="49.586291" lon="19.547318"><ele>1087.7</ele></trkpt>
      <trkpt lat="49.586231" lon="19.547259"><ele>1087.7</ele></trkpt>
      <trkpt lat="49.586108" lon="19.547197"><ele>1087.7</ele></trkpt>
      <trkpt lat="49.585952" lon="19.547033"><ele>1087.7</ele></trkpt>
      <trkpt lat="49.585851" lon="19.546857"><ele>1089.7</ele></trkpt>
      <trkpt lat="49.585734" lon="19.546533"><ele>1089.7</ele></trkpt>
      <trkpt lat="49.585675" lon="19.546190"><ele>1090.0</ele></trkpt>
      <trkpt lat="49.585596" lon="19.546081"><ele>1090.4</ele></trkpt>
      <trkpt lat="49.585489" lon="19.546029"><ele>1090.4</ele></trkpt>
      <trkpt lat="49.585399" lon="19.545977"><ele>1091.9</ele></trkpt>
      <trkpt lat="49.585376" lon="19.545832"><ele>1091.9</ele></trkpt>
      <trkpt lat="49.585304" lon="19.545649"><ele>1092.4</ele></trkpt>
      <trkpt lat="49.585236" lon="19.545464"><ele>1092.4</ele></trkpt>
      <trkpt lat="49.585145" lon="19.545362"><ele>1092.4</ele></trkpt>
      <trkpt lat="49.584987" lon="19.545016"><ele>1092.4</ele></trkpt>
      <trkpt lat="49.584919" lon="19.544901"><ele>1093.6</ele></trkpt>
      <trkpt lat="49.584870" lon="19.544729"><ele>1093.6</ele></trkpt>
      <trkpt lat="49.584754" lon="19.544471"><ele>1093.9</ele></trkpt>
      <trkpt lat="49.584713" lon="19.544221"><ele>1093.9</ele></trkpt>
      <trkpt lat="49.584610" lon="19.543921"><ele>1094.0</ele></trkpt>
      <trkpt lat="49.584515" lon="19.543670"><ele>1094.0</ele></trkpt>
      <trkpt lat="49.584402" lon="19.543424"><ele>1095.4</ele></trkpt>
      <trkpt lat="49.584263" lon="19.543042"><ele>1095.4</ele></trkpt>
      <trkpt lat="49.584170" lon="19.542881"><ele>1097.9</ele></trkpt>
      <trkpt lat="49.584084" lon="19.542613"><ele>1097.9</ele></trkpt>
      <trkpt lat="49.584037" lon="19.542355"><ele>1097.9</ele></trkpt>
      <trkpt lat="49.584014" lon="19.542183"><ele>1097.9</ele></trkpt>
      <trkpt lat="49.584026" lon="19.541980"><ele>1097.9</ele></trkpt>
      <trkpt lat="49.584076" lon="19.541802"><ele>1095.2</ele></trkpt>
      <trkpt lat="49.584137" lon="19.541651"><ele>1095.2</ele></trkpt>
      <trkpt lat="49.584205" lon="19.541489"><ele>1092.8</ele></trkpt>
      <trkpt lat="49.584179" lon="19.541345"><ele>1092.8</ele></trkpt>
      <trkpt lat="49.584161" lon="19.541129"><ele>1092.4</ele></trkpt>
      <trkpt lat="49.584142" lon="19.540967"><ele>1092.4</ele></trkpt>
      <trkpt lat="49.584058" lon="19.540772"><ele>1092.4</ele></trkpt>
      <trkpt lat="49.584000" lon="19.540609"><ele>1092.4</ele></trkpt>
      <trkpt lat="49.584026" lon="19.540464"><ele>1092.8</ele></trkpt>
      <trkpt lat="49.584165" lon="19.540209"><ele>1092.8</ele></trkpt>
      <trkpt lat="49.584205" lon="19.540137"><ele>1092.9</ele></trkpt>
      <trkpt lat="49.584262" lon="19.540080"><ele>1092.9</ele></trkpt>
      <trkpt lat="49.584458" lon="19.539922"><ele>1094.3</ele></trkpt>
      <trkpt lat="49.584554" lon="19.539781"><ele>1094.3</ele></trkpt>
      <trkpt lat="49.584553" lon="19.539588"><ele>1094.4</ele></trkpt>
      <trkpt lat="49.584486" lon="19.539288"><ele>1095.4</ele></trkpt>
      <trkpt lat="49.584324" lon="19.538887"><ele>1095.4</ele></trkpt>
      <trkpt lat="49.584277" lon="19.538650"><ele>1097.6</ele></trkpt>
      <trkpt lat="49.584278" lon="19.538526"><ele>1097.6</ele></trkpt>
      <trkpt lat="49.584280" lon="19.538393"><ele>1102.5</ele></trkpt>
      <trkpt lat="49.584320" lon="19.538297"><ele>1102.5</ele></trkpt>
      <trkpt lat="49.584389" lon="19.538265"><ele>1108.5</ele></trkpt>
      <trkpt lat="49.584620" lon="19.538235"><ele>1108.5</ele></trkpt>
      <trkpt lat="49.584744" lon="19.538149"><ele>1117.0</ele></trkpt>
      <trkpt lat="49.584784" lon="19.537952"><ele>1117.0</ele></trkpt>
      <trkpt lat="49.584805" lon="19.537807"><ele>1121.8</ele></trkpt>
      <trkpt lat="49.584827" lon="19.537633"><ele>1121.8</ele></trkpt>
      <trkpt lat="49.584811" lon="19.537544"><ele>1124.8</ele></trkpt>
      <trkpt lat="49.584737" lon="19.537490"><ele>1124.8</ele></trkpt>
      <trkpt lat="49.584552" lon="19.537089"><ele>1126.1</ele></trkpt>
      <trkpt lat="49.584500" lon="19.536894"><ele>1126.1</ele></trkpt>
      <trkpt lat="49.584484" lon="19.536693"><ele>1127.9</ele></trkpt>
      <trkpt lat="49.584469" lon="19.536472"><ele>1127.9</ele></trkpt>
      <trkpt lat="49.584526" lon="19.536320"><ele>1127.9</ele></trkpt>
      <trkpt lat="49.584606" lon="19.536212"><ele>1127.9</ele></trkpt>
      <trkpt lat="49.584615" lon="19.536116"><ele>1127.9</ele></trkpt>
      <trkpt lat="49.584591" lon="19.536024"><ele>1119.8</ele></trkpt>
      <trkpt lat="49.584544" lon="19.535830"><ele>1119.8</ele></trkpt>
      <trkpt lat="49.584515" lon="19.535540"><ele>1119.8</ele></trkpt>
      <trkpt lat="49.584497" lon="19.535423"><ele>1119.8</ele></trkpt>
      <trkpt lat="49.584447" lon="19.535287"><ele>1119.8</ele></trkpt>
      <trkpt lat="49.584342" lon="19.535143"><ele>1119.8</ele></trkpt>
      <trkpt lat="49.584263" lon="19.535078"><ele>1124.2</ele></trkpt>
      <trkpt lat="49.584145" lon="19.535027"><ele>1124.2</ele></trkpt>
      <trkpt lat="49.584080" lon="19.534911"><ele>1129.6</ele></trkpt>
      <trkpt lat="49.583981" lon="19.534645"><ele>1129.6</ele></trkpt>
      <trkpt lat="49.583859" lon="19.534419"><ele>1132.7</ele></trkpt>
      <trkpt lat="49.583584" lon="19.534023"><ele>1132.7</ele></trkpt>
      <trkpt lat="49.582950" lon="19.533378"><ele>1133.0</ele></trkpt>
      <trkpt lat="49.582894" lon="19.533254"><ele>1134.7</ele></trkpt>
      <trkpt lat="49.582878" lon="19.533172"><ele>1134.7</ele></trkpt>
      <trkpt lat="49.582814" lon="19.533114"><ele>1139.5</ele></trkpt>
      <trkpt lat="49.582691" lon="19.533111"><ele>1139.5</ele></trkpt>
      <trkpt lat="49.582631" lon="19.533050"><ele>1140.1</ele></trkpt>
      <trkpt lat="49.582379" lon="19.532790"><ele>1140.1</ele></trkpt>
      <trkpt lat="49.582268" lon="19.532593"><ele>1142.9</ele></trkpt>
      <trkpt lat="49.581961" lon="19.532089"><ele>1142.9</ele></trkpt>
      <trkpt lat="49.581903" lon="19.531988"><ele>1146.2</ele></trkpt>
      <trkpt lat="49.581868" lon="19.531886"><ele>1146.2</ele></trkpt>
      <trkpt lat="49.581871" lon="19.531752"><ele>1150.1</ele></trkpt>
      <trkpt lat="49.581841" lon="19.531579"><ele>1150.1</ele></trkpt>
      <trkpt lat="49.581812" lon="19.531275"><ele>1153.4</ele></trkpt>
      <trkpt lat="49.581856" lon="19.531053"><ele>1153.4</ele></trkpt>
      <trkpt lat="49.581975" lon="19.530870"><ele>1153.6</ele></trkpt>
      <trkpt lat="49.582101" lon="19.530735"><ele>1153.6</ele></trkpt>
      <trkpt lat="49.582118" lon="19.530595"><ele>1154.6</ele></trkpt>
      <trkpt lat="49.582050" lon="19.530371"><ele>1154.6</ele></trkpt>
      <trkpt lat="49.582045" lon="19.530286"><ele>1155.6</ele></trkpt>
      <trkpt lat="49.582103" lon="19.530105"><ele>1157.2</ele></trkpt>
      <trkpt lat="49.582361" lon="19.529656"><ele>1157.2</ele></trkpt>
      <trkpt lat="49.582426" lon="19.529480"><ele>1160.3</ele></trkpt>
      <trkpt lat="49.582422" lon="19.529270"><ele>1160.3</ele></trkpt>
      <trkpt lat="49.582333" lon="19.529045"><ele>1164.7</ele></trkpt>
      <trkpt lat="49.582174" lon="19.528575"><ele>1164.7</ele></trkpt>
      <trkpt lat="49.582122" lon="19.528414"><ele>1164.7</ele></trkpt>
      <trkpt lat="49.582015" lon="19.528372"><ele>1164.7</ele></trkpt>
      <trkpt lat="49.581671" lon="19.528403"><ele>1164.7</ele></trkpt>
      <trkpt lat="49.581478" lon="19.528373"><ele>1164.7</ele></trkpt>
      <trkpt lat="49.581433" lon="19.528295"><ele>1165.2</ele></trkpt>
      <trkpt lat="49.581437" lon="19.528180"><ele>1165.2</ele></trkpt>
      <trkpt lat="49.581515" lon="19.527962"><ele>1165.2</ele></trkpt>
      <trkpt lat="49.581609" lon="19.527764"><ele>1165.2</ele></trkpt>
      <trkpt lat="49.581712" lon="19.527610"><ele>1165.2</ele></trkpt>
      <trkpt lat="49.581787" lon="19.527512"><ele>1165.2</ele></trkpt>
      <trkpt lat="49.581949" lon="19.527464"><ele>1169.5</ele></trkpt>
      <trkpt lat="49.582133" lon="19.527153"><ele>1171.4</ele></trkpt>
      <trkpt lat="49.582293" lon="19.527016"><ele>1171.4</ele></trkpt>
      <trkpt lat="49.582356" lon="19.526997"><ele>1171.4</ele></trkpt>
      <trkpt lat="49.582404" lon="19.526898"><ele>1171.4</ele></trkpt>
      <trkpt lat="49.582393" lon="19.526771"><ele>1171.8</ele></trkpt>
      <trkpt lat="49.582267" lon="19.526454"><ele>1171.8</ele></trkpt>
      <trkpt lat="49.582275" lon="19.526210"><ele>1171.8</ele></trkpt>
      <trkpt lat="49.582296" lon="19.525979"><ele>1171.8</ele></trkpt>
      <trkpt lat="49.582326" lon="19.525825"><ele>1171.8</ele></trkpt>
      <trkpt lat="49.582419" lon="19.525637"><ele>1171.8</ele></trkpt>
      <trkpt lat="49.582580" lon="19.525403"><ele>1176.3</ele></trkpt>
      <trkpt lat="49.582777" lon="19.525213"><ele>1176.3</ele></trkpt>
      <trkpt lat="49.582803" lon="19.525084"><ele>1180.3</ele></trkpt>
      <trkpt lat="49.582791" lon="19.524966"><ele>1180.3</ele></trkpt>
      <trkpt lat="49.582734" lon="19.524803"><ele>1180.3</ele></trkpt>
      <trkpt lat="49.582641" lon="19.524544"><ele>1180.3</ele></trkpt>
      <trkpt lat="49.582635" lon="19.524446"><ele>1180.3</ele></trkpt>
      <trkpt lat="49.582650" lon="19.524376"><ele>1176.9</ele></trkpt>
      <trkpt lat="49.582716" lon="19.524371"><ele>1176.9</ele></trkpt>
      <trkpt lat="49.582863" lon="19.524472"><ele>1176.9</ele></trkpt>
      <trkpt lat="49.583080" lon="19.524687"><ele>1176.9</ele></trkpt>
      <trkpt lat="49.583153" lon="19.524714"><ele>1176.9</ele></trkpt>
      <trkpt lat="49.583201" lon="19.524710"><ele>1176.9</ele></trkpt>
      <trkpt lat="49.583245" lon="19.524628"><ele>1178.3</ele></trkpt>
      <trkpt lat="49.583332" lon="19.524349"><ele>1178.3</ele></trkpt>
      <trkpt lat="49.583421" lon="19.524145"><ele>1182.8</ele></trkpt>
      <trkpt lat="49.583504" lon="19.523923"><ele>1182.8</ele></trkpt>
      <trkpt lat="49.583552" lon="19.523753"><ele>1185.9</ele></trkpt>
      <trkpt lat="49.583617" lon="19.523462"><ele>1185.9</ele></trkpt>
      <trkpt lat="49.583636" lon="19.523446"><ele>1186.4</ele></trkpt>
      <trkpt lat="49.583669" lon="19.523345"><ele>1186.4</ele></trkpt>
      <trkpt lat="49.583650" lon="19.523235"><ele>1188.2</ele></trkpt>
      <trkpt lat="49.583666" lon="19.523111"><ele>1188.2</ele></trkpt>
      <trkpt lat="49.583713" lon="19.523003"><ele>1188.4</ele></trkpt>
      <trkpt lat="49.583759" lon="19.522941"><ele>1188.4</ele></trkpt>
      <trkpt lat="49.583823" lon="19.522907"><ele>1188.4</ele></trkpt>
      <trkpt lat="49.583914" lon="19.522716"><ele>1188.5</ele></trkpt>
      <trkpt lat="49.583970" lon="19.522547"><ele>1188.5</ele></trkpt>
      <trkpt lat="49.583974" lon="19.522328"><ele>1193.0</ele></trkpt>
      <trkpt lat="49.584053" lon="19.522152"><ele>1193.0</ele></trkpt>
      <trkpt lat="49.584196" lon="19.521953"><ele>1197.1</ele></trkpt>
      <trkpt lat="49.584308" lon="19.521732"><ele>1197.1</ele></trkpt>
      <trkpt lat="49.584368" lon="19.521534"><ele>1197.8</ele></trkpt>
      <trkpt lat="49.584419" lon="19.521440"><ele>1197.8</ele></trkpt>
      <trkpt lat="49.584502" lon="19.521384"><ele>1198.8</ele></trkpt>
      <trkpt lat="49.584552" lon="19.521325"><ele>1198.8</ele></trkpt>
      <trkpt lat="49.584687" lon="19.521055"><ele>1198.9</ele></trkpt>
      <trkpt lat="49.584752" lon="19.520996"><ele>1198.9</ele></trkpt>
      <trkpt lat="49.584790" lon="19.520862"><ele>1201.6</ele></trkpt>
      <trkpt lat="49.584903" lon="19.520717"><ele>1201.6</ele></trkpt>
      <trkpt lat="49.584979" lon="19.520571"><ele>1205.6</ele></trkpt>
      <trkpt lat="49.585003" lon="19.520516"><ele>1209.0</ele></trkpt>
      <trkpt lat="49.585145" lon="19.520493"><ele>1209.0</ele></trkpt>
      <trkpt lat="49.585216" lon="19.520459"><ele>1209.0</ele></trkpt>
      <trkpt lat="49.585307" lon="19.520392"><ele>1209.0</ele></trkpt>
      <trkpt lat="49.585372" lon="19.520305"><ele>1210.6</ele></trkpt>
      <trkpt lat="49.585487" lon="19.520091"><ele>1210.6</ele></trkpt>
      <trkpt lat="49.585567" lon="19.519952"><ele>1212.9</ele></trkpt>
      <trkpt lat="49.585688" lon="19.519796"><ele>1212.9</ele></trkpt>
      <trkpt lat="49.585800" lon="19.519756"><ele>1212.9</ele></trkpt>
      <trkpt lat="49.585912" lon="19.519741"><ele>1212.9</ele></trkpt>
      <trkpt lat="49.586024" lon="19.519685"><ele>1212.9</ele></trkpt>
      <trkpt lat="49.586093" lon="19.519646"><ele>1212.9</ele></trkpt>
      <trkpt lat="49.586222" lon="19.519629"><ele>1212.6</ele></trkpt>
      <trkpt lat="49.586386" lon="19.519620"><ele>1212.6</ele></trkpt>
      <trkpt lat="49.586488" lon="19.519565"><ele>1212.6</ele></trkpt>
      <trkpt lat="49.586560" lon="19.519514"><ele>1212.6</ele></trkpt>
      <trkpt lat="49.586603" lon="19.519493"><ele>1212.6</ele></trkpt>
      <trkpt lat="49.586653" lon="19.519420"><ele>1212.6</ele></trkpt>
      <trkpt lat="49.586653" lon="19.519253"><ele>1212.6</ele></trkpt>
      <trkpt lat="49.586615" lon="19.519123"><ele>1214.3</ele></trkpt>
      <trkpt lat="49.586610" lon="19.518949"><ele>1214.3</ele></trkpt>
      <trkpt lat="49.586590" lon="19.518849"><ele>1214.4</ele></trkpt>
      <trkpt lat="49.586571" lon="19.518637"><ele>1214.4</ele></trkpt>
      <trkpt lat="49.586603" lon="19.518479"><ele>1214.3</ele></trkpt>
      <trkpt lat="49.586675" lon="19.518381"><ele>1214.3</ele></trkpt>
      <trkpt lat="49.586737" lon="19.518259"><ele>1213.1</ele></trkpt>
      <trkpt lat="49.586769" lon="19.518108"><ele>1213.1</ele></trkpt>
      <trkpt lat="49.586808" lon="19.517973"><ele>1214.4</ele></trkpt>
      <trkpt lat="49.586912" lon="19.517803"><ele>1214.4</ele></trkpt>
      <trkpt lat="49.586975" lon="19.517736"><ele>1214.5</ele></trkpt>
      <trkpt lat="49.587052" lon="19.517649"><ele>1214.5</ele></trkpt>
      <trkpt lat="49.587117" lon="19.517493"><ele>1214.5</ele></trkpt>
      <trkpt lat="49.587156" lon="19.517332"><ele>1214.5</ele></trkpt>
      <trkpt lat="49.587167" lon="19.517225"><ele>1217.0</ele></trkpt>
      <trkpt lat="49.587205" lon="19.517112"><ele>1217.0</ele></trkpt>
      <trkpt lat="49.587258" lon="19.517066"><ele>1217.9</ele></trkpt>
      <trkpt lat="49.587307" lon="19.517044"><ele>1217.9</ele></trkpt>
      <trkpt lat="49.587345" lon="19.516953"><ele>1217.9</ele></trkpt>
      <trkpt lat="49.587386" lon="19.516778"><ele>1220.5</ele></trkpt>
      <trkpt lat="49.587426" lon="19.516634"><ele>1220.5</ele></trkpt>
      <trkpt lat="49.587535" lon="19.516719"><ele>1224.5</ele></trkpt>
      <trkpt lat="49.587582" lon="19.516775"><ele>1224.5</ele></trkpt>
      <trkpt lat="49.587676" lon="19.516855"><ele>1229.5</ele></trkpt>
      <trkpt lat="49.587582" lon="19.516775"><ele>1229.5</ele></trkpt>
      <trkpt lat="49.587535" lon="19.516719"><ele>1229.5</ele></trkpt>
      <trkpt lat="49.587426" lon="19.516634"><ele>1229.5</ele></trkpt>
      <trkpt lat="49.587386" lon="19.516778"><ele>1229.5</ele></trkpt>
      <trkpt lat="49.587345" lon="19.516953"><ele>1229.5</ele></trkpt>
      <trkpt lat="49.587307" lon="19.517044"><ele>1228.8</ele></trkpt>
      <trkpt lat="49.587258" lon="19.517066"><ele>1228.8</ele></trkpt>
      <trkpt lat="49.587205" lon="19.517112"><ele>1226.3</ele></trkpt>
      <trkpt lat="49.587167" lon="19.517225"><ele>1226.3</ele></trkpt>
      <trkpt lat="49.587156" lon="19.517332"><ele>1226.2</ele></trkpt>
      <trkpt lat="49.587117" lon="19.517493"><ele>1226.2</ele></trkpt>
      <trkpt lat="49.587052" lon="19.517649"><ele>1226.2</ele></trkpt>
      <trkpt lat="49.586975" lon="19.517736"><ele>1226.3</ele></trkpt>
      <trkpt lat="49.586912" lon="19.517803"><ele>1226.3</ele></trkpt>
      <trkpt lat="49.586808" lon="19.517973"><ele>1230.3</ele></trkpt>
      <trkpt lat="49.586769" lon="19.518108"><ele>1230.3</ele></trkpt>
      <trkpt lat="49.586737" lon="19.518259"><ele>1230.3</ele></trkpt>
      <trkpt lat="49.586675" lon="19.518381"><ele>1230.3</ele></trkpt>
      <trkpt lat="49.586603" lon="19.518479"><ele>1230.3</ele></trkpt>
      <trkpt lat="49.586571" lon="19.518637"><ele>1230.3</ele></trkpt>
      <trkpt lat="49.586590" lon="19.518849"><ele>1226.3</ele></trkpt>
      <trkpt lat="49.586610" lon="19.518949"><ele>1226.3</ele></trkpt>
      <trkpt lat="49.586615" lon="19.519123"><ele>1226.3</ele></trkpt>
      <trkpt lat="49.586653" lon="19.519253"><ele>1226.3</ele></trkpt>
      <trkpt lat="49.586653" lon="19.519420"><ele>1226.3</ele></trkpt>
      <trkpt lat="49.586603" lon="19.519493"><ele>1226.3</ele></trkpt>
      <trkpt lat="49.586560" lon="19.519514"><ele>1222.3</ele></trkpt>
      <trkpt lat="49.586488" lon="19.519565"><ele>1222.3</ele></trkpt>
      <trkpt lat="49.586386" lon="19.519620"><ele>1222.3</ele></trkpt>
      <trkpt lat="49.586222" lon="19.519629"><ele>1221.5</ele></trkpt>
      <trkpt lat="49.586093" lon="19.519646"><ele>1221.5</ele></trkpt>
      <trkpt lat="49.586024" lon="19.519685"><ele>1215.0</ele></trkpt>
      <trkpt lat="49.585912" lon="19.519741"><ele>1215.0</ele></trkpt>
      <trkpt lat="49.585800" lon="19.519756"><ele>1213.2</ele></trkpt>
      <trkpt lat="49.585688" lon="19.519796"><ele>1213.2</ele></trkpt>
      <trkpt lat="49.585567" lon="19.519952"><ele>1213.2</ele></trkpt>
      <trkpt lat="49.585487" lon="19.520091"><ele>1213.2</ele></trkpt>
      <trkpt lat="49.585372" lon="19.520305"><ele>1213.2</ele></trkpt>
      <trkpt lat="49.585307" lon="19.520392"><ele>1213.2</ele></trkpt>
      <trkpt lat="49.585216" lon="19.520459"><ele>1215.9</ele></trkpt>
      <trkpt lat="49.585145" lon="19.520493"><ele>1215.9</ele></trkpt>
      <trkpt lat="49.585003" lon="19.520516"><ele>1215.9</ele></trkpt>
      <trkpt lat="49.584979" lon="19.520571"><ele>1215.9</ele></trkpt>
      <trkpt lat="49.584903" lon="19.520717"><ele>1215.9</ele></trkpt>
      <trkpt lat="49.584790" lon="19.520862"><ele>1215.9</ele></trkpt>
      <trkpt lat="49.584752" lon="19.520996"><ele>1214.8</ele></trkpt>
      <trkpt lat="49.584687" lon="19.521055"><ele>1214.6</ele></trkpt>
      <trkpt lat="49.584552" lon="19.521325"><ele>1214.6</ele></trkpt>
      <trkpt lat="49.584502" lon="19.521384"><ele>1213.6</ele></trkpt>
      <trkpt lat="49.584419" lon="19.521440"><ele>1213.6</ele></trkpt>
      <trkpt lat="49.584368" lon="19.521534"><ele>1213.2</ele></trkpt>
      <trkpt lat="49.584308" lon="19.521732"><ele>1213.2</ele></trkpt>
      <trkpt lat="49.584196" lon="19.521953"><ele>1213.2</ele></trkpt>
      <trkpt lat="49.584053" lon="19.522152"><ele>1213.2</ele></trkpt>
      <trkpt lat="49.583974" lon="19.522328"><ele>1213.0</ele></trkpt>
      <trkpt lat="49.583970" lon="19.522547"><ele>1213.0</ele></trkpt>
      <trkpt lat="49.583914" lon="19.522716"><ele>1210.8</ele></trkpt>
      <trkpt lat="49.583823" lon="19.522907"><ele>1210.8</ele></trkpt>
      <trkpt lat="49.583759" lon="19.522941"><ele>1209.2</ele></trkpt>
      <trkpt lat="49.583713" lon="19.523003"><ele>1209.2</ele></trkpt>
      <trkpt lat="49.583666" lon="19.523111"><ele>1208.0</ele></trkpt>
      <trkpt lat="49.583650" lon="19.523235"><ele>1208.0</ele></trkpt>
      <trkpt lat="49.583669" lon="19.523345"><ele>1206.1</ele></trkpt>
      <trkpt lat="49.583636" lon="19.523446"><ele>1206.1</ele></trkpt>
      <trkpt lat="49.583617" lon="19.523462"><ele>1206.1</ele></trkpt>
      <trkpt lat="49.583543" lon="19.523566"><ele>1206.1</ele></trkpt>
      <trkpt lat="49.583473" lon="19.523663"><ele>1206.1</ele></trkpt>
      <trkpt lat="49.583391" lon="19.523700"><ele>1204.6</ele></trkpt>
      <trkpt lat="49.583301" lon="19.523711"><ele>1204.6</ele></trkpt>
      <trkpt lat="49.583242" lon="19.523781"><ele>1204.6</ele></trkpt>
      <trkpt lat="49.583160" lon="19.523885"><ele>1204.6</ele></trkpt>
      <trkpt lat="49.583033" lon="19.523901"><ele>1204.3</ele></trkpt>
      <trkpt lat="49.582880" lon="19.523917"><ele>1204.3</ele></trkpt>
      <trkpt lat="49.582722" lon="19.523880"><ele>1201.2</ele></trkpt>
      <trkpt lat="49.582628" lon="19.523816"><ele>1201.2</ele></trkpt>
      <trkpt lat="49.582516" lon="19.523767"><ele>1201.2</ele></trkpt>
      <trkpt lat="49.582445" lon="19.523671"><ele>1201.2</ele></trkpt>
      <trkpt lat="49.582369" lon="19.523684"><ele>1201.2</ele></trkpt>
      <trkpt lat="49.582298" lon="19.523647"><ele>1201.2</ele></trkpt>
      <trkpt lat="49.582171" lon="19.523596"><ele>1205.8</ele></trkpt>
      <trkpt lat="49.581983" lon="19.523478"><ele>1209.4</ele></trkpt>
      <trkpt lat="49.581543" lon="19.523092"><ele>1209.4</ele></trkpt>
      <trkpt lat="49.581499" lon="19.523063"><ele>1209.7</ele></trkpt>
      <trkpt lat="49.580690" lon="19.522528"><ele>1209.7</ele></trkpt>
      <trkpt lat="49.580494" lon="19.522445"><ele>1209.7</ele></trkpt>
      <trkpt lat="49.580366" lon="19.522378"><ele>1209.7</ele></trkpt>
      <trkpt lat="49.580257" lon="19.522393"><ele>1209.4</ele></trkpt>
      <trkpt lat="49.579635" lon="19.521944"><ele>1209.4</ele></trkpt>
      <trkpt lat="49.579535" lon="19.521959"><ele>1208.1</ele></trkpt>
      <trkpt lat="49.579290" lon="19.522045"><ele>1208.1</ele></trkpt>
      <trkpt lat="49.578965" lon="19.522048"><ele>1207.9</ele></trkpt>
      <trkpt lat="49.578667" lon="19.521902"><ele>1207.9</ele></trkpt>
      <trkpt lat="49.578448" lon="19.521796"><ele>1206.7</ele></trkpt>
      <trkpt lat="49.578126" lon="19.521787"><ele>1206.7</ele></trkpt>
      <trkpt lat="49.577815" lon="19.521652"><ele>1205.2</ele></trkpt>
      <trkpt lat="49.577612" lon="19.521592"><ele>1205.2</ele></trkpt>
      <trkpt lat="49.577513" lon="19.521608"><ele>1204.9</ele></trkpt>
      <trkpt lat="49.577452" lon="19.521667"><ele>1204.9</ele></trkpt>
      <trkpt lat="49.577346" lon="19.521849"><ele>1204.9</ele></trkpt>
      <trkpt lat="49.577179" lon="19.522006"><ele>1204.9</ele></trkpt>
      <trkpt lat="49.577059" lon="19.522110"><ele>1204.9</ele></trkpt>
      <trkpt lat="49.576922" lon="19.522182"><ele>1205.2</ele></trkpt>
      <trkpt lat="49.576820" lon="19.522236"><ele>1205.2</ele></trkpt>
      <trkpt lat="49.576678" lon="19.522364"><ele>1207.8</ele></trkpt>
      <trkpt lat="49.576619" lon="19.522485"><ele>1207.8</ele></trkpt>
      <trkpt lat="49.576548" lon="19.522600"><ele>1208.2</ele></trkpt>
      <trkpt lat="49.576496" lon="19.522625"><ele>1208.2</ele></trkpt>
      <trkpt lat="49.576435" lon="19.522590"><ele>1208.8</ele></trkpt>
      <trkpt lat="49.576405" lon="19.522533"><ele>1208.8</ele></trkpt>
      <trkpt lat="49.576349" lon="19.522367"><ele>1209.1</ele></trkpt>
      <trkpt lat="49.576306" lon="19.522247"><ele>1209.1</ele></trkpt>
      <trkpt lat="49.576290" lon="19.522193"><ele>1209.1</ele></trkpt>
      <trkpt lat="49.576242" lon="19.522161"><ele>1209.1</ele></trkpt>
      <trkpt lat="49.576193" lon="19.522149"><ele>1208.8</ele></trkpt>
      <trkpt lat="49.576134" lon="19.522179"><ele>1208.8</ele></trkpt>
      <trkpt lat="49.576087" lon="19.522183"><ele>1208.1</ele></trkpt>
      <trkpt lat="49.576043" lon="19.522169"><ele>1203.5</ele></trkpt>
      <trkpt lat="49.575997" lon="19.522162"><ele>1203.5</ele></trkpt>
      <trkpt lat="49.575964" lon="19.522197"><ele>1203.0</ele></trkpt>
      <trkpt lat="49.575916" lon="19.522293"><ele>1203.0</ele></trkpt>
      <trkpt lat="49.575882" lon="19.522319"><ele>1203.0</ele></trkpt>
      <trkpt lat="49.575840" lon="19.522309"><ele>1203.0</ele></trkpt>
      <trkpt lat="49.575780" lon="19.522305"><ele>1203.0</ele></trkpt>
      <trkpt lat="49.575718" lon="19.522313"><ele>1203.0</ele></trkpt>
      <trkpt lat="49.575680" lon="19.522371"><ele>1205.0</ele></trkpt>
      <trkpt lat="49.575618" lon="19.522502"><ele>1205.0</ele></trkpt>
      <trkpt lat="49.575597" lon="19.522558"><ele>1205.0</ele></trkpt>
      <trkpt lat="49.575578" lon="19.522611"><ele>1205.0</ele></trkpt>
      <trkpt lat="49.575540" lon="19.522666"><ele>1205.0</ele></trkpt>
      <trkpt lat="49.575503" lon="19.522759"><ele>1205.0</ele></trkpt>
      <trkpt lat="49.575467" lon="19.522837"><ele>1205.9</ele></trkpt>
      <trkpt lat="49.575453" lon="19.522877"><ele>1205.9</ele></trkpt>
      <trkpt lat="49.575443" lon="19.522969"><ele>1205.9</ele></trkpt>
      <trkpt lat="49.575431" lon="19.523015"><ele>1207.6</ele></trkpt>
      <trkpt lat="49.575436" lon="19.523074"><ele>1207.6</ele></trkpt>
      <trkpt lat="49.575415" lon="19.523158"><ele>1208.6</ele></trkpt>
      <trkpt lat="49.575415" lon="19.523250"><ele>1208.6</ele></trkpt>
      <trkpt lat="49.575413" lon="19.523327"><ele>1210.1</ele></trkpt>
      <trkpt lat="49.575426" lon="19.523447"><ele>1210.1</ele></trkpt>
      <trkpt lat="49.575438" lon="19.523548"><ele>1211.5</ele></trkpt>
      <trkpt lat="49.575437" lon="19.523660"><ele>1211.5</ele></trkpt>
      <trkpt lat="49.575463" lon="19.523782"><ele>1212.9</ele></trkpt>
      <trkpt lat="49.575481" lon="19.523841"><ele>1212.9</ele></trkpt>
      <trkpt lat="49.575482" lon="19.523916"><ele>1214.1</ele></trkpt>
      <trkpt lat="49.575461" lon="19.523964"><ele>1214.1</ele></trkpt>
      <trkpt lat="49.575449" lon="19.524033"><ele>1214.1</ele></trkpt>
      <trkpt lat="49.575442" lon="19.524085"><ele>1214.1</ele></trkpt>
      <trkpt lat="49.575433" lon="19.524174"><ele>1214.1</ele></trkpt>
      <trkpt lat="49.575412" lon="19.524217"><ele>1214.1</ele></trkpt>
      <trkpt lat="49.575385" lon="19.524269"><ele>1214.6</ele></trkpt>
      <trkpt lat="49.575372" lon="19.524322"><ele>1216.8</ele></trkpt>
      <trkpt lat="49.575348" lon="19.524354"><ele>1216.8</ele></trkpt>
      <trkpt lat="49.575342" lon="19.524390"><ele>1217.8</ele></trkpt>
      <trkpt lat="49.575353" lon="19.524454"><ele>1217.8</ele></trkpt>
      <trkpt lat="49.575347" lon="19.524510"><ele>1219.1</ele></trkpt>
      <trkpt lat="49.575318" lon="19.524578"><ele>1219.1</ele></trkpt>
      <trkpt lat="49.575312" lon="19.524774"><ele>1221.0</ele></trkpt>
      <trkpt lat="49.575328" lon="19.524894"><ele>1221.0</ele></trkpt>
      <trkpt lat="49.575321" lon="19.524963"><ele>1224.8</ele></trkpt>
      <trkpt lat="49.575289" lon="19.525022"><ele>1224.8</ele></trkpt>
      <trkpt lat="49.575275" lon="19.525054"><ele>1228.1</ele></trkpt>
      <trkpt lat="49.575257" lon="19.525093"><ele>1228.1</ele></trkpt>
      <trkpt lat="49.575242" lon="19.525124"><ele>1233.3</ele></trkpt>
      <trkpt lat="49.575247" lon="19.525153"><ele>1233.3</ele></trkpt>
      <trkpt lat="49.575232" lon="19.525142"><ele>1239.9</ele></trkpt>
      <trkpt lat="49.575241" lon="19.525189"><ele>1239.9</ele></trkpt>
      <trkpt lat="49.575231" lon="19.525226"><ele>1245.7</ele></trkpt>
      <trkpt lat="49.575218" lon="19.525247"><ele>1252.3</ele></trkpt>
      <trkpt lat="49.575200" lon="19.525249"><ele>1252.3</ele></trkpt>
      <trkpt lat="49.575184" lon="19.525233"><ele>1258.7</ele></trkpt>
      <trkpt lat="49.575167" lon="19.525232"><ele>1258.7</ele></trkpt>
      <trkpt lat="49.575153" lon="19.525212"><ele>1264.3</ele></trkpt>
      <trkpt lat="49.575136" lon="19.525218"><ele>1264.3</ele></trkpt>
      <trkpt lat="49.575098" lon="19.525245"><ele>1269.5</ele></trkpt>
      <trkpt lat="49.575096" lon="19.525275"><ele>1269.5</ele></trkpt>
      <trkpt lat="49.575116" lon="19.525321"><ele>1276.5</ele></trkpt>
      <trkpt lat="49.575155" lon="19.525445"><ele>1276.5</ele></trkpt>
      <trkpt lat="49.575151" lon="19.525523"><ele>1283.8</ele></trkpt>
      <trkpt lat="49.575112" lon="19.525566"><ele>1283.8</ele></trkpt>
      <trkpt lat="49.575068" lon="19.525594"><ele>1291.1</ele></trkpt>
      <trkpt lat="49.575039" lon="19.525591"><ele>1291.1</ele></trkpt>
      <trkpt lat="49.575013" lon="19.525617"><ele>1296.2</ele></trkpt>
      <trkpt lat="49.574985" lon="19.525661"><ele>1296.2</ele></trkpt>
      <trkpt lat="49.574982" lon="19.525729"><ele>1301.0</ele></trkpt>
      <trkpt lat="49.574999" lon="19.525805"><ele>1301.0</ele></trkpt>
      <trkpt lat="49.575027" lon="19.525880"><ele>1306.5</ele></trkpt>
      <trkpt lat="49.575022" lon="19.525913"><ele>1312.1</ele></trkpt>
      <trkpt lat="49.575010" lon="19.525936"><ele>1312.1</ele></trkpt>
      <trkpt lat="49.575020" lon="19.525996"><ele>1317.3</ele></trkpt>
      <trkpt lat="49.575035" lon="19.526003"><ele>1317.3</ele></trkpt>
      <trkpt lat="49.575059" lon="19.526042"><ele>1321.5</ele></trkpt>
      <trkpt lat="49.575063" lon="19.526081"><ele>1321.5</ele></trkpt>
      <trkpt lat="49.575041" lon="19.526104"><ele>1324.3</ele></trkpt>
      <trkpt lat="49.575016" lon="19.526088"><ele>1324.3</ele></trkpt>
      <trkpt lat="49.574998" lon="19.526064"><ele>1326.8</ele></trkpt>
      <trkpt lat="49.574975" lon="19.526040"><ele>1326.8</ele></trkpt>
      <trkpt lat="49.574956" lon="19.526074"><ele>1330.5</ele></trkpt>
      <trkpt lat="49.574978" lon="19.526125"><ele>1330.5</ele></trkpt>
      <trkpt lat="49.574954" lon="19.526159"><ele>1334.3</ele></trkpt>
      <trkpt lat="49.574968" lon="19.526171"><ele>1334.3</ele></trkpt>
      <trkpt lat="49.574970" lon="19.526203"><ele>1338.2</ele></trkpt>
      <trkpt lat="49.574965" lon="19.526236"><ele>1338.2</ele></trkpt>
      <trkpt lat="49.574932" lon="19.526266"><ele>1342.1</ele></trkpt>
      <trkpt lat="49.574907" lon="19.526338"><ele>1346.6</ele></trkpt>
      <trkpt lat="49.574862" lon="19.526562"><ele>1346.6</ele></trkpt>
      <trkpt lat="49.574859" lon="19.526639"><ele>1349.9</ele></trkpt>
      <trkpt lat="49.574864" lon="19.526696"><ele>1349.9</ele></trkpt>
      <trkpt lat="49.574861" lon="19.526774"><ele>1352.5</ele></trkpt>
      <trkpt lat="49.574851" lon="19.526826"><ele>1352.5</ele></trkpt>
      <trkpt lat="49.574836" lon="19.526894"><ele>1354.8</ele></trkpt>
      <trkpt lat="49.574841" lon="19.526926"><ele>1354.8</ele></trkpt>
      <trkpt lat="49.574849" lon="19.526979"><ele>1360.4</ele></trkpt>
      <trkpt lat="49.574834" lon="19.527044"><ele>1360.4</ele></trkpt>
      <trkpt lat="49.574817" lon="19.527109"><ele>1367.4</ele></trkpt>
      <trkpt lat="49.574805" lon="19.527272"><ele>1367.4</ele></trkpt>
      <trkpt lat="49.574786" lon="19.527339"><ele>1374.4</ele></trkpt>
      <trkpt lat="49.574767" lon="19.527374"><ele>1374.4</ele></trkpt>
      <trkpt lat="49.574748" lon="19.527403"><ele>1381.5</ele></trkpt>
      <trkpt lat="49.574748" lon="19.527439"><ele>1381.5</ele></trkpt>
      <trkpt lat="49.574747" lon="19.527501"><ele>1388.2</ele></trkpt>
      <trkpt lat="49.574715" lon="19.527631"><ele>1395.2</ele></trkpt>
      <trkpt lat="49.574701" lon="19.527726"><ele>1395.2</ele></trkpt>
      <trkpt lat="49.574689" lon="19.527796"><ele>1398.2</ele></trkpt>
      <trkpt lat="49.574681" lon="19.527833"><ele>1398.2</ele></trkpt>
      <trkpt lat="49.574654" lon="19.527835"><ele>1410.3</ele></trkpt>
      <trkpt lat="49.574615" lon="19.527824"><ele>1410.3</ele></trkpt>
      <trkpt lat="49.574576" lon="19.527809"><ele>1424.2</ele></trkpt>
      <trkpt lat="49.574551" lon="19.527782"><ele>1424.2</ele></trkpt>
      <trkpt lat="49.574525" lon="19.527779"><ele>1440.0</ele></trkpt>
      <trkpt lat="49.574493" lon="19.527777"><ele>1440.0</ele></trkpt>
      <trkpt lat="49.574467" lon="19.527774"><ele>1448.9</ele></trkpt>
      <trkpt lat="49.574453" lon="19.527796"><ele>1448.9</ele></trkpt>
      <trkpt lat="49.574452" lon="19.527824"><ele>1456.3</ele></trkpt>
      <trkpt lat="49.574452" lon="19.527878"><ele>1456.3</ele></trkpt>
      <trkpt lat="49.574444" lon="19.527934"><ele>1459.7</ele></trkpt>
      <trkpt lat="49.574433" lon="19.527988"><ele>1459.7</ele></trkpt>
      <trkpt lat="49.574402" lon="19.528027"><ele>1461.2</ele></trkpt>
      <trkpt lat="49.574368" lon="19.528059"><ele>1461.3</ele></trkpt>
      <trkpt lat="49.574350" lon="19.528124"><ele>1461.3</ele></trkpt>
      <trkpt lat="49.574322" lon="19.528154"><ele>1468.9</ele></trkpt>
      <trkpt lat="49.574305" lon="19.528164"><ele>1468.9</ele></trkpt>
      <trkpt lat="49.574275" lon="19.528211"><ele>1478.7</ele></trkpt>
      <trkpt lat="49.574269" lon="19.528290"><ele>1478.7</ele></trkpt>
      <trkpt lat="49.574238" lon="19.528341"><ele>1488.7</ele></trkpt>
      <trkpt lat="49.574231" lon="19.528413"><ele>1488.7</ele></trkpt>
      <trkpt lat="49.574226" lon="19.528492"><ele>1506.8</ele></trkpt>
      <trkpt lat="49.574195" lon="19.528587"><ele>1506.8</ele></trkpt>
      <trkpt lat="49.574170" lon="19.528649"><ele>1521.5</ele></trkpt>
      <trkpt lat="49.574168" lon="19.528694"><ele>1521.5</ele></trkpt>
      <trkpt lat="49.574154" lon="19.528709"><ele>1529.6</ele></trkpt>
      <trkpt lat="49.574134" lon="19.528743"><ele>1529.6</ele></trkpt>
      <trkpt lat="49.574127" lon="19.528785"><ele>1541.2</ele></trkpt>
      <trkpt lat="49.574127" lon="19.528826"><ele>1541.2</ele></trkpt>
      <trkpt lat="49.574129" lon="19.528861"><ele>1541.6</ele></trkpt>
      <trkpt lat="49.574100" lon="19.528880"><ele>1541.6</ele></trkpt>
      <trkpt lat="49.574085" lon="19.528924"><ele>1550.5</ele></trkpt>
      <trkpt lat="49.574030" lon="19.529172"><ele>1566.2</ele></trkpt>
      <trkpt lat="49.574021" lon="19.529197"><ele>1566.2</ele></trkpt>
      <trkpt lat="49.574001" lon="19.529194"><ele>1576.7</ele></trkpt>
      <trkpt lat="49.573973" lon="19.529207"><ele>1576.7</ele></trkpt>
      <trkpt lat="49.573937" lon="19.529245"><ele>1586.9</ele></trkpt>
      <trkpt lat="49.573907" lon="19.529278"><ele>1586.9</ele></trkpt>
      <trkpt lat="49.573875" lon="19.529280"><ele>1597.7</ele></trkpt>
      <trkpt lat="49.573845" lon="19.529281"><ele>1597.7</ele></trkpt>
      <trkpt lat="49.573833" lon="19.529303"><ele>1607.7</ele></trkpt>
      <trkpt lat="49.573818" lon="19.529389"><ele>1607.7</ele></trkpt>
      <trkpt lat="49.573803" lon="19.529405"><ele>1621.0</ele></trkpt>
      <trkpt lat="49.573779" lon="19.529408"><ele>1621.0</ele></trkpt>
      <trkpt lat="49.573747" lon="19.529433"><ele>1634.2</ele></trkpt>
      <trkpt lat="49.573733" lon="19.529471"><ele>1634.2</ele></trkpt>
      <trkpt lat="49.573723" lon="19.529545"><ele>1649.2</ele></trkpt>
      <trkpt lat="49.573708" lon="19.529558"><ele>1649.2</ele></trkpt>
      <trkpt lat="49.573672" lon="19.529561"><ele>1661.2</ele></trkpt>
      <trkpt lat="49.573641" lon="19.529613"><ele>1671.5</ele></trkpt>
      <trkpt lat="49.573594" lon="19.529660"><ele>1671.5</ele></trkpt>
      <trkpt lat="49.573562" lon="19.529707"><ele>1680.4</ele></trkpt>
      <trkpt lat="49.573521" lon="19.529718"><ele>1680.4</ele></trkpt>
      <trkpt lat="49.573509" lon="19.529762"><ele>1691.8</ele></trkpt>
      <trkpt lat="49.573483" lon="19.529793"><ele>1691.8</ele></trkpt>
      <trkpt lat="49.573446" lon="19.529830"><ele>1701.7</ele></trkpt>
      <trkpt lat="49.573425" lon="19.529849"><ele>1701.7</ele></trkpt>
      <trkpt lat="49.573361" lon="19.529888"><ele>1709.4</ele></trkpt>
      <trkpt lat="49.573287" lon="19.529952"><ele>1709.4</ele></trkpt>
      <trkpt lat="49.573245" lon="19.529940"><ele>1712.2</ele></trkpt>
      <trkpt lat="49.573168" lon="19.529943"><ele>1712.2</ele></trkpt>
      <trkpt lat="49.573150" lon="19.529657"><ele>1712.2</ele></trkpt>
      <trkpt lat="49.573139" lon="19.529596"><ele>1712.2</ele></trkpt>
      <trkpt lat="49.573114" lon="19.529511"><ele>1712.8</ele></trkpt>
      <trkpt lat="49.573087" lon="19.529446"><ele>1712.8</ele></trkpt>
      <trkpt lat="49.572941" lon="19.529333"><ele>1712.2</ele></trkpt>
    </trkseg>
  </trk>
</gpx>
