<?xml version="1.0" encoding="UTF-8"?>
<gpx version="1.1" creator="mapy-pipeline (Babia Gora 01)" xmlns="http://www.topografix.com/GPX/1/1">
  <metadata>
    <name>Krowiarki – Sokolica – Diablak</name>
    <desc>Wejście na Diablaka — TYLKO PODEJŚCIE, bez drogi powrotnej. 4.6 km, przewyższenie +690 m. Wysokości z modelu terenu (DEM 25 m), wartości przybliżone.</desc>
    <link href="https://bgpn.gov.pl/turystyka-piesza"><text>Babiogorski Park Narodowy - szlaki</text></link>
  </metadata>
  <trk>
    <name>Krowiarki – Sokolica – Diablak (wejscie)</name>
    <desc>Wejście na Diablaka — TYLKO PODEJŚCIE, bez drogi powrotnej. 4.6 km, przewyższenie +690 m. Wysokości z modelu terenu (DEM 25 m), wartości przybliżone.</desc>
    <trkseg>
      <trkpt lat="49.587811" lon="19.581809"><ele>1023.6</ele></trkpt>
      <trkpt lat="49.587759" lon="19.581708"><ele>1027.5</ele></trkpt>
      <trkpt lat="49.587527" lon="19.581044"><ele>1027.5</ele></trkpt>
      <trkpt lat="49.587430" lon="19.580741"><ele>1031.5</ele></trkpt>
      <trkpt lat="49.587407" lon="19.580661"><ele>1031.5</ele></trkpt>
      <trkpt lat="49.587190" lon="19.579694"><ele>1036.7</ele></trkpt>
      <trkpt lat="49.587122" lon="19.579316"><ele>1042.1</ele></trkpt>
      <trkpt lat="49.587256" lon="19.578556"><ele>1048.1</ele></trkpt>
      <trkpt lat="49.587297" lon="19.578169"><ele>1055.1</ele></trkpt>
      <trkpt lat="49.587250" lon="19.577360"><ele>1062.3</ele></trkpt>
      <trkpt lat="49.587314" lon="19.576083"><ele>1067.1</ele></trkpt>
      <trkpt lat="49.587253" lon="19.575689"><ele>1071.7</ele></trkpt>
      <trkpt lat="49.587307" lon="19.575290"><ele>1071.7</ele></trkpt>
      <trkpt lat="49.587687" lon="19.573992"><ele>1075.8</ele></trkpt>
      <trkpt lat="49.587835" lon="19.573631"><ele>1080.9</ele></trkpt>
      <trkpt lat="49.587956" lon="19.573286"><ele>1088.0</ele></trkpt>
      <trkpt lat="49.587848" lon="19.572639"><ele>1096.3</ele></trkpt>
      <trkpt lat="49.587787" lon="19.572191"><ele>1104.0</ele></trkpt>
      <trkpt lat="49.587672" lon="19.571512"><ele>1109.7</ele></trkpt>
      <trkpt lat="49.587544" lon="19.570980"><ele>1113.5</ele></trkpt>
      <trkpt lat="49.587300" lon="19.570521"><ele>1113.5</ele></trkpt>
      <trkpt lat="49.587253" lon="19.570260"><ele>1119.2</ele></trkpt>
      <trkpt lat="49.586879" lon="19.569775"><ele>1123.8</ele></trkpt>
      <trkpt lat="49.586844" lon="19.569667"><ele>1126.7</ele></trkpt>
      <trkpt lat="49.586825" lon="19.569589"><ele>1131.7</ele></trkpt>
      <trkpt lat="49.586690" lon="19.569035"><ele>1138.1</ele></trkpt>
      <trkpt lat="49.586498" lon="19.567988"><ele>1143.9</ele></trkpt>
      <trkpt lat="49.586437" lon="19.567763"><ele>1148.1</ele></trkpt>
      <trkpt lat="49.586371" lon="19.567587"><ele>1148.1</ele></trkpt>
      <trkpt lat="49.586264" lon="19.567419"><ele>1150.3</ele></trkpt>
      <trkpt lat="49.586154" lon="19.567307"><ele>1154.1</ele></trkpt>
      <trkpt lat="49.585968" lon="19.567257"><ele>1164.2</ele></trkpt>
      <trkpt lat="49.585816" lon="19.567120"><ele>1172.9</ele></trkpt>
      <trkpt lat="49.585560" lon="19.566894"><ele>1180.4</ele></trkpt>
      <trkpt lat="49.585395" lon="19.566680"><ele>1188.3</ele></trkpt>
      <trkpt lat="49.585016" lon="19.566020"><ele>1188.3</ele></trkpt>
      <trkpt lat="49.584862" lon="19.565788"><ele>1195.2</ele></trkpt>
      <trkpt lat="49.584796" lon="19.565612"><ele>1201.5</ele></trkpt>
      <trkpt lat="49.584775" lon="19.565466"><ele>1207.0</ele></trkpt>
      <trkpt lat="49.584791" lon="19.565079"><ele>1214.1</ele></trkpt>
      <trkpt lat="49.584911" lon="19.564354"><ele>1220.4</ele></trkpt>
      <trkpt lat="49.584824" lon="19.563971"><ele>1226.9</ele></trkpt>
      <trkpt lat="49.584671" lon="19.563488"><ele>1234.2</ele></trkpt>
      <trkpt lat="49.584598" lon="19.563356"><ele>1234.2</ele></trkpt>
      <trkpt lat="49.584502" lon="19.563300"><ele>1240.4</ele></trkpt>
      <trkpt lat="49.584296" lon="19.563276"><ele>1244.5</ele></trkpt>
      <trkpt lat="49.584213" lon="19.563214"><ele>1249.6</ele></trkpt>
      <trkpt lat="49.584149" lon="19.563192"><ele>1255.5</ele></trkpt>
      <trkpt lat="49.583852" lon="19.563066"><ele>1262.1</ele></trkpt>
      <trkpt lat="49.583662" lon="19.563057"><ele>1268.8</ele></trkpt>
      <trkpt lat="49.583635" lon="19.563035"><ele>1276.0</ele></trkpt>
      <trkpt lat="49.583520" lon="19.562916"><ele>1276.0</ele></trkpt>
      <trkpt lat="49.583381" lon="19.562772"><ele>1281.5</ele></trkpt>
      <trkpt lat="49.583217" lon="19.562498"><ele>1287.9</ele></trkpt>
      <trkpt lat="49.582953" lon="19.562262"><ele>1294.3</ele></trkpt>
      <trkpt lat="49.582783" lon="19.562069"><ele>1300.4</ele></trkpt>
      <trkpt lat="49.582609" lon="19.561930"><ele>1305.7</ele></trkpt>
      <trkpt lat="49.582341" lon="19.561565"><ele>1311.8</ele></trkpt>
      <trkpt lat="49.582177" lon="19.561442"><ele>1317.8</ele></trkpt>
      <trkpt lat="49.582031" lon="19.561393"><ele>1317.8</ele></trkpt>
      <trkpt lat="49.581850" lon="19.561302"><ele>1324.5</ele></trkpt>
      <trkpt lat="49.580758" lon="19.560648"><ele>1333.2</ele></trkpt>
      <trkpt lat="49.580705" lon="19.560573"><ele>1340.8</ele></trkpt>
      <trkpt lat="49.580557" lon="19.560454"><ele>1346.6</ele></trkpt>
      <trkpt lat="49.580444" lon="19.560323"><ele>1351.6</ele></trkpt>
      <trkpt lat="49.580191" lon="19.560138"><ele>1355.3</ele></trkpt>
      <trkpt lat="49.579786" lon="19.559367"><ele>1357.2</ele></trkpt>
      <trkpt lat="49.579760" lon="19.559367"><ele>1357.2</ele></trkpt>
      <trkpt lat="49.579715" lon="19.559296"><ele>1358.4</ele></trkpt>
      <trkpt lat="49.579710" lon="19.559165"><ele>1358.5</ele></trkpt>
      <trkpt lat="49.579680" lon="19.559047"><ele>1359.5</ele></trkpt>
      <trkpt lat="49.579682" lon="19.559000"><ele>1362.0</ele></trkpt>
      <trkpt lat="49.579667" lon="19.558881"><ele>1364.4</ele></trkpt>
      <trkpt lat="49.579637" lon="19.558697"><ele>1367.9</ele></trkpt>
      <trkpt lat="49.579641" lon="19.558608"><ele>1367.9</ele></trkpt>
      <trkpt lat="49.579617" lon="19.558501"><ele>1370.8</ele></trkpt>
      <trkpt lat="49.579612" lon="19.558410"><ele>1373.3</ele></trkpt>
      <trkpt lat="49.579575" lon="19.558143"><ele>1377.2</ele></trkpt>
      <trkpt lat="49.579534" lon="19.557750"><ele>1381.5</ele></trkpt>
      <trkpt lat="49.579516" lon="19.557664"><ele>1384.3</ele></trkpt>
      <trkpt lat="49.579527" lon="19.557533"><ele>1387.3</ele></trkpt>
      <trkpt lat="49.579555" lon="19.557350"><ele>1393.7</ele></trkpt>
      <trkpt lat="49.579584" lon="19.557327"><ele>1393.7</ele></trkpt>
      <trkpt lat="49.579605" lon="19.557292"><ele>1401.7</ele></trkpt>
      <trkpt lat="49.579644" lon="19.557239"><ele>1408.7</ele></trkpt>
      <trkpt lat="49.579666" lon="19.557144"><ele>1414.9</ele></trkpt>
      <trkpt lat="49.579692" lon="19.556997"><ele>1421.7</ele></trkpt>
      <trkpt lat="49.579685" lon="19.556901"><ele>1428.4</ele></trkpt>
      <trkpt lat="49.579694" lon="19.556769"><ele>1434.1</ele></trkpt>
      <trkpt lat="49.579638" lon="19.556629"><ele>1440.1</ele></trkpt>
      <trkpt lat="49.579514" lon="19.556541"><ele>1440.1</ele></trkpt>
      <trkpt lat="49.579409" lon="19.556463"><ele>1444.9</ele></trkpt>
      <trkpt lat="49.579297" lon="19.556249"><ele>1449.2</ele></trkpt>
      <trkpt lat="49.579068" lon="19.556077"><ele>1452.6</ele></trkpt>
      <trkpt lat="49.579005" lon="19.555841"><ele>1457.3</ele></trkpt>
      <trkpt lat="49.578888" lon="19.555629"><ele>1464.1</ele></trkpt>
      <trkpt lat="49.578874" lon="19.555474"><ele>1472.0</ele></trkpt>
      <trkpt lat="49.578835" lon="19.555283"><ele>1476.9</ele></trkpt>
      <trkpt lat="49.578741" lon="19.555165"><ele>1476.9</ele></trkpt>
      <trkpt lat="49.578713" lon="19.554999"><ele>1481.8</ele></trkpt>
      <trkpt lat="49.578668" lon="19.554848"><ele>1486.3</ele></trkpt>
      <trkpt lat="49.578582" lon="19.554712"><ele>1491.2</ele></trkpt>
      <trkpt lat="49.578560" lon="19.554532"><ele>1497.4</ele></trkpt>
      <trkpt lat="49.578595" lon="19.554280"><ele>1502.7</ele></trkpt>
      <trkpt lat="49.578579" lon="19.554106"><ele>1505.6</ele></trkpt>
      <trkpt lat="49.578370" lon="19.553805"><ele>1507.3</ele></trkpt>
      <trkpt lat="49.578310" lon="19.553507"><ele>1507.3</ele></trkpt>
      <trkpt lat="49.578164" lon="19.553293"><ele>1509.1</ele></trkpt>
      <trkpt lat="49.577979" lon="19.552976"><ele>1512.1</ele></trkpt>
      <trkpt lat="49.577868" lon="19.552778"><ele>1514.8</ele></trkpt>
      <trkpt lat="49.577830" lon="19.552595"><ele>1516.2</ele></trkpt>
      <trkpt lat="49.577725" lon="19.552451"><ele>1517.4</ele></trkpt>
      <trkpt lat="49.577607" lon="19.552392"><ele>1517.9</ele></trkpt>
      <trkpt lat="49.577532" lon="19.552218"><ele>1517.9</ele></trkpt>
      <trkpt lat="49.577466" lon="19.551762"><ele>1518.4</ele></trkpt>
      <trkpt lat="49.577476" lon="19.551685"><ele>1519.2</ele></trkpt>
      <trkpt lat="49.577448" lon="19.551577"><ele>1520.0</ele></trkpt>
      <trkpt lat="49.577450" lon="19.551446"><ele>1521.2</ele></trkpt>
      <trkpt lat="49.577427" lon="19.551332"><ele>1521.3</ele></trkpt>
      <trkpt lat="49.577416" lon="19.551179"><ele>1523.6</ele></trkpt>
      <trkpt lat="49.577421" lon="19.551127"><ele>1526.1</ele></trkpt>
      <trkpt lat="49.577388" lon="19.551071"><ele>1526.1</ele></trkpt>
      <trkpt lat="49.577326" lon="19.550927"><ele>1527.1</ele></trkpt>
      <trkpt lat="49.577362" lon="19.550750"><ele>1527.6</ele></trkpt>
      <trkpt lat="49.577351" lon="19.550668"><ele>1530.5</ele></trkpt>
      <trkpt lat="49.577263" lon="19.550552"><ele>1532.6</ele></trkpt>
      <trkpt lat="49.577110" lon="19.550385"><ele>1535.3</ele></trkpt>
      <trkpt lat="49.576981" lon="19.550015"><ele>1538.8</ele></trkpt>
      <trkpt lat="49.576912" lon="19.549584"><ele>1542.6</ele></trkpt>
      <trkpt lat="49.576870" lon="19.549323"><ele>1542.6</ele></trkpt>
      <trkpt lat="49.576853" lon="19.549117"><ele>1545.9</ele></trkpt>
      <trkpt lat="49.576737" lon="19.548985"><ele>1549.3</ele></trkpt>
      <trkpt lat="49.576655" lon="19.548865"><ele>1553.3</ele></trkpt>
      <trkpt lat="49.576627" lon="19.548602"><ele>1557.0</ele></trkpt>
      <trkpt lat="49.576581" lon="19.548363"><ele>1559.7</ele></trkpt>
      <trkpt lat="49.576398" lon="19.547695"><ele>1561.1</ele></trkpt>
      <trkpt lat="49.576293" lon="19.547170"><ele>1561.5</ele></trkpt>
      <trkpt lat="49.576247" lon="19.546920"><ele>1561.5</ele></trkpt>
      <trkpt lat="49.576279" lon="19.546504"><ele>1562.0</ele></trkpt>
      <trkpt lat="49.576205" lon="19.546153"><ele>1563.2</ele></trkpt>
      <trkpt lat="49.576238" lon="19.545925"><ele>1564.3</ele></trkpt>
      <trkpt lat="49.576300" lon="19.545681"><ele>1564.3</ele></trkpt>
      <trkpt lat="49.576289" lon="19.545268"><ele>1564.3</ele></trkpt>
      <trkpt lat="49.576179" lon="19.544557"><ele>1564.3</ele></trkpt>
      <trkpt lat="49.576135" lon="19.544257"><ele>1564.3</ele></trkpt>
      <trkpt lat="49.576104" lon="19.544045"><ele>1564.3</ele></trkpt>
      <trkpt lat="49.576101" lon="19.543809"><ele>1565.6</ele></trkpt>
      <trkpt lat="49.576045" lon="19.543675"><ele>1568.9</ele></trkpt>
      <trkpt lat="49.575941" lon="19.543535"><ele>1573.3</ele></trkpt>
      <trkpt lat="49.575732" lon="19.543245"><ele>1578.3</ele></trkpt>
      <trkpt lat="49.575605" lon="19.542867"><ele>1583.2</ele></trkpt>
      <trkpt lat="49.575576" lon="19.542478"><ele>1588.8</ele></trkpt>
      <trkpt lat="49.575510" lon="19.541995"><ele>1588.8</ele></trkpt>
      <trkpt lat="49.575368" lon="19.541231"><ele>1596.2</ele></trkpt>
      <trkpt lat="49.575189" lon="19.540617"><ele>1602.3</ele></trkpt>
      <trkpt lat="49.575068" lon="19.540284"><ele>1605.2</ele></trkpt>
      <trkpt lat="49.575005" lon="19.539785"><ele>1607.2</ele></trkpt>
      <trkpt lat="49.574897" lon="19.539378"><ele>1609.7</ele></trkpt>
      <trkpt lat="49.574752" lon="19.539183"><ele>1612.2</ele></trkpt>
      <trkpt lat="49.574658" lon="19.538941"><ele>1613.3</ele></trkpt>
      <trkpt lat="49.574751" lon="19.538626"><ele>1613.3</ele></trkpt>
      <trkpt lat="49.574758" lon="19.538444"><ele>1615.4</ele></trkpt>
      <trkpt lat="49.574773" lon="19.538334"><ele>1619.5</ele></trkpt>
      <trkpt lat="49.574747" lon="19.538276"><ele>1623.5</ele></trkpt>
      <trkpt lat="49.574668" lon="19.538095"><ele>1625.6</ele></trkpt>
      <trkpt lat="49.574602" lon="19.537902"><ele>1626.9</ele></trkpt>
      <trkpt lat="49.574522" lon="19.537457"><ele>1629.8</ele></trkpt>
      <trkpt lat="49.574421" lon="19.537167"><ele>1634.0</ele></trkpt>
      <trkpt lat="49.574386" lon="19.536824"><ele>1634.0</ele></trkpt>
      <trkpt lat="49.574306" lon="19.536518"><ele>1636.0</ele></trkpt>
      <trkpt lat="49.574156" lon="19.536218"><ele>1638.5</ele></trkpt>
      <trkpt lat="49.574097" lon="19.536014"><ele>1641.6</ele></trkpt>
      <trkpt lat="49.574101" lon="19.535848"><ele>1644.9</ele></trkpt>
      <trkpt lat="49.574090" lon="19.535746"><ele>1647.7</ele></trkpt>
      <trkpt lat="49.574118" lon="19.535505"><ele>1648.6</ele></trkpt>
      <trkpt lat="49.574055" lon="19.535231"><ele>1648.6</ele></trkpt>
      <trkpt lat="49.574017" lon="19.534807"><ele>1649.8</ele></trkpt>
      <trkpt lat="49.573970" lon="19.534475"><ele>1654.2</ele></trkpt>
      <trkpt lat="49.573948" lon="19.534249"><ele>1657.9</ele></trkpt>
      <trkpt lat="49.573958" lon="19.533945"><ele>1660.0</ele></trkpt>
      <trkpt lat="49.573942" lon="19.533538"><ele>1661.2</ele></trkpt>
      <trkpt lat="49.573785" lon="19.532461"><ele>1662.0</ele></trkpt>
      <trkpt lat="49.573694" lon="19.531931"><ele>1662.3</ele></trkpt>
      <trkpt lat="49.573614" lon="19.531546"><ele>1662.3</ele></trkpt>
      <trkpt lat="49.573575" lon="19.531387"><ele>1663.7</ele></trkpt>
      <trkpt lat="49.573524" lon="19.531154"><ele>1667.1</ele></trkpt>
      <trkpt lat="49.573529" lon="19.531031"><ele>1669.6</ele></trkpt>
      <trkpt lat="49.573551" lon="19.530947"><ele>1674.5</ele></trkpt>
      <trkpt lat="49.573551" lon="19.530908"><ele>1680.5</ele></trkpt>
      <trkpt lat="49.573544" lon="19.530841"><ele>1686.0</ele></trkpt>
      <trkpt lat="49.573492" lon="19.530728"><ele>1690.8</ele></trkpt>
      <trkpt lat="49.573463" lon="19.530661"><ele>1690.8</ele></trkpt>
      <trkpt lat="49.573461" lon="19.530629"><ele>1693.4</ele></trkpt>
      <trkpt lat="49.573458" lon="19.530603"><ele>1697.3</ele></trkpt>
      <trkpt lat="49.573450" lon="19.530582"><ele>1702.0</ele></trkpt>
      <trkpt lat="49.573431" lon="19.530552"><ele>1705.3</ele></trkpt>
      <trkpt lat="49.573379" lon="19.530461"><ele>1705.9</ele></trkpt>
      <trkpt lat="49.573369" lon="19.530453"><ele>1706.2</ele></trkpt>
      <trkpt lat="49.573358" lon="19.530435"><ele>1707.9</ele></trkpt>
      <trkpt lat="49.573359" lon="19.530411"><ele>1707.9</ele></trkpt>
      <trkpt lat="49.573371" lon="19.530383"><ele>1711.4</ele></trkpt>
      <trkpt lat="49.573359" lon="19.530329"><ele>1713.7</ele></trkpt>
      <trkpt lat="49.573332" lon="19.530242"><ele>1713.9</ele></trkpt>
      <trkpt lat="49.573217" lon="19.530119"><ele>1713.9</ele></trkpt>
      <trkpt lat="49.573184" lon="19.530010"><ele>1713.9</ele></trkpt>
      <trkpt lat="49.573168" lon="19.529943"><ele>1713.5</ele></trkpt>
      <trkpt lat="49.573150" lon="19.529657"><ele>1713.2</ele></trkpt>
      <trkpt lat="49.573139" lon="19.529596"><ele>1713.2</ele></trkpt>
      <trkpt lat="49.573114" lon="19.529511"><ele>1712.9</ele></trkpt>
      <trkpt lat="49.573087" lon="19.529446"><ele>1712.9</ele></trkpt>
      <trkpt lat="49.572941" lon="19.529333"><ele>1712.3</ele></trkpt>
    </trkseg>
  </trk>
</gpx>
