<?xml version="1.0" encoding="UTF-8"?>
<gpx version="1.1" creator="W Dobrym Kierunku" xmlns="http://www.topografix.com/GPX/1/1">
  <metadata>
    <name>Giewont - Zakopane Piesze wędrówki</name>
    <desc>Własny ślad GPS autora; plik uproszczony do co 10. punktu, z zachowanym czasem i wysokością.</desc>
    <time>2026-05-09T06:27:05.000Z</time>
  </metadata>
  <trk>
    <name>Giewont - Zakopane Piesze wędrówki</name>
    <trkseg>
      <trkpt lat="49.28132182918488979339599609375" lon="19.9130323715507984161376953125"><ele>906.20001220703125</ele><time>2026-05-09T06:27:05.000Z</time></trkpt>
      <trkpt lat="49.28088379092514514923095703125" lon="19.9135839007794857025146484375"><ele>905.20001220703125</ele><time>2026-05-09T06:27:58.000Z</time></trkpt>
      <trkpt lat="49.28036545403301715850830078125" lon="19.91267555393278598785400390625"><ele>909</ele><time>2026-05-09T06:28:59.000Z</time></trkpt>
      <trkpt lat="49.27994568832218647003173828125" lon="19.91149236448109149932861328125"><ele>914</ele><time>2026-05-09T06:30:08.000Z</time></trkpt>
      <trkpt lat="49.2797821573913097381591796875" lon="19.91085617803037166595458984375"><ele>916.4000244140625</ele><time>2026-05-09T06:30:44.000Z</time></trkpt>
      <trkpt lat="49.2794609628617763519287109375" lon="19.90972193889319896697998046875"><ele>918.20001220703125</ele><time>2026-05-09T06:31:49.000Z</time></trkpt>
      <trkpt lat="49.27910816855728626251220703125" lon="19.90847119130194187164306640625"><ele>919.79998779296875</ele><time>2026-05-09T06:33:00.000Z</time></trkpt>
      <trkpt lat="49.27870600484311580657958984375" lon="19.90709588862955570220947265625"><ele>922.20001220703125</ele><time>2026-05-09T06:34:17.000Z</time></trkpt>
      <trkpt lat="49.27833066321909427642822265625" lon="19.90606675855815410614013671875"><ele>924.5999755859375</ele><time>2026-05-09T06:35:22.000Z</time></trkpt>
      <trkpt lat="49.27768542431294918060302734375" lon="19.90533736534416675567626953125"><ele>924</ele><time>2026-05-09T06:36:33.000Z</time></trkpt>
      <trkpt lat="49.27729248069226741790771484375" lon="19.90480327047407627105712890625"><ele>924.4000244140625</ele><time>2026-05-09T06:37:24.000Z</time></trkpt>
      <trkpt lat="49.2766684480011463165283203125" lon="19.90467485971748828887939453125"><ele>929.20001220703125</ele><time>2026-05-09T06:38:13.000Z</time></trkpt>
      <trkpt lat="49.27630819380283355712890625" lon="19.9045887775719165802001953125"><ele>931.5999755859375</ele><time>2026-05-09T06:39:00.000Z</time></trkpt>
      <trkpt lat="49.2761011607944965362548828125" lon="19.9045572616159915924072265625"><ele>932.5999755859375</ele><time>2026-05-09T06:39:50.000Z</time></trkpt>
      <trkpt lat="49.27599546499550342559814453125" lon="19.90441468544304370880126953125"><ele>934.79998779296875</ele><time>2026-05-09T06:40:32.000Z</time></trkpt>
      <trkpt lat="49.27591122686862945556640625" lon="19.9044204689562320709228515625"><ele>936</ele><time>2026-05-09T06:41:48.000Z</time></trkpt>
      <trkpt lat="49.2757404036819934844970703125" lon="19.904305972158908843994140625"><ele>937.4000244140625</ele><time>2026-05-09T06:42:29.000Z</time></trkpt>
      <trkpt lat="49.27560403011739253997802734375" lon="19.90403532050549983978271484375"><ele>941.4000244140625</ele><time>2026-05-09T06:42:58.000Z</time></trkpt>
      <trkpt lat="49.27549020387232303619384765625" lon="19.9036122858524322509765625"><ele>943.5999755859375</ele><time>2026-05-09T06:43:22.000Z</time></trkpt>
      <trkpt lat="49.27545248530805110931396484375" lon="19.90335186012089252471923828125"><ele>944.5999755859375</ele><time>2026-05-09T06:43:40.000Z</time></trkpt>
      <trkpt lat="49.275273196399211883544921875" lon="19.90297551266849040985107421875"><ele>947.5999755859375</ele><time>2026-05-09T06:44:15.000Z</time></trkpt>
      <trkpt lat="49.2750830948352813720703125" lon="19.90256287157535552978515625"><ele>951.20001220703125</ele><time>2026-05-09T06:44:47.000Z</time></trkpt>
      <trkpt lat="49.2748361639678478240966796875" lon="19.902218542993068695068359375"><ele>954.4000244140625</ele><time>2026-05-09T06:45:21.000Z</time></trkpt>
      <trkpt lat="49.27455528639256954193115234375" lon="19.90202114917337894439697265625"><ele>956.79998779296875</ele><time>2026-05-09T06:45:50.000Z</time></trkpt>
      <trkpt lat="49.2741917632520198822021484375" lon="19.90187362767755985260009765625"><ele>959.4000244140625</ele><time>2026-05-09T06:46:23.000Z</time></trkpt>
      <trkpt lat="49.2739351093769073486328125" lon="19.90156969986855983734130859375"><ele>963.4000244140625</ele><time>2026-05-09T06:46:55.000Z</time></trkpt>
      <trkpt lat="49.27366429008543491363525390625" lon="19.901151023805141448974609375"><ele>965.79998779296875</ele><time>2026-05-09T06:47:31.000Z</time></trkpt>
      <trkpt lat="49.2733995057642459869384765625" lon="19.9009429849684238433837890625"><ele>969.5999755859375</ele><time>2026-05-09T06:48:05.000Z</time></trkpt>
      <trkpt lat="49.27309767343103885650634765625" lon="19.90080174989998340606689453125"><ele>974.20001220703125</ele><time>2026-05-09T06:48:36.000Z</time></trkpt>
      <trkpt lat="49.27247473038733005523681640625" lon="19.90059907548129558563232421875"><ele>978.20001220703125</ele><time>2026-05-09T06:49:25.000Z</time></trkpt>
      <trkpt lat="49.27200819365680217742919921875" lon="19.90054258145391941070556640625"><ele>983.4000244140625</ele><time>2026-05-09T06:50:05.000Z</time></trkpt>
      <trkpt lat="49.2716168425977230072021484375" lon="19.9004883505403995513916015625"><ele>987.4000244140625</ele><time>2026-05-09T06:50:38.000Z</time></trkpt>
      <trkpt lat="49.271200932562351226806640625" lon="19.900461696088314056396484375"><ele>992.20001220703125</ele><time>2026-05-09T06:51:19.000Z</time></trkpt>
      <trkpt lat="49.271045364439487457275390625" lon="19.90058834664523601531982421875"><ele>995.79998779296875</ele><time>2026-05-09T06:51:45.000Z</time></trkpt>
      <trkpt lat="49.27057505585253238677978515625" lon="19.90060946904122829437255859375"><ele>999.79998779296875</ele><time>2026-05-09T06:52:26.000Z</time></trkpt>
      <trkpt lat="49.27025084383785724639892578125" lon="19.9005215428769588470458984375"><ele>1004.20001220703125</ele><time>2026-05-09T06:52:59.000Z</time></trkpt>
      <trkpt lat="49.2698958702385425567626953125" lon="19.900649450719356536865234375"><ele>1009.20001220703125</ele><time>2026-05-09T06:53:36.000Z</time></trkpt>
      <trkpt lat="49.26940443925559520721435546875" lon="19.90079705603420734405517578125"><ele>1013.79998779296875</ele><time>2026-05-09T06:54:23.000Z</time></trkpt>
      <trkpt lat="49.2689837515354156494140625" lon="19.900848604738712310791015625"><ele>1019.5999755859375</ele><time>2026-05-09T06:55:01.000Z</time></trkpt>
      <trkpt lat="49.26855233497917652130126953125" lon="19.90083728916943073272705078125"><ele>1025.5999755859375</ele><time>2026-05-09T06:55:38.000Z</time></trkpt>
      <trkpt lat="49.2681832797825336456298828125" lon="19.9008772708475589752197265625"><ele>1031.5999755859375</ele><time>2026-05-09T06:56:16.000Z</time></trkpt>
      <trkpt lat="49.267922602593898773193359375" lon="19.90111791528761386871337890625"><ele>1036.4000244140625</ele><time>2026-05-09T06:56:45.000Z</time></trkpt>
      <trkpt lat="49.2676109634339809417724609375" lon="19.90114456973969936370849609375"><ele>1042.199951171875</ele><time>2026-05-09T06:57:17.000Z</time></trkpt>
      <trkpt lat="49.26741457544267177581787109375" lon="19.9010023288428783416748046875"><ele>1047.4000244140625</ele><time>2026-05-09T06:57:47.000Z</time></trkpt>
      <trkpt lat="49.267009980976581573486328125" lon="19.90100383758544921875"><ele>1052.800048828125</ele><time>2026-05-09T06:58:20.000Z</time></trkpt>
      <trkpt lat="49.26671938039362430572509765625" lon="19.90084667690098285675048828125"><ele>1057.4000244140625</ele><time>2026-05-09T06:58:54.000Z</time></trkpt>
      <trkpt lat="49.26639449782669544219970703125" lon="19.9007679708302021026611328125"><ele>1063</ele><time>2026-05-09T06:59:32.000Z</time></trkpt>
      <trkpt lat="49.26622032187879085540771484375" lon="19.900660850107669830322265625"><ele>1068.199951171875</ele><time>2026-05-09T07:00:10.000Z</time></trkpt>
      <trkpt lat="49.26602552644908428192138671875" lon="19.9007408134639263153076171875"><ele>1071.5999755859375</ele><time>2026-05-09T07:00:39.000Z</time></trkpt>
      <trkpt lat="49.265664853155612945556640625" lon="19.90083611570298671722412109375"><ele>1076.800048828125</ele><time>2026-05-09T07:01:23.000Z</time></trkpt>
      <trkpt lat="49.2653532139956951141357421875" lon="19.90088791586458683013916015625"><ele>1080.4000244140625</ele><time>2026-05-09T07:01:59.000Z</time></trkpt>
      <trkpt lat="49.2650246433913707733154296875" lon="19.90091490559279918670654296875"><ele>1085.800048828125</ele><time>2026-05-09T07:02:40.000Z</time></trkpt>
      <trkpt lat="49.26470638252794742584228515625" lon="19.90094608627259731292724609375"><ele>1089.800048828125</ele><time>2026-05-09T07:03:15.000Z</time></trkpt>
      <trkpt lat="49.2644695937633514404296875" lon="19.9010680429637432098388671875"><ele>1093.800048828125</ele><time>2026-05-09T07:03:45.000Z</time></trkpt>
      <trkpt lat="49.2641482315957546234130859375" lon="19.9012036621570587158203125"><ele>1100</ele><time>2026-05-09T07:04:24.000Z</time></trkpt>
      <trkpt lat="49.26395083777606487274169921875" lon="19.90129427053034305572509765625"><ele>1104.5999755859375</ele><time>2026-05-09T07:04:53.000Z</time></trkpt>
      <trkpt lat="49.263779260218143463134765625" lon="19.90135780535638332366943359375"><ele>1109.800048828125</ele><time>2026-05-09T07:05:55.000Z</time></trkpt>
      <trkpt lat="49.2636112868785858154296875" lon="19.90156886167824268341064453125"><ele>1115.4000244140625</ele><time>2026-05-09T07:06:35.000Z</time></trkpt>
      <trkpt lat="49.26345278508961200714111328125" lon="19.9017181433737277984619140625"><ele>1120.4000244140625</ele><time>2026-05-09T07:07:08.000Z</time></trkpt>
      <trkpt lat="49.26338153891265392303466796875" lon="19.90208334289491176605224609375"><ele>1123.5999755859375</ele><time>2026-05-09T07:07:43.000Z</time></trkpt>
      <trkpt lat="49.263266958296298980712890625" lon="19.90238291211426258087158203125"><ele>1128.199951171875</ele><time>2026-05-09T07:08:13.000Z</time></trkpt>
      <trkpt lat="49.26312421448528766632080078125" lon="19.90252037532627582550048828125"><ele>1132.5999755859375</ele><time>2026-05-09T07:08:41.000Z</time></trkpt>
      <trkpt lat="49.2629702389240264892578125" lon="19.9028103053569793701171875"><ele>1137</ele><time>2026-05-09T07:09:20.000Z</time></trkpt>
      <trkpt lat="49.26288910210132598876953125" lon="19.90284391678869724273681640625"><ele>1140</ele><time>2026-05-09T07:09:42.000Z</time></trkpt>
      <trkpt lat="49.2626669816672801971435546875" lon="19.90296729840338230133056640625"><ele>1144.800048828125</ele><time>2026-05-09T07:10:10.000Z</time></trkpt>
      <trkpt lat="49.262281246483325958251953125" lon="19.90294533781707286834716796875"><ele>1147.5999755859375</ele><time>2026-05-09T07:10:48.000Z</time></trkpt>
      <trkpt lat="49.26200841553509235382080078125" lon="19.9028326012194156646728515625"><ele>1151.5999755859375</ele><time>2026-05-09T07:11:27.000Z</time></trkpt>
      <trkpt lat="49.26174639724195003509521484375" lon="19.90278926678001880645751953125"><ele>1155.5999755859375</ele><time>2026-05-09T07:11:57.000Z</time></trkpt>
      <trkpt lat="49.26156903617084026336669921875" lon="19.902926646173000335693359375"><ele>1159.199951171875</ele><time>2026-05-09T07:12:30.000Z</time></trkpt>
      <trkpt lat="49.261334426701068878173828125" lon="19.9030703119933605194091796875"><ele>1163</ele><time>2026-05-09T07:13:03.000Z</time></trkpt>
      <trkpt lat="49.261096380650997161865234375" lon="19.90325094200670719146728515625"><ele>1167.5999755859375</ele><time>2026-05-09T07:13:34.000Z</time></trkpt>
      <trkpt lat="49.26095833070576190948486328125" lon="19.90358420647680759429931640625"><ele>1169.4000244140625</ele><time>2026-05-09T07:14:06.000Z</time></trkpt>
      <trkpt lat="49.2608484439551830291748046875" lon="19.90374832414090633392333984375"><ele>1171.5999755859375</ele><time>2026-05-09T07:14:40.000Z</time></trkpt>
      <trkpt lat="49.26044426858425140380859375" lon="19.903957955539226531982421875"><ele>1175.5999755859375</ele><time>2026-05-09T07:15:22.000Z</time></trkpt>
      <trkpt lat="49.26012600772082805633544921875" lon="19.90422240458428859710693359375"><ele>1178.5999755859375</ele><time>2026-05-09T07:16:02.000Z</time></trkpt>
      <trkpt lat="49.2597701959311962127685546875" lon="19.90443932823836803436279296875"><ele>1180.199951171875</ele><time>2026-05-09T07:16:57.000Z</time></trkpt>
      <trkpt lat="49.25943466834723949432373046875" lon="19.9047443456947803497314453125"><ele>1179.800048828125</ele><time>2026-05-09T07:18:19.000Z</time></trkpt>
      <trkpt lat="49.25879596732556819915771484375" lon="19.9059137888252735137939453125"><ele>1180.5999755859375</ele><time>2026-05-09T07:19:50.000Z</time></trkpt>
      <trkpt lat="49.258210323750972747802734375" lon="19.90661158226430416107177734375"><ele>1182</ele><time>2026-05-09T07:20:55.000Z</time></trkpt>
      <trkpt lat="49.25768486224114894866943359375" lon="19.9070911109447479248046875"><ele>1184</ele><time>2026-05-09T07:21:50.000Z</time></trkpt>
      <trkpt lat="49.25707818008959293365478515625" lon="19.90761824883520603179931640625"><ele>1186</ele><time>2026-05-09T07:22:54.000Z</time></trkpt>
      <trkpt lat="49.25658348016440868377685546875" lon="19.908285699784755706787109375"><ele>1188.4000244140625</ele><time>2026-05-09T07:23:53.000Z</time></trkpt>
      <trkpt lat="49.256115518510341644287109375" lon="19.90894007496535778045654296875"><ele>1190.800048828125</ele><time>2026-05-09T07:24:50.000Z</time></trkpt>
      <trkpt lat="49.25556776113808155059814453125" lon="19.909780360758304595947265625"><ele>1193.5999755859375</ele><time>2026-05-09T07:26:00.000Z</time></trkpt>
      <trkpt lat="49.25514296628534793853759765625" lon="19.9104638211429119110107421875"><ele>1196.5999755859375</ele><time>2026-05-09T07:26:57.000Z</time></trkpt>
      <trkpt lat="49.25494230352342128753662109375" lon="19.91104359738528728485107421875"><ele>1199.199951171875</ele><time>2026-05-09T07:27:38.000Z</time></trkpt>
      <trkpt lat="49.254803918302059173583984375" lon="19.91159546189010143280029296875"><ele>1201</ele><time>2026-05-09T07:28:14.000Z</time></trkpt>
      <trkpt lat="49.25473057664930820465087890625" lon="19.9121579714119434356689453125"><ele>1203.5999755859375</ele><time>2026-05-09T07:28:55.000Z</time></trkpt>
      <trkpt lat="49.25469939596951007843017578125" lon="19.91239258088171482086181640625"><ele>1205.199951171875</ele><time>2026-05-09T07:29:17.000Z</time></trkpt>
      <trkpt lat="49.25453661940991878509521484375" lon="19.9127514101564884185791015625"><ele>1210</ele><time>2026-05-09T07:29:53.000Z</time></trkpt>
      <trkpt lat="49.25438256002962589263916015625" lon="19.91289901547133922576904296875"><ele>1211.800048828125</ele><time>2026-05-09T07:30:11.000Z</time></trkpt>
      <trkpt lat="49.25423403270542621612548828125" lon="19.91327536292374134063720703125"><ele>1213.5999755859375</ele><time>2026-05-09T07:30:53.000Z</time></trkpt>
      <trkpt lat="49.25423285923898220062255859375" lon="19.9134747684001922607421875"><ele>1214.5999755859375</ele><time>2026-05-09T07:31:33.000Z</time></trkpt>
      <trkpt lat="49.25414241850376129150390625" lon="19.9137934483587741851806640625"><ele>1217</ele><time>2026-05-09T07:31:56.000Z</time></trkpt>
      <trkpt lat="49.25410679541528224945068359375" lon="19.91402973420917987823486328125"><ele>1218.4000244140625</ele><time>2026-05-09T07:32:16.000Z</time></trkpt>
      <trkpt lat="49.25393748097121715545654296875" lon="19.91437666118144989013671875"><ele>1221</ele><time>2026-05-09T07:32:45.000Z</time></trkpt>
      <trkpt lat="49.25383530557155609130859375" lon="19.9146165512502193450927734375"><ele>1222.5999755859375</ele><time>2026-05-09T07:33:02.000Z</time></trkpt>
      <trkpt lat="49.25369122065603733062744140625" lon="19.9147328920662403106689453125"><ele>1224</ele><time>2026-05-09T07:33:35.000Z</time></trkpt>
      <trkpt lat="49.25346189178526401519775390625" lon="19.91501376964151859283447265625"><ele>1227.199951171875</ele><time>2026-05-09T07:34:01.000Z</time></trkpt>
      <trkpt lat="49.25326374359428882598876953125" lon="19.9152398295700550079345703125"><ele>1228.5999755859375</ele><time>2026-05-09T07:34:29.000Z</time></trkpt>
      <trkpt lat="49.253009520471096038818359375" lon="19.91554954089224338531494140625"><ele>1231.5999755859375</ele><time>2026-05-09T07:35:13.000Z</time></trkpt>
      <trkpt lat="49.2527565546333789825439453125" lon="19.91570301353931427001953125"><ele>1234</ele><time>2026-05-09T07:35:52.000Z</time></trkpt>
      <trkpt lat="49.25257944501936435699462890625" lon="19.91601104848086833953857421875"><ele>1235.800048828125</ele><time>2026-05-09T07:36:21.000Z</time></trkpt>
      <trkpt lat="49.2525007389485836029052734375" lon="19.91642930544912815093994140625"><ele>1239.199951171875</ele><time>2026-05-09T07:36:50.000Z</time></trkpt>
      <trkpt lat="49.2524444125592708587646484375" lon="19.91677028127014636993408203125"><ele>1241.800048828125</ele><time>2026-05-09T07:37:14.000Z</time></trkpt>
      <trkpt lat="49.25236252136528491973876953125" lon="19.9170027114450931549072265625"><ele>1244.4000244140625</ele><time>2026-05-09T07:37:33.000Z</time></trkpt>
      <trkpt lat="49.25216034986078739166259765625" lon="19.91734427399933338165283203125"><ele>1249</ele><time>2026-05-09T07:38:12.000Z</time></trkpt>
      <trkpt lat="49.2518771253526210784912109375" lon="19.91729364730417728424072265625"><ele>1251</ele><time>2026-05-09T07:38:38.000Z</time></trkpt>
      <trkpt lat="49.2517027817666530609130859375" lon="19.91748341359198093414306640625"><ele>1253.800048828125</ele><time>2026-05-09T07:39:29.000Z</time></trkpt>
      <trkpt lat="49.2516062222421169281005859375" lon="19.91785422898828983306884765625"><ele>1256.4000244140625</ele><time>2026-05-09T07:40:01.000Z</time></trkpt>
      <trkpt lat="49.25146414898335933685302734375" lon="19.91805304773151874542236328125"><ele>1259</ele><time>2026-05-09T07:41:53.000Z</time></trkpt>
      <trkpt lat="49.25130036659538745880126953125" lon="19.9183009006083011627197265625"><ele>1261.800048828125</ele><time>2026-05-09T07:42:24.000Z</time></trkpt>
      <trkpt lat="49.25128720700740814208984375" lon="19.91853467188775539398193359375"><ele>1264.800048828125</ele><time>2026-05-09T07:42:48.000Z</time></trkpt>
      <trkpt lat="49.25100901164114475250244140625" lon="19.9187022261321544647216796875"><ele>1268.4000244140625</ele><time>2026-05-09T07:43:19.000Z</time></trkpt>
      <trkpt lat="49.25093491561710834503173828125" lon="19.9189251847565174102783203125"><ele>1272</ele><time>2026-05-09T07:43:52.000Z</time></trkpt>
      <trkpt lat="49.25076895393431186676025390625" lon="19.91913531906902790069580078125"><ele>1277.4000244140625</ele><time>2026-05-09T07:44:30.000Z</time></trkpt>
      <trkpt lat="49.25062729977071285247802734375" lon="19.91932475008070468902587890625"><ele>1280.800048828125</ele><time>2026-05-09T07:44:58.000Z</time></trkpt>
      <trkpt lat="49.25049461424350738525390625" lon="19.9194659851491451263427734375"><ele>1285</ele><time>2026-05-09T07:45:28.000Z</time></trkpt>
      <trkpt lat="49.25031515769660472869873046875" lon="19.91969405673444271087646484375"><ele>1289</ele><time>2026-05-09T07:46:03.000Z</time></trkpt>
      <trkpt lat="49.25017484463751316070556640625" lon="19.91975055076181888580322265625"><ele>1293.800048828125</ele><time>2026-05-09T07:46:35.000Z</time></trkpt>
      <trkpt lat="49.2500548996031284332275390625" lon="19.919881559908390045166015625"><ele>1296.800048828125</ele><time>2026-05-09T07:47:00.000Z</time></trkpt>
      <trkpt lat="49.24995054490864276885986328125" lon="19.92010393179953098297119140625"><ele>1300</ele><time>2026-05-09T07:47:26.000Z</time></trkpt>
      <trkpt lat="49.249805621802806854248046875" lon="19.92021691985428333282470703125"><ele>1304</ele><time>2026-05-09T07:48:01.000Z</time></trkpt>
      <trkpt lat="49.24982079304754734039306640625" lon="19.9204994738101959228515625"><ele>1308.199951171875</ele><time>2026-05-09T07:48:34.000Z</time></trkpt>
      <trkpt lat="49.2497296817600727081298828125" lon="19.9207940138876438140869140625"><ele>1313.4000244140625</ele><time>2026-05-09T07:49:13.000Z</time></trkpt>
      <trkpt lat="49.24961493350565433502197265625" lon="19.9208831973373889923095703125"><ele>1318.4000244140625</ele><time>2026-05-09T07:49:47.000Z</time></trkpt>
      <trkpt lat="49.24953446723520755767822265625" lon="19.9209804274141788482666015625"><ele>1322.199951171875</ele><time>2026-05-09T07:50:24.000Z</time></trkpt>
      <trkpt lat="49.249407984316349029541015625" lon="19.92119885981082916259765625"><ele>1327</ele><time>2026-05-09T07:51:01.000Z</time></trkpt>
      <trkpt lat="49.24931184388697147369384765625" lon="19.92129944264888763427734375"><ele>1330.5999755859375</ele><time>2026-05-09T07:51:35.000Z</time></trkpt>
      <trkpt lat="49.2491436190903186798095703125" lon="19.92138166911900043487548828125"><ele>1333.800048828125</ele><time>2026-05-09T07:52:10.000Z</time></trkpt>
      <trkpt lat="49.24903255887329578399658203125" lon="19.9215235747396945953369140625"><ele>1336.4000244140625</ele><time>2026-05-09T07:52:37.000Z</time></trkpt>
      <trkpt lat="49.2488965205848217010498046875" lon="19.92172096855938434600830078125"><ele>1340.199951171875</ele><time>2026-05-09T07:53:13.000Z</time></trkpt>
      <trkpt lat="49.24872276373207569122314453125" lon="19.921872429549694061279296875"><ele>1342.800048828125</ele><time>2026-05-09T07:53:53.000Z</time></trkpt>
      <trkpt lat="49.24866911955177783966064453125" lon="19.92195448838174343109130859375"><ele>1346.199951171875</ele><time>2026-05-09T07:54:39.000Z</time></trkpt>
      <trkpt lat="49.248692505061626434326171875" lon="19.9221126548945903778076171875"><ele>1349.199951171875</ele><time>2026-05-09T07:55:04.000Z</time></trkpt>
      <trkpt lat="49.2487161420285701751708984375" lon="19.92233569733798503875732421875"><ele>1354.5999755859375</ele><time>2026-05-09T07:55:43.000Z</time></trkpt>
      <trkpt lat="49.2487748153507709503173828125" lon="19.92241867817938327789306640625"><ele>1355.5999755859375</ele><time>2026-05-09T07:56:14.000Z</time></trkpt>
      <trkpt lat="49.24885922111570835113525390625" lon="19.92257022298872470855712890625"><ele>1360</ele><time>2026-05-09T07:56:48.000Z</time></trkpt>
      <trkpt lat="49.2488629929721355438232421875" lon="19.92266996763646602630615234375"><ele>1364.800048828125</ele><time>2026-05-09T07:57:22.000Z</time></trkpt>
      <trkpt lat="49.2488901503384113311767578125" lon="19.92287549190223217010498046875"><ele>1369.4000244140625</ele><time>2026-05-09T07:57:54.000Z</time></trkpt>
      <trkpt lat="49.24883424304425716400146484375" lon="19.923004992306232452392578125"><ele>1372.5999755859375</ele><time>2026-05-09T07:58:14.000Z</time></trkpt>
      <trkpt lat="49.24876685254275798797607421875" lon="19.9230004660785198211669921875"><ele>1375</ele><time>2026-05-09T07:58:34.000Z</time></trkpt>
      <trkpt lat="49.24870868213474750518798828125" lon="19.92310549132525920867919921875"><ele>1378.800048828125</ele><time>2026-05-09T07:58:59.000Z</time></trkpt>
      <trkpt lat="49.24878646619617938995361328125" lon="19.92321345023810863494873046875"><ele>1381.199951171875</ele><time>2026-05-09T07:59:33.000Z</time></trkpt>
      <trkpt lat="49.24855395220220088958740234375" lon="19.9231724627315998077392578125"><ele>1384.800048828125</ele><time>2026-05-09T07:59:59.000Z</time></trkpt>
      <trkpt lat="49.24850131385028362274169921875" lon="19.9231992848217487335205078125"><ele>1388.199951171875</ele><time>2026-05-09T08:00:32.000Z</time></trkpt>
      <trkpt lat="49.24855194054543972015380859375" lon="19.92325921542942523956298828125"><ele>1388.199951171875</ele><time>2026-05-09T08:01:27.000Z</time></trkpt>
      <trkpt lat="49.2484700493514537811279296875" lon="19.92304011248052120208740234375"><ele>1389.800048828125</ele><time>2026-05-09T08:02:19.000Z</time></trkpt>
      <trkpt lat="49.2483315803110599517822265625" lon="19.922858141362667083740234375"><ele>1393.199951171875</ele><time>2026-05-09T08:02:51.000Z</time></trkpt>
      <trkpt lat="49.24822303466498851776123046875" lon="19.92294874973595142364501953125"><ele>1396.4000244140625</ele><time>2026-05-09T08:03:25.000Z</time></trkpt>
      <trkpt lat="49.2481391318142414093017578125" lon="19.92285671643912792205810546875"><ele>1399</ele><time>2026-05-09T08:03:57.000Z</time></trkpt>
      <trkpt lat="49.24805372022092342376708984375" lon="19.9228732287883758544921875"><ele>1400.800048828125</ele><time>2026-05-09T08:04:31.000Z</time></trkpt>
      <trkpt lat="49.24797727726399898529052734375" lon="19.92295562289655208587646484375"><ele>1403.800048828125</ele><time>2026-05-09T08:05:10.000Z</time></trkpt>
      <trkpt lat="49.24803209491074085235595703125" lon="19.92302318103611469268798828125"><ele>1406.199951171875</ele><time>2026-05-09T08:05:52.000Z</time></trkpt>
      <trkpt lat="49.2480598390102386474609375" lon="19.92312074638903141021728515625"><ele>1409.4000244140625</ele><time>2026-05-09T08:06:32.000Z</time></trkpt>
      <trkpt lat="49.24794492311775684356689453125" lon="19.92319987155497074127197265625"><ele>1413.4000244140625</ele><time>2026-05-09T08:07:22.000Z</time></trkpt>
      <trkpt lat="49.24780838191509246826171875" lon="19.9232150427997112274169921875"><ele>1415</ele><time>2026-05-09T08:07:48.000Z</time></trkpt>
      <trkpt lat="49.24772229976952075958251953125" lon="19.92331587709486484527587890625"><ele>1418.800048828125</ele><time>2026-05-09T08:08:21.000Z</time></trkpt>
      <trkpt lat="49.247669912874698638916015625" lon="19.92345937527716159820556640625"><ele>1423</ele><time>2026-05-09T08:09:14.000Z</time></trkpt>
      <trkpt lat="49.247677959501743316650390625" lon="19.92343104444444179534912109375"><ele>1422.4000244140625</ele><time>2026-05-09T08:10:04.000Z</time></trkpt>
      <trkpt lat="49.24768324010074138641357421875" lon="19.9234651587903499603271484375"><ele>1427.199951171875</ele><time>2026-05-09T08:12:56.000Z</time></trkpt>
      <trkpt lat="49.247516691684722900390625" lon="19.92392960004508495330810546875"><ele>1434.800048828125</ele><time>2026-05-09T08:14:34.000Z</time></trkpt>
      <trkpt lat="49.247439242899417877197265625" lon="19.92417099885642528533935546875"><ele>1439</ele><time>2026-05-09T08:15:15.000Z</time></trkpt>
      <trkpt lat="49.24724101088941097259521484375" lon="19.92445732466876506805419921875"><ele>1442.800048828125</ele><time>2026-05-09T08:16:04.000Z</time></trkpt>
      <trkpt lat="49.24715383909642696380615234375" lon="19.92460191249847412109375"><ele>1446.4000244140625</ele><time>2026-05-09T08:16:39.000Z</time></trkpt>
      <trkpt lat="49.2470883764326572418212890625" lon="19.9247184209525585174560546875"><ele>1450.5999755859375</ele><time>2026-05-09T08:17:12.000Z</time></trkpt>
      <trkpt lat="49.246973209083080291748046875" lon="19.92486049421131610870361328125"><ele>1454</ele><time>2026-05-09T08:17:42.000Z</time></trkpt>
      <trkpt lat="49.24688142724335193634033203125" lon="19.9251531064510345458984375"><ele>1458</ele><time>2026-05-09T08:18:28.000Z</time></trkpt>
      <trkpt lat="49.2468466423451900482177734375" lon="19.9253380112349987030029296875"><ele>1461.800048828125</ele><time>2026-05-09T08:19:09.000Z</time></trkpt>
      <trkpt lat="49.2469180561602115631103515625" lon="19.92541336454451084136962890625"><ele>1467.4000244140625</ele><time>2026-05-09T08:20:15.000Z</time></trkpt>
      <trkpt lat="49.24692031927406787872314453125" lon="19.925475977361202239990234375"><ele>1468.199951171875</ele><time>2026-05-09T08:21:06.000Z</time></trkpt>
      <trkpt lat="49.24691763706505298614501953125" lon="19.9255683459341526031494140625"><ele>1469.4000244140625</ele><time>2026-05-09T08:22:31.000Z</time></trkpt>
      <trkpt lat="49.24694580025970935821533203125" lon="19.92550808005034923553466796875"><ele>1472.5999755859375</ele><time>2026-05-09T08:26:04.000Z</time></trkpt>
      <trkpt lat="49.24707035534083843231201171875" lon="19.9257198907434940338134765625"><ele>1477.5999755859375</ele><time>2026-05-09T08:26:41.000Z</time></trkpt>
      <trkpt lat="49.2471738718450069427490234375" lon="19.92590320296585559844970703125"><ele>1483.4000244140625</ele><time>2026-05-09T08:27:20.000Z</time></trkpt>
      <trkpt lat="49.247310161590576171875" lon="19.92602507583796977996826171875"><ele>1485</ele><time>2026-05-09T08:27:58.000Z</time></trkpt>
      <trkpt lat="49.2473002709448337554931640625" lon="19.92620662786066532135009765625"><ele>1489.199951171875</ele><time>2026-05-09T08:28:36.000Z</time></trkpt>
      <trkpt lat="49.247410409152507781982421875" lon="19.926353059709072113037109375"><ele>1492.800048828125</ele><time>2026-05-09T08:29:22.000Z</time></trkpt>
      <trkpt lat="49.24744335003197193145751953125" lon="19.92656730115413665771484375"><ele>1498.199951171875</ele><time>2026-05-09T08:29:58.000Z</time></trkpt>
      <trkpt lat="49.24746103584766387939453125" lon="19.9267471767961978912353515625"><ele>1503</ele><time>2026-05-09T08:30:29.000Z</time></trkpt>
      <trkpt lat="49.24749917350709438323974609375" lon="19.926914982497692108154296875"><ele>1506.800048828125</ele><time>2026-05-09T08:31:06.000Z</time></trkpt>
      <trkpt lat="49.2475014366209506988525390625" lon="19.9271012283861637115478515625"><ele>1512</ele><time>2026-05-09T08:31:36.000Z</time></trkpt>
      <trkpt lat="49.2475483752787113189697265625" lon="19.92720223031938076019287109375"><ele>1517.199951171875</ele><time>2026-05-09T08:32:15.000Z</time></trkpt>
      <trkpt lat="49.2476020194590091705322265625" lon="19.92730884812772274017333984375"><ele>1521.800048828125</ele><time>2026-05-09T08:32:51.000Z</time></trkpt>
      <trkpt lat="49.2476378940045833587646484375" lon="19.9273362569510936737060546875"><ele>1525.199951171875</ele><time>2026-05-09T08:33:22.000Z</time></trkpt>
      <trkpt lat="49.2476865090429782867431640625" lon="19.9274599738419055938720703125"><ele>1530.800048828125</ele><time>2026-05-09T08:33:55.000Z</time></trkpt>
      <trkpt lat="49.2476908676326274871826171875" lon="19.9275468103587627410888671875"><ele>1535</ele><time>2026-05-09T08:34:25.000Z</time></trkpt>
      <trkpt lat="49.2477190308272838592529296875" lon="19.9276477284729480743408203125"><ele>1541.800048828125</ele><time>2026-05-09T08:35:08.000Z</time></trkpt>
      <trkpt lat="49.24763764254748821258544921875" lon="19.9278606288135051727294921875"><ele>1547.199951171875</ele><time>2026-05-09T08:35:52.000Z</time></trkpt>
      <trkpt lat="49.247602187097072601318359375" lon="19.92799557745456695556640625"><ele>1551.5999755859375</ele><time>2026-05-09T08:37:05.000Z</time></trkpt>
      <trkpt lat="49.24740864895284175872802734375" lon="19.927997924387454986572265625"><ele>1555.199951171875</ele><time>2026-05-09T08:38:01.000Z</time></trkpt>
      <trkpt lat="49.24729079939424991607666015625" lon="19.927993901073932647705078125"><ele>1560.4000244140625</ele><time>2026-05-09T08:38:41.000Z</time></trkpt>
      <trkpt lat="49.24717294983565807342529296875" lon="19.92797738872468471527099609375"><ele>1564.5999755859375</ele><time>2026-05-09T08:39:12.000Z</time></trkpt>
      <trkpt lat="49.2470769770443439483642578125" lon="19.92810747586190700531005859375"><ele>1570</ele><time>2026-05-09T08:39:55.000Z</time></trkpt>
      <trkpt lat="49.24693188630044460296630859375" lon="19.928250722587108612060546875"><ele>1572.199951171875</ele><time>2026-05-09T08:40:43.000Z</time></trkpt>
      <trkpt lat="49.24688838422298431396484375" lon="19.92839933373034000396728515625"><ele>1576.4000244140625</ele><time>2026-05-09T08:41:21.000Z</time></trkpt>
      <trkpt lat="49.24690908752381801605224609375" lon="19.92836949415504932403564453125"><ele>1576</ele><time>2026-05-09T08:43:01.000Z</time></trkpt>
      <trkpt lat="49.24679827876389026641845703125" lon="19.92832305841147899627685546875"><ele>1575.800048828125</ele><time>2026-05-09T08:44:32.000Z</time></trkpt>
      <trkpt lat="49.2468313872814178466796875" lon="19.9283494614064693450927734375"><ele>1576.800048828125</ele><time>2026-05-09T08:45:29.000Z</time></trkpt>
      <trkpt lat="49.2468442954123020172119140625" lon="19.92839463986456394195556640625"><ele>1578.800048828125</ele><time>2026-05-09T08:47:17.000Z</time></trkpt>
      <trkpt lat="49.2468684352934360504150390625" lon="19.928402267396450042724609375"><ele>1581.4000244140625</ele><time>2026-05-09T08:50:08.000Z</time></trkpt>
      <trkpt lat="49.24684655852615833282470703125" lon="19.92841375060379505157470703125"><ele>1584.5999755859375</ele><time>2026-05-09T08:52:04.000Z</time></trkpt>
      <trkpt lat="49.2468419484794139862060546875" lon="19.92844241671264171600341796875"><ele>1591.4000244140625</ele><time>2026-05-09T08:53:21.000Z</time></trkpt>
      <trkpt lat="49.24680079333484172821044921875" lon="19.92878322489559650421142578125"><ele>1599.199951171875</ele><time>2026-05-09T08:54:29.000Z</time></trkpt>
      <trkpt lat="49.24678470008075237274169921875" lon="19.9289982207119464874267578125"><ele>1604.5999755859375</ele><time>2026-05-09T08:55:07.000Z</time></trkpt>
      <trkpt lat="49.2467804253101348876953125" lon="19.92912336252629756927490234375"><ele>1609.800048828125</ele><time>2026-05-09T08:55:45.000Z</time></trkpt>
      <trkpt lat="49.2467482388019561767578125" lon="19.9292989633977413177490234375"><ele>1614.199951171875</ele><time>2026-05-09T08:56:37.000Z</time></trkpt>
      <trkpt lat="49.24669836647808551788330078125" lon="19.92965175770223140716552734375"><ele>1621.800048828125</ele><time>2026-05-09T08:57:56.000Z</time></trkpt>
      <trkpt lat="49.24663147889077663421630859375" lon="19.929789640009403228759765625"><ele>1627.800048828125</ele><time>2026-05-09T08:58:55.000Z</time></trkpt>
      <trkpt lat="49.2465733923017978668212890625" lon="19.92996356450021266937255859375"><ele>1628.5999755859375</ele><time>2026-05-09T09:01:10.000Z</time></trkpt>
      <trkpt lat="49.2464733123779296875" lon="19.93005727417767047882080078125"><ele>1632.4000244140625</ele><time>2026-05-09T09:01:44.000Z</time></trkpt>
      <trkpt lat="49.246411621570587158203125" lon="19.93011142127215862274169921875"><ele>1634.5999755859375</ele><time>2026-05-09T09:02:28.000Z</time></trkpt>
      <trkpt lat="49.24638136290013790130615234375" lon="19.93012567050755023956298828125"><ele>1635.800048828125</ele><time>2026-05-09T09:03:17.000Z</time></trkpt>
      <trkpt lat="49.24630207009613513946533203125" lon="19.93019859306514263153076171875"><ele>1642</ele><time>2026-05-09T09:04:00.000Z</time></trkpt>
      <trkpt lat="49.2462498508393764495849609375" lon="19.930281154811382293701171875"><ele>1645.199951171875</ele><time>2026-05-09T09:05:00.000Z</time></trkpt>
      <trkpt lat="49.2461610026657581329345703125" lon="19.9303607828915119171142578125"><ele>1652.5999755859375</ele><time>2026-05-09T09:05:52.000Z</time></trkpt>
      <trkpt lat="49.24609000794589519500732421875" lon="19.93052758276462554931640625"><ele>1656.5999755859375</ele><time>2026-05-09T09:07:02.000Z</time></trkpt>
      <trkpt lat="49.24604843370616436004638671875" lon="19.9306838214397430419921875"><ele>1661.199951171875</ele><time>2026-05-09T09:07:55.000Z</time></trkpt>
      <trkpt lat="49.24601624719798564910888671875" lon="19.93077191524207592010498046875"><ele>1664.5999755859375</ele><time>2026-05-09T09:08:52.000Z</time></trkpt>
      <trkpt lat="49.24594223499298095703125" lon="19.93090032599866390228271484375"><ele>1671.4000244140625</ele><time>2026-05-09T09:10:06.000Z</time></trkpt>
      <trkpt lat="49.245889596641063690185546875" lon="19.9309869110584259033203125"><ele>1677.5999755859375</ele><time>2026-05-09T09:11:25.000Z</time></trkpt>
      <trkpt lat="49.24585665576159954071044921875" lon="19.9310373701155185699462890625"><ele>1684.800048828125</ele><time>2026-05-09T09:13:49.000Z</time></trkpt>
      <trkpt lat="49.2456885986030101776123046875" lon="19.9312274716794490814208984375"><ele>1689.199951171875</ele><time>2026-05-09T09:14:28.000Z</time></trkpt>
      <trkpt lat="49.2456520535051822662353515625" lon="19.931366443634033203125"><ele>1694.4000244140625</ele><time>2026-05-09T09:16:20.000Z</time></trkpt>
      <trkpt lat="49.24559446983039379119873046875" lon="19.9313838779926300048828125"><ele>1698.199951171875</ele><time>2026-05-09T09:17:56.000Z</time></trkpt>
      <trkpt lat="49.24558818340301513671875" lon="19.93139527738094329833984375"><ele>1697.800048828125</ele><time>2026-05-09T09:19:29.000Z</time></trkpt>
      <trkpt lat="49.2455819807946681976318359375" lon="19.93140525184571743011474609375"><ele>1698</ele><time>2026-05-09T09:21:23.000Z</time></trkpt>
      <trkpt lat="49.24557586200535297393798828125" lon="19.93141162209212779998779296875"><ele>1702.4000244140625</ele><time>2026-05-09T09:22:13.000Z</time></trkpt>
      <trkpt lat="49.24555373378098011016845703125" lon="19.93143676780164241790771484375"><ele>1708</ele><time>2026-05-09T09:24:24.000Z</time></trkpt>
      <trkpt lat="49.24553512595593929290771484375" lon="19.93145872838795185089111328125"><ele>1711.199951171875</ele><time>2026-05-09T09:26:00.000Z</time></trkpt>
      <trkpt lat="49.24551283009350299835205078125" lon="19.93147532455623149871826171875"><ele>1714.800048828125</ele><time>2026-05-09T09:27:32.000Z</time></trkpt>
      <trkpt lat="49.2454790510237216949462890625" lon="19.9314926750957965850830078125"><ele>1719</ele><time>2026-05-09T09:29:42.000Z</time></trkpt>
      <trkpt lat="49.245454408228397369384765625" lon="19.93150566704571247100830078125"><ele>1721.199951171875</ele><time>2026-05-09T09:31:11.000Z</time></trkpt>
      <trkpt lat="49.2451266758143901824951171875" lon="19.9318936653435230255126953125"><ele>1724.800048828125</ele><time>2026-05-09T09:32:58.000Z</time></trkpt>
      <trkpt lat="49.2450690083205699920654296875" lon="19.9321595393121242523193359375"><ele>1724.800048828125</ele><time>2026-05-09T09:33:43.000Z</time></trkpt>
      <trkpt lat="49.24514201469719409942626953125" lon="19.93216264061629772186279296875"><ele>1722</ele><time>2026-05-09T09:34:55.000Z</time></trkpt>
      <trkpt lat="49.245290122926235198974609375" lon="19.93224428035318851470947265625"><ele>1720.800048828125</ele><time>2026-05-09T09:36:52.000Z</time></trkpt>
      <trkpt lat="49.2454508878290653228759765625" lon="19.93235140107572078704833984375"><ele>1718</ele><time>2026-05-09T09:38:14.000Z</time></trkpt>
      <trkpt lat="49.24555591307580471038818359375" lon="19.9323399178683757781982421875"><ele>1713</ele><time>2026-05-09T09:39:04.000Z</time></trkpt>
      <trkpt lat="49.24593259580433368682861328125" lon="19.932261966168880462646484375"><ele>1710.800048828125</ele><time>2026-05-09T09:40:01.000Z</time></trkpt>
      <trkpt lat="49.246131666004657745361328125" lon="19.93236347101628780364990234375"><ele>1712.199951171875</ele><time>2026-05-09T09:42:08.000Z</time></trkpt>
      <trkpt lat="49.24630441702902317047119140625" lon="19.9323700927197933197021484375"><ele>1712.800048828125</ele><time>2026-05-09T09:43:47.000Z</time></trkpt>
      <trkpt lat="49.24629419110715389251708984375" lon="19.932341761887073516845703125"><ele>1716.4000244140625</ele><time>2026-05-09T09:47:07.000Z</time></trkpt>
      <trkpt lat="49.2462927661836147308349609375" lon="19.93235014379024505615234375"><ele>1718.4000244140625</ele><time>2026-05-09T09:50:12.000Z</time></trkpt>
      <trkpt lat="49.2464191652834415435791015625" lon="19.9323172867298126220703125"><ele>1720</ele><time>2026-05-09T09:52:37.000Z</time></trkpt>
      <trkpt lat="49.24667322076857089996337890625" lon="19.9325139261782169342041015625"><ele>1723.4000244140625</ele><time>2026-05-09T09:53:14.000Z</time></trkpt>
      <trkpt lat="49.2468516714870929718017578125" lon="19.932573772966861724853515625"><ele>1727.5999755859375</ele><time>2026-05-09T09:53:44.000Z</time></trkpt>
      <trkpt lat="49.247050322592258453369140625" lon="19.93263420648872852325439453125"><ele>1733.800048828125</ele><time>2026-05-09T09:54:22.000Z</time></trkpt>
      <trkpt lat="49.2472479678690433502197265625" lon="19.93267158977687358856201171875"><ele>1738.4000244140625</ele><time>2026-05-09T09:55:00.000Z</time></trkpt>
      <trkpt lat="49.24738383851945400238037109375" lon="19.93273830972611904144287109375"><ele>1741.199951171875</ele><time>2026-05-09T09:55:50.000Z</time></trkpt>
      <trkpt lat="49.247633032500743865966796875" lon="19.93311532773077487945556640625"><ele>1741.5999755859375</ele><time>2026-05-09T09:56:39.000Z</time></trkpt>
      <trkpt lat="49.24785423092544078826904296875" lon="19.9334089457988739013671875"><ele>1740.800048828125</ele><time>2026-05-09T09:57:17.000Z</time></trkpt>
      <trkpt lat="49.24799722619354724884033203125" lon="19.93384840898215770721435546875"><ele>1743</ele><time>2026-05-09T09:58:03.000Z</time></trkpt>
      <trkpt lat="49.24811742268502712249755859375" lon="19.933849163353443145751953125"><ele>1747</ele><time>2026-05-09T09:58:28.000Z</time></trkpt>
      <trkpt lat="49.24825706519186496734619140625" lon="19.93390875868499279022216796875"><ele>1753.4000244140625</ele><time>2026-05-09T09:59:00.000Z</time></trkpt>
      <trkpt lat="49.24847298301756381988525390625" lon="19.9339046515524387359619140625"><ele>1760</ele><time>2026-05-09T09:59:47.000Z</time></trkpt>
      <trkpt lat="49.24866199493408203125" lon="19.933971874415874481201171875"><ele>1761.800048828125</ele><time>2026-05-09T10:00:30.000Z</time></trkpt>
      <trkpt lat="49.2488408647477626800537109375" lon="19.93411478586494922637939453125"><ele>1764.199951171875</ele><time>2026-05-09T10:01:06.000Z</time></trkpt>
      <trkpt lat="49.24905292689800262451171875" lon="19.93406851775944232940673828125"><ele>1769.5999755859375</ele><time>2026-05-09T10:01:54.000Z</time></trkpt>
      <trkpt lat="49.24919550307095050811767578125" lon="19.9341105110943317413330078125"><ele>1774.800048828125</ele><time>2026-05-09T10:02:39.000Z</time></trkpt>
      <trkpt lat="49.24940823577344417572021484375" lon="19.93398486636579036712646484375"><ele>1782.4000244140625</ele><time>2026-05-09T10:03:34.000Z</time></trkpt>
      <trkpt lat="49.24958056770265102386474609375" lon="19.933894090354442596435546875"><ele>1787.800048828125</ele><time>2026-05-09T10:04:14.000Z</time></trkpt>
      <trkpt lat="49.24969690851867198944091796875" lon="19.93384220637381076812744140625"><ele>1794</ele><time>2026-05-09T10:05:12.000Z</time></trkpt>
      <trkpt lat="49.24987376667559146881103515625" lon="19.93372418917715549468994140625"><ele>1800.4000244140625</ele><time>2026-05-09T10:07:09.000Z</time></trkpt>
      <trkpt lat="49.2499266564846038818359375" lon="19.93376174010336399078369140625"><ele>1806.800048828125</ele><time>2026-05-09T10:07:55.000Z</time></trkpt>
      <trkpt lat="49.24994333647191524505615234375" lon="19.93380934931337833404541015625"><ele>1811.800048828125</ele><time>2026-05-09T10:09:02.000Z</time></trkpt>
      <trkpt lat="49.24996160902082920074462890625" lon="19.93383952416479587554931640625"><ele>1816.5999755859375</ele><time>2026-05-09T10:10:26.000Z</time></trkpt>
      <trkpt lat="49.24997426569461822509765625" lon="19.9338448047637939453125"><ele>1822</ele><time>2026-05-09T10:11:02.000Z</time></trkpt>
      <trkpt lat="49.2503844760358333587646484375" lon="19.93407689966261386871337890625"><ele>1828.5999755859375</ele><time>2026-05-09T10:12:12.000Z</time></trkpt>
      <trkpt lat="49.25050199031829833984375" lon="19.9342610500752925872802734375"><ele>1834.4000244140625</ele><time>2026-05-09T10:12:58.000Z</time></trkpt>
      <trkpt lat="49.2506506852805614471435546875" lon="19.934343360364437103271484375"><ele>1842.199951171875</ele><time>2026-05-09T10:14:09.000Z</time></trkpt>
      <trkpt lat="49.250656552612781524658203125" lon="19.934228360652923583984375"><ele>1846.199951171875</ele><time>2026-05-09T10:15:08.000Z</time></trkpt>
      <trkpt lat="49.250675328075885772705078125" lon="19.93411637842655181884765625"><ele>1854.800048828125</ele><time>2026-05-09T10:16:34.000Z</time></trkpt>
      <trkpt lat="49.250680021941661834716796875" lon="19.93412199430167675018310546875"><ele>1862.4000244140625</ele><time>2026-05-09T10:17:35.000Z</time></trkpt>
      <trkpt lat="49.2508092708885669708251953125" lon="19.9343120120465755462646484375"><ele>1865.4000244140625</ele><time>2026-05-09T10:18:53.000Z</time></trkpt>
      <trkpt lat="49.25082511268556118011474609375" lon="19.9343317933380603790283203125"><ele>1870.800048828125</ele><time>2026-05-09T10:19:36.000Z</time></trkpt>
      <trkpt lat="49.2509326525032520294189453125" lon="19.93431712500751018524169921875"><ele>1878.5999755859375</ele><time>2026-05-09T10:21:01.000Z</time></trkpt>
      <trkpt lat="49.2509577982127666473388671875" lon="19.93414864875376224517822265625"><ele>1881.800048828125</ele><time>2026-05-09T10:22:19.000Z</time></trkpt>
      <trkpt lat="49.25095788203179836273193359375" lon="19.93414546363055706024169921875"><ele>1882.5999755859375</ele><time>2026-05-09T10:23:57.000Z</time></trkpt>
      <trkpt lat="49.25095855258405208587646484375" lon="19.93414076976478099822998046875"><ele>1883</ele><time>2026-05-09T10:25:59.000Z</time></trkpt>
      <trkpt lat="49.2509618215262889862060546875" lon="19.9341359920799732208251953125"><ele>1884.5999755859375</ele><time>2026-05-09T10:30:12.000Z</time></trkpt>
      <trkpt lat="49.25096274353563785552978515625" lon="19.9341336451470851898193359375"><ele>1883.5999755859375</ele><time>2026-05-09T10:33:30.000Z</time></trkpt>
      <trkpt lat="49.25096265971660614013671875" lon="19.9341316334903240203857421875"><ele>1879.5999755859375</ele><time>2026-05-09T10:35:12.000Z</time></trkpt>
      <trkpt lat="49.2509601451456546783447265625" lon="19.93412048555910587310791015625"><ele>1873.4000244140625</ele><time>2026-05-09T10:37:02.000Z</time></trkpt>
      <trkpt lat="49.25095997750759124755859375" lon="19.93410171009600162506103515625"><ele>1869</ele><time>2026-05-09T10:38:47.000Z</time></trkpt>
      <trkpt lat="49.25095704384148120880126953125" lon="19.934082515537738800048828125"><ele>1868.199951171875</ele><time>2026-05-09T10:40:28.000Z</time></trkpt>
      <trkpt lat="49.2508018948137760162353515625" lon="19.93385352194309234619140625"><ele>1866</ele><time>2026-05-09T10:42:25.000Z</time></trkpt>
      <trkpt lat="49.2507687024772167205810546875" lon="19.9338436312973499298095703125"><ele>1862.199951171875</ele><time>2026-05-09T10:43:35.000Z</time></trkpt>
      <trkpt lat="49.2505940236151218414306640625" lon="19.93367490358650684356689453125"><ele>1857.800048828125</ele><time>2026-05-09T10:44:40.000Z</time></trkpt>
      <trkpt lat="49.250518418848514556884765625" lon="19.93372033350169658660888671875"><ele>1852.5999755859375</ele><time>2026-05-09T10:45:44.000Z</time></trkpt>
      <trkpt lat="49.25042261369526386260986328125" lon="19.9336568824946880340576171875"><ele>1844</ele><time>2026-05-09T10:47:16.000Z</time></trkpt>
      <trkpt lat="49.25030778162181377410888671875" lon="19.93386165238916873931884765625"><ele>1835.800048828125</ele><time>2026-05-09T10:48:34.000Z</time></trkpt>
      <trkpt lat="49.25025799311697483062744140625" lon="19.93389937095344066619873046875"><ele>1829</ele><time>2026-05-09T10:49:40.000Z</time></trkpt>
      <trkpt lat="49.25001542083919048309326171875" lon="19.93406684137880802154541015625"><ele>1821.5999755859375</ele><time>2026-05-09T10:50:19.000Z</time></trkpt>
      <trkpt lat="49.24998139031231403350830078125" lon="19.93386014364659786224365234375"><ele>1814.800048828125</ele><time>2026-05-09T10:50:57.000Z</time></trkpt>
      <trkpt lat="49.24989673309028148651123046875" lon="19.933786131441593170166015625"><ele>1809.199951171875</ele><time>2026-05-09T10:51:36.000Z</time></trkpt>
      <trkpt lat="49.24977779388427734375" lon="19.933860562741756439208984375"><ele>1801.5999755859375</ele><time>2026-05-09T10:52:35.000Z</time></trkpt>
      <trkpt lat="49.24952725879848003387451171875" lon="19.9339770711958408355712890625"><ele>1794.4000244140625</ele><time>2026-05-09T10:53:24.000Z</time></trkpt>
      <trkpt lat="49.2492921464145183563232421875" lon="19.9340743012726306915283203125"><ele>1787.5999755859375</ele><time>2026-05-09T10:54:07.000Z</time></trkpt>
      <trkpt lat="49.2490762285888195037841796875" lon="19.93409181945025920867919921875"><ele>1778.199951171875</ele><time>2026-05-09T10:54:48.000Z</time></trkpt>
      <trkpt lat="49.24885016866028308868408203125" lon="19.9341356568038463592529296875"><ele>1771.5999755859375</ele><time>2026-05-09T10:55:23.000Z</time></trkpt>
      <trkpt lat="49.24845672212541103363037109375" lon="19.9339619837701320648193359375"><ele>1766.800048828125</ele><time>2026-05-09T10:56:09.000Z</time></trkpt>
      <trkpt lat="49.24825622700154781341552734375" lon="19.93393440730869770050048828125"><ele>1760.199951171875</ele><time>2026-05-09T10:56:47.000Z</time></trkpt>
      <trkpt lat="49.24813787452876567840576171875" lon="19.9338917434215545654296875"><ele>1753.800048828125</ele><time>2026-05-09T10:57:23.000Z</time></trkpt>
      <trkpt lat="49.24800342880189418792724609375" lon="19.93389400653541088104248046875"><ele>1748</ele><time>2026-05-09T10:58:00.000Z</time></trkpt>
      <trkpt lat="49.2478705756366252899169921875" lon="19.9335093609988689422607421875"><ele>1743.5999755859375</ele><time>2026-05-09T10:58:35.000Z</time></trkpt>
      <trkpt lat="49.2475564219057559967041015625" lon="19.93311063386499881744384765625"><ele>1744.5999755859375</ele><time>2026-05-09T10:59:24.000Z</time></trkpt>
      <trkpt lat="49.247264228761196136474609375" lon="19.9327201209962368011474609375"><ele>1742.4000244140625</ele><time>2026-05-09T11:00:10.000Z</time></trkpt>
      <trkpt lat="49.2470347322523593902587890625" lon="19.9326440133154392242431640625"><ele>1736.199951171875</ele><time>2026-05-09T11:00:49.000Z</time></trkpt>
      <trkpt lat="49.246902801096439361572265625" lon="19.93253747932612895965576171875"><ele>1731.199951171875</ele><time>2026-05-09T11:01:23.000Z</time></trkpt>
      <trkpt lat="49.24669065512716770172119140625" lon="19.932524822652339935302734375"><ele>1724.5999755859375</ele><time>2026-05-09T11:02:15.000Z</time></trkpt>
      <trkpt lat="49.24631170928478240966796875" lon="19.9323553405702114105224609375"><ele>1721.199951171875</ele><time>2026-05-09T11:03:02.000Z</time></trkpt>
      <trkpt lat="49.24635236151516437530517578125" lon="19.932389371097087860107421875"><ele>1720</ele><time>2026-05-09T11:05:27.000Z</time></trkpt>
      <trkpt lat="49.24647674895823001861572265625" lon="19.93263789452612400054931640625"><ele>1714</ele><time>2026-05-09T11:06:22.000Z</time></trkpt>
      <trkpt lat="49.24652335233986377716064453125" lon="19.932754822075366973876953125"><ele>1709</ele><time>2026-05-09T11:06:46.000Z</time></trkpt>
      <trkpt lat="49.24659778364002704620361328125" lon="19.93295825086534023284912109375"><ele>1703.199951171875</ele><time>2026-05-09T11:07:19.000Z</time></trkpt>
      <trkpt lat="49.24661840312182903289794921875" lon="19.9330634437501430511474609375"><ele>1696.5999755859375</ele><time>2026-05-09T11:07:59.000Z</time></trkpt>
      <trkpt lat="49.24668311141431331634521484375" lon="19.93321775458753108978271484375"><ele>1690.4000244140625</ele><time>2026-05-09T11:08:38.000Z</time></trkpt>
      <trkpt lat="49.24681990407407283782958984375" lon="19.93352352641522884368896484375"><ele>1681</ele><time>2026-05-09T11:09:38.000Z</time></trkpt>
      <trkpt lat="49.2468372546136379241943359375" lon="19.9336089380085468292236328125"><ele>1677.5999755859375</ele><time>2026-05-09T11:09:57.000Z</time></trkpt>
      <trkpt lat="49.24686566926538944244384765625" lon="19.93387590162456035614013671875"><ele>1672.4000244140625</ele><time>2026-05-09T11:10:33.000Z</time></trkpt>
      <trkpt lat="49.2468506656587123870849609375" lon="19.9339425377547740936279296875"><ele>1668.4000244140625</ele><time>2026-05-09T11:11:10.000Z</time></trkpt>
      <trkpt lat="49.246816970407962799072265625" lon="19.9341567791998386383056640625"><ele>1659.199951171875</ele><time>2026-05-09T11:12:15.000Z</time></trkpt>
      <trkpt lat="49.246819317340850830078125" lon="19.934471435844898223876953125"><ele>1652.800048828125</ele><time>2026-05-09T11:12:53.000Z</time></trkpt>
      <trkpt lat="49.2466696165502071380615234375" lon="19.934415780007839202880859375"><ele>1646.800048828125</ele><time>2026-05-09T11:13:28.000Z</time></trkpt>
      <trkpt lat="49.24646350555121898651123046875" lon="19.9343270994722843170166015625"><ele>1640</ele><time>2026-05-09T11:14:07.000Z</time></trkpt>
      <trkpt lat="49.24633040092885494232177734375" lon="19.934224002063274383544921875"><ele>1634.5999755859375</ele><time>2026-05-09T11:14:49.000Z</time></trkpt>
      <trkpt lat="49.24605899490416049957275390625" lon="19.934111349284648895263671875"><ele>1629.4000244140625</ele><time>2026-05-09T11:15:45.000Z</time></trkpt>
      <trkpt lat="49.2459382116794586181640625" lon="19.934184439480304718017578125"><ele>1621.800048828125</ele><time>2026-05-09T11:16:45.000Z</time></trkpt>
      <trkpt lat="49.245721288025379180908203125" lon="19.93451711721718311309814453125"><ele>1613</ele><time>2026-05-09T11:17:39.000Z</time></trkpt>
      <trkpt lat="49.24568398855626583099365234375" lon="19.93454930372536182403564453125"><ele>1611</ele><time>2026-05-09T11:19:27.000Z</time></trkpt>
      <trkpt lat="49.2456614412367343902587890625" lon="19.934795983135700225830078125"><ele>1600.800048828125</ele><time>2026-05-09T11:20:26.000Z</time></trkpt>
      <trkpt lat="49.24572505988180637359619140625" lon="19.9348729290068149566650390625"><ele>1595.199951171875</ele><time>2026-05-09T11:22:11.000Z</time></trkpt>
      <trkpt lat="49.2458616010844707489013671875" lon="19.93517057038843631744384765625"><ele>1586.4000244140625</ele><time>2026-05-09T11:23:24.000Z</time></trkpt>
      <trkpt lat="49.24588968046009540557861328125" lon="19.93548288010060787200927734375"><ele>1580</ele><time>2026-05-09T11:24:21.000Z</time></trkpt>
      <trkpt lat="49.24589571543037891387939453125" lon="19.9357530288398265838623046875"><ele>1574.5999755859375</ele><time>2026-05-09T11:25:06.000Z</time></trkpt>
      <trkpt lat="49.24585782922804355621337890625" lon="19.93589602410793304443359375"><ele>1568.800048828125</ele><time>2026-05-09T11:25:37.000Z</time></trkpt>
      <trkpt lat="49.24584307707846164703369140625" lon="19.93607799522578716278076171875"><ele>1562.4000244140625</ele><time>2026-05-09T11:26:12.000Z</time></trkpt>
      <trkpt lat="49.24583561718463897705078125" lon="19.9362271092832088470458984375"><ele>1557.199951171875</ele><time>2026-05-09T11:26:44.000Z</time></trkpt>
      <trkpt lat="49.2458662949502468109130859375" lon="19.93645518086850643157958984375"><ele>1548.4000244140625</ele><time>2026-05-09T11:27:42.000Z</time></trkpt>
      <trkpt lat="49.24581508152186870574951171875" lon="19.93687109090387821197509765625"><ele>1537.5999755859375</ele><time>2026-05-09T11:28:48.000Z</time></trkpt>
      <trkpt lat="49.245793707668781280517578125" lon="19.93733494542539119720458984375"><ele>1526.4000244140625</ele><time>2026-05-09T11:29:51.000Z</time></trkpt>
      <trkpt lat="49.24573176540434360504150390625" lon="19.93786132894456386566162109375"><ele>1517.5999755859375</ele><time>2026-05-09T11:30:49.000Z</time></trkpt>
      <trkpt lat="49.2456946335732936859130859375" lon="19.93821345269680023193359375"><ele>1511.199951171875</ele><time>2026-05-09T11:31:32.000Z</time></trkpt>
      <trkpt lat="49.245689772069454193115234375" lon="19.9384999461472034454345703125"><ele>1505.5999755859375</ele><time>2026-05-09T11:32:03.000Z</time></trkpt>
      <trkpt lat="49.24567870795726776123046875" lon="19.93877378292381763458251953125"><ele>1500.4000244140625</ele><time>2026-05-09T11:32:32.000Z</time></trkpt>
      <trkpt lat="49.2457318492233753204345703125" lon="19.9391047842800617218017578125"><ele>1497</ele><time>2026-05-09T11:33:01.000Z</time></trkpt>
      <trkpt lat="49.24574350006878376007080078125" lon="19.93976318277418613433837890625"><ele>1495.199951171875</ele><time>2026-05-09T11:33:45.000Z</time></trkpt>
      <trkpt lat="49.2458753474056720733642578125" lon="19.9402351677417755126953125"><ele>1493.5999755859375</ele><time>2026-05-09T11:34:16.000Z</time></trkpt>
      <trkpt lat="49.24600199796259403228759765625" lon="19.9406339786946773529052734375"><ele>1488.4000244140625</ele><time>2026-05-09T11:34:57.000Z</time></trkpt>
      <trkpt lat="49.246104843914508819580078125" lon="19.94097889401018619537353515625"><ele>1481.5999755859375</ele><time>2026-05-09T11:35:36.000Z</time></trkpt>
      <trkpt lat="49.2463162355124950408935546875" lon="19.94135054759681224822998046875"><ele>1475.199951171875</ele><time>2026-05-09T11:36:21.000Z</time></trkpt>
      <trkpt lat="49.24634791910648345947265625" lon="19.9417045153677463531494140625"><ele>1470.800048828125</ele><time>2026-05-09T11:36:57.000Z</time></trkpt>
      <trkpt lat="49.24630491994321346282958984375" lon="19.94220114313066005706787109375"><ele>1464.5999755859375</ele><time>2026-05-09T11:37:42.000Z</time></trkpt>
      <trkpt lat="49.246403239667415618896484375" lon="19.94266147725284099578857421875"><ele>1459.4000244140625</ele><time>2026-05-09T11:38:19.000Z</time></trkpt>
      <trkpt lat="49.246650673449039459228515625" lon="19.9430005252361297607421875"><ele>1456</ele><time>2026-05-09T11:39:04.000Z</time></trkpt>
      <trkpt lat="49.2467919923365116119384765625" lon="19.94311778806149959564208984375"><ele>1452.5999755859375</ele><time>2026-05-09T11:39:32.000Z</time></trkpt>
      <trkpt lat="49.2468717880547046661376953125" lon="19.943338818848133087158203125"><ele>1446.800048828125</ele><time>2026-05-09T11:40:11.000Z</time></trkpt>
      <trkpt lat="49.2468932457268238067626953125" lon="19.9436471052467823028564453125"><ele>1440.5999755859375</ele><time>2026-05-09T11:40:52.000Z</time></trkpt>
      <trkpt lat="49.24684706144034862518310546875" lon="19.94385254569351673126220703125"><ele>1434.800048828125</ele><time>2026-05-09T11:41:27.000Z</time></trkpt>
      <trkpt lat="49.24691897816956043243408203125" lon="19.94407366029918193817138671875"><ele>1429.5999755859375</ele><time>2026-05-09T11:42:08.000Z</time></trkpt>
      <trkpt lat="49.2468536831438541412353515625" lon="19.94444196112453937530517578125"><ele>1423.800048828125</ele><time>2026-05-09T11:43:01.000Z</time></trkpt>
      <trkpt lat="49.24690925516188144683837890625" lon="19.9447841942310333251953125"><ele>1417.800048828125</ele><time>2026-05-09T11:43:42.000Z</time></trkpt>
      <trkpt lat="49.24695284105837345123291015625" lon="19.94505518116056919097900390625"><ele>1412.4000244140625</ele><time>2026-05-09T11:44:24.000Z</time></trkpt>
      <trkpt lat="49.24696155823767185211181640625" lon="19.94535089470446109771728515625"><ele>1407</ele><time>2026-05-09T11:44:56.000Z</time></trkpt>
      <trkpt lat="49.24708259291946887969970703125" lon="19.945750124752521514892578125"><ele>1404.5999755859375</ele><time>2026-05-09T11:45:30.000Z</time></trkpt>
      <trkpt lat="49.24717328511178493499755859375" lon="19.94603904895484447479248046875"><ele>1401.5999755859375</ele><time>2026-05-09T11:45:57.000Z</time></trkpt>
      <trkpt lat="49.24740948714315891265869140625" lon="19.94673156179487705230712890625"><ele>1395.800048828125</ele><time>2026-05-09T11:46:53.000Z</time></trkpt>
      <trkpt lat="49.2475819028913974761962890625" lon="19.9469406902790069580078125"><ele>1392.4000244140625</ele><time>2026-05-09T11:47:19.000Z</time></trkpt>
      <trkpt lat="49.2477331124246120452880859375" lon="19.94714629836380481719970703125"><ele>1389.4000244140625</ele><time>2026-05-09T11:47:44.000Z</time></trkpt>
      <trkpt lat="49.2478786222636699676513671875" lon="19.94746573269367218017578125"><ele>1385.800048828125</ele><time>2026-05-09T11:48:22.000Z</time></trkpt>
      <trkpt lat="49.24802555702626705169677734375" lon="19.9477944709360599517822265625"><ele>1383.800048828125</ele><time>2026-05-09T11:48:54.000Z</time></trkpt>
      <trkpt lat="49.24819101579487323760986328125" lon="19.94827651418745517730712890625"><ele>1379.199951171875</ele><time>2026-05-09T11:49:39.000Z</time></trkpt>
      <trkpt lat="49.24839084036648273468017578125" lon="19.9485662765800952911376953125"><ele>1374.199951171875</ele><time>2026-05-09T11:50:14.000Z</time></trkpt>
      <trkpt lat="49.24861715175211429595947265625" lon="19.9488450586795806884765625"><ele>1371.4000244140625</ele><time>2026-05-09T11:50:44.000Z</time></trkpt>
      <trkpt lat="49.24876593053340911865234375" lon="19.949189722537994384765625"><ele>1368.5999755859375</ele><time>2026-05-09T11:51:17.000Z</time></trkpt>
      <trkpt lat="49.248933233320713043212890625" lon="19.949718452990055084228515625"><ele>1367.4000244140625</ele><time>2026-05-09T11:51:59.000Z</time></trkpt>
      <trkpt lat="49.24919097684323787689208984375" lon="19.950303174555301666259765625"><ele>1365</ele><time>2026-05-09T11:52:35.000Z</time></trkpt>
      <trkpt lat="49.24926708452403545379638671875" lon="19.95056234300136566162109375"><ele>1361.800048828125</ele><time>2026-05-09T11:53:05.000Z</time></trkpt>
      <trkpt lat="49.24944209866225719451904296875" lon="19.9509269557893276214599609375"><ele>1359.800048828125</ele><time>2026-05-09T11:53:35.000Z</time></trkpt>
      <trkpt lat="49.249438159167766571044921875" lon="19.95132702402770519256591796875"><ele>1354</ele><time>2026-05-09T11:54:14.000Z</time></trkpt>
      <trkpt lat="49.249578304588794708251953125" lon="19.95154143311083316802978515625"><ele>1347.800048828125</ele><time>2026-05-09T11:54:55.000Z</time></trkpt>
      <trkpt lat="49.2497645504772663116455078125" lon="19.95177193544805049896240234375"><ele>1342.4000244140625</ele><time>2026-05-09T11:55:36.000Z</time></trkpt>
      <trkpt lat="49.2498979903757572174072265625" lon="19.95217594318091869354248046875"><ele>1333.5999755859375</ele><time>2026-05-09T12:21:33.000Z</time></trkpt>
      <trkpt lat="49.25009094178676605224609375" lon="19.95240393094718456268310546875"><ele>1331.5999755859375</ele><time>2026-05-09T12:22:22.000Z</time></trkpt>
      <trkpt lat="49.2501115612685680389404296875" lon="19.95291304774582386016845703125"><ele>1327.199951171875</ele><time>2026-05-09T12:23:04.000Z</time></trkpt>
      <trkpt lat="49.25025983713567256927490234375" lon="19.95336265303194522857666015625"><ele>1321.5999755859375</ele><time>2026-05-09T12:23:42.000Z</time></trkpt>
      <trkpt lat="49.25031364895403385162353515625" lon="19.95392717421054840087890625"><ele>1315.199951171875</ele><time>2026-05-09T12:24:20.000Z</time></trkpt>
      <trkpt lat="49.2503616772592067718505859375" lon="19.95423554442822933197021484375"><ele>1310.5999755859375</ele><time>2026-05-09T12:24:47.000Z</time></trkpt>
      <trkpt lat="49.25053275190293788909912109375" lon="19.9548290669918060302734375"><ele>1305.800048828125</ele><time>2026-05-09T12:25:29.000Z</time></trkpt>
      <trkpt lat="49.25077934749424457550048828125" lon="19.955503642559051513671875"><ele>1302.199951171875</ele><time>2026-05-09T12:26:15.000Z</time></trkpt>
      <trkpt lat="49.2509437166154384613037109375" lon="19.95603145100176334381103515625"><ele>1299.199951171875</ele><time>2026-05-09T12:26:52.000Z</time></trkpt>
      <trkpt lat="49.25106852315366268157958984375" lon="19.95644400827586650848388671875"><ele>1297.199951171875</ele><time>2026-05-09T12:27:22.000Z</time></trkpt>
      <trkpt lat="49.251043461263179779052734375" lon="19.956904761493206024169921875"><ele>1296</ele><time>2026-05-09T12:27:59.000Z</time></trkpt>
      <trkpt lat="49.25099216401576995849609375" lon="19.95754807256162166595458984375"><ele>1293.800048828125</ele><time>2026-05-09T12:28:51.000Z</time></trkpt>
      <trkpt lat="49.251094758510589599609375" lon="19.95813799090683460235595703125"><ele>1291.5999755859375</ele><time>2026-05-09T12:29:29.000Z</time></trkpt>
      <trkpt lat="49.2512236721813678741455078125" lon="19.95875908993184566497802734375"><ele>1289.5999755859375</ele><time>2026-05-09T12:30:09.000Z</time></trkpt>
      <trkpt lat="49.25133992917835712432861328125" lon="19.95913828723132610321044921875"><ele>1287.199951171875</ele><time>2026-05-09T12:30:35.000Z</time></trkpt>
      <trkpt lat="49.25136038102209568023681640625" lon="19.959242977201938629150390625"><ele>1287.5999755859375</ele><time>2026-05-09T12:31:21.000Z</time></trkpt>
      <trkpt lat="49.25162424333393573760986328125" lon="19.9599804170429706573486328125"><ele>1285.199951171875</ele><time>2026-05-09T12:32:08.000Z</time></trkpt>
      <trkpt lat="49.2517114989459514617919921875" lon="19.96067435480654239654541015625"><ele>1283.5999755859375</ele><time>2026-05-09T12:32:52.000Z</time></trkpt>
      <trkpt lat="49.25185575149953365325927734375" lon="19.961235858500003814697265625"><ele>1280.4000244140625</ele><time>2026-05-09T12:33:36.000Z</time></trkpt>
      <trkpt lat="49.25183395855128765106201171875" lon="19.96162913739681243896484375"><ele>1276.5999755859375</ele><time>2026-05-09T12:34:07.000Z</time></trkpt>
      <trkpt lat="49.2518861778080463409423828125" lon="19.96216063387691974639892578125"><ele>1272.4000244140625</ele><time>2026-05-09T12:34:56.000Z</time></trkpt>
      <trkpt lat="49.252009727060794830322265625" lon="19.9623875319957733154296875"><ele>1268.4000244140625</ele><time>2026-05-09T12:35:34.000Z</time></trkpt>
      <trkpt lat="49.2520739324390888214111328125" lon="19.96257302351295948028564453125"><ele>1261.5999755859375</ele><time>2026-05-09T12:36:39.000Z</time></trkpt>
      <trkpt lat="49.2520621977746486663818359375" lon="19.96308901347219944000244140625"><ele>1257.5999755859375</ele><time>2026-05-09T12:37:18.000Z</time></trkpt>
      <trkpt lat="49.252133779227733612060546875" lon="19.96339394710958003997802734375"><ele>1252.5999755859375</ele><time>2026-05-09T12:37:52.000Z</time></trkpt>
      <trkpt lat="49.2521926201879978179931640625" lon="19.96355437673628330230712890625"><ele>1248</ele><time>2026-05-09T12:38:33.000Z</time></trkpt>
      <trkpt lat="49.2522387206554412841796875" lon="19.96379770338535308837890625"><ele>1245.5999755859375</ele><time>2026-05-09T12:39:18.000Z</time></trkpt>
      <trkpt lat="49.25218029879033565521240234375" lon="19.9638035707175731658935546875"><ele>1245.199951171875</ele><time>2026-05-09T12:40:11.000Z</time></trkpt>
      <trkpt lat="49.25236151553690433502197265625" lon="19.96437362395226955413818359375"><ele>1242</ele><time>2026-05-09T12:41:13.000Z</time></trkpt>
      <trkpt lat="49.25238163210451602935791015625" lon="19.96469565667212009429931640625"><ele>1239</ele><time>2026-05-09T12:42:13.000Z</time></trkpt>
      <trkpt lat="49.2525905929505825042724609375" lon="19.9650129117071628570556640625"><ele>1236.199951171875</ele><time>2026-05-09T12:42:42.000Z</time></trkpt>
      <trkpt lat="49.25289946608245372772216796875" lon="19.96544323861598968505859375"><ele>1234.5999755859375</ele><time>2026-05-09T12:43:25.000Z</time></trkpt>
      <trkpt lat="49.2532561160624027252197265625" lon="19.9658306501805782318115234375"><ele>1235.4000244140625</ele><time>2026-05-09T12:44:10.000Z</time></trkpt>
      <trkpt lat="49.25344965420663356781005859375" lon="19.96605955995619297027587890625"><ele>1236.199951171875</ele><time>2026-05-09T12:44:44.000Z</time></trkpt>
      <trkpt lat="49.2537600360810756683349609375" lon="19.9663102626800537109375"><ele>1231</ele><time>2026-05-09T12:45:26.000Z</time></trkpt>
      <trkpt lat="49.25405113957822322845458984375" lon="19.96655794791877269744873046875"><ele>1225.5999755859375</ele><time>2026-05-09T12:46:06.000Z</time></trkpt>
      <trkpt lat="49.25431550480425357818603515625" lon="19.96676028706133365631103515625"><ele>1221.199951171875</ele><time>2026-05-09T12:46:38.000Z</time></trkpt>
      <trkpt lat="49.2548003979027271270751953125" lon="19.96687092818319797515869140625"><ele>1218</ele><time>2026-05-09T12:47:31.000Z</time></trkpt>
      <trkpt lat="49.255262911319732666015625" lon="19.9672783724963665008544921875"><ele>1216.800048828125</ele><time>2026-05-09T12:48:12.000Z</time></trkpt>
      <trkpt lat="49.2553849518299102783203125" lon="19.96760132722556591033935546875"><ele>1212.5999755859375</ele><time>2026-05-09T12:48:44.000Z</time></trkpt>
      <trkpt lat="49.255648143589496612548828125" lon="19.96798739768564701080322265625"><ele>1207</ele><time>2026-05-09T12:49:23.000Z</time></trkpt>
      <trkpt lat="49.2558489739894866943359375" lon="19.96824053116142749786376953125"><ele>1204.199951171875</ele><time>2026-05-09T12:49:59.000Z</time></trkpt>
      <trkpt lat="49.25607838667929172515869140625" lon="19.9684561975300312042236328125"><ele>1200.4000244140625</ele><time>2026-05-09T12:50:29.000Z</time></trkpt>
      <trkpt lat="49.25629355013370513916015625" lon="19.9686097539961338043212890625"><ele>1197</ele><time>2026-05-09T12:51:15.000Z</time></trkpt>
      <trkpt lat="49.25658867694437503814697265625" lon="19.9689560942351818084716796875"><ele>1194.4000244140625</ele><time>2026-05-09T12:51:52.000Z</time></trkpt>
      <trkpt lat="49.256800152361392974853515625" lon="19.96936756186187267303466796875"><ele>1190.4000244140625</ele><time>2026-05-09T12:52:25.000Z</time></trkpt>
      <trkpt lat="49.2569159902632236480712890625" lon="19.96962907724082469940185546875"><ele>1186</ele><time>2026-05-09T12:52:46.000Z</time></trkpt>
      <trkpt lat="49.2571345902979373931884765625" lon="19.96982806362211704254150390625"><ele>1180.5999755859375</ele><time>2026-05-09T12:53:18.000Z</time></trkpt>
      <trkpt lat="49.25734288059175014495849609375" lon="19.97001774609088897705078125"><ele>1176.5999755859375</ele><time>2026-05-09T12:53:44.000Z</time></trkpt>
      <trkpt lat="49.25765217281877994537353515625" lon="19.97013987042009830474853515625"><ele>1171.5999755859375</ele><time>2026-05-09T12:54:16.000Z</time></trkpt>
      <trkpt lat="49.2579499818384647369384765625" lon="19.9701889045536518096923828125"><ele>1167.199951171875</ele><time>2026-05-09T12:54:47.000Z</time></trkpt>
      <trkpt lat="49.2581672407686710357666015625" lon="19.97029007412493228912353515625"><ele>1164.199951171875</ele><time>2026-05-09T12:55:10.000Z</time></trkpt>
      <trkpt lat="49.25856135785579681396484375" lon="19.97017490677535533905029296875"><ele>1160.5999755859375</ele><time>2026-05-09T12:55:50.000Z</time></trkpt>
      <trkpt lat="49.25881541334092617034912109375" lon="19.97002956457436084747314453125"><ele>1158.4000244140625</ele><time>2026-05-09T12:56:16.000Z</time></trkpt>
      <trkpt lat="49.259161837399005889892578125" lon="19.970016069710254669189453125"><ele>1158.800048828125</ele><time>2026-05-09T12:56:51.000Z</time></trkpt>
      <trkpt lat="49.259723089635372161865234375" lon="19.9698843061923980712890625"><ele>1158.5999755859375</ele><time>2026-05-09T12:57:43.000Z</time></trkpt>
      <trkpt lat="49.26006783731281757354736328125" lon="19.9699763394892215728759765625"><ele>1158</ele><time>2026-05-09T12:58:14.000Z</time></trkpt>
      <trkpt lat="49.26045474596321582794189453125" lon="19.97025989927351474761962890625"><ele>1158.199951171875</ele><time>2026-05-09T12:58:48.000Z</time></trkpt>
      <trkpt lat="49.26064250059425830841064453125" lon="19.97059718705713748931884765625"><ele>1159.199951171875</ele><time>2026-05-09T12:59:12.000Z</time></trkpt>
      <trkpt lat="49.26090636290609836578369140625" lon="19.97090446762740612030029296875"><ele>1160.199951171875</ele><time>2026-05-09T12:59:39.000Z</time></trkpt>
      <trkpt lat="49.261287488043308258056640625" lon="19.971296824514865875244140625"><ele>1158.4000244140625</ele><time>2026-05-09T13:00:18.000Z</time></trkpt>
      <trkpt lat="49.26147281192243099212646484375" lon="19.97161441482603549957275390625"><ele>1154.4000244140625</ele><time>2026-05-09T13:00:44.000Z</time></trkpt>
      <trkpt lat="49.26167800091207027435302734375" lon="19.97181977145373821258544921875"><ele>1149.5999755859375</ele><time>2026-05-09T13:01:13.000Z</time></trkpt>
      <trkpt lat="49.2619535140693187713623046875" lon="19.9720154888927936553955078125"><ele>1144.5999755859375</ele><time>2026-05-09T13:01:42.000Z</time></trkpt>
      <trkpt lat="49.26218929700553417205810546875" lon="19.97226820327341556549072265625"><ele>1140</ele><time>2026-05-09T13:02:10.000Z</time></trkpt>
      <trkpt lat="49.26242164336144924163818359375" lon="19.97254497371613979339599609375"><ele>1135.800048828125</ele><time>2026-05-09T13:02:39.000Z</time></trkpt>
      <trkpt lat="49.26269891671836376190185546875" lon="19.9729636497795581817626953125"><ele>1132.5999755859375</ele><time>2026-05-09T13:03:06.000Z</time></trkpt>
      <trkpt lat="49.2628674767911434173583984375" lon="19.97326414100825786590576171875"><ele>1128.4000244140625</ele><time>2026-05-09T13:03:36.000Z</time></trkpt>
      <trkpt lat="49.2631467618048191070556640625" lon="19.9734565056860446929931640625"><ele>1123.199951171875</ele><time>2026-05-09T13:04:08.000Z</time></trkpt>
      <trkpt lat="49.263588823378086090087890625" lon="19.97360654175281524658203125"><ele>1118.5999755859375</ele><time>2026-05-09T13:04:49.000Z</time></trkpt>
      <trkpt lat="49.2639266140758991241455078125" lon="19.97379689477384090423583984375"><ele>1116.199951171875</ele><time>2026-05-09T13:05:26.000Z</time></trkpt>
      <trkpt lat="49.26419005729258060455322265625" lon="19.97402287088334560394287109375"><ele>1112.4000244140625</ele><time>2026-05-09T13:05:59.000Z</time></trkpt>
      <trkpt lat="49.2643668316304683685302734375" lon="19.9743386171758174896240234375"><ele>1108.800048828125</ele><time>2026-05-09T13:06:27.000Z</time></trkpt>
      <trkpt lat="49.26454544998705387115478515625" lon="19.97472410090267658233642578125"><ele>1104.800048828125</ele><time>2026-05-09T13:07:04.000Z</time></trkpt>
      <trkpt lat="49.26473756320774555206298828125" lon="19.9748737178742885589599609375"><ele>1102.800048828125</ele><time>2026-05-09T13:07:25.000Z</time></trkpt>
      <trkpt lat="49.26489983685314655303955078125" lon="19.9751989357173442840576171875"><ele>1099.4000244140625</ele><time>2026-05-09T13:07:49.000Z</time></trkpt>
      <trkpt lat="49.265197813510894775390625" lon="19.97550152242183685302734375"><ele>1095.5999755859375</ele><time>2026-05-09T13:08:26.000Z</time></trkpt>
      <trkpt lat="49.26538799889385700225830078125" lon="19.975741915404796600341796875"><ele>1093.4000244140625</ele><time>2026-05-09T13:08:45.000Z</time></trkpt>
      <trkpt lat="49.2655885778367519378662109375" lon="19.97604592703282833099365234375"><ele>1090.4000244140625</ele><time>2026-05-09T13:09:16.000Z</time></trkpt>
      <trkpt lat="49.26575076766312122344970703125" lon="19.97642110101878643035888671875"><ele>1087.4000244140625</ele><time>2026-05-09T13:09:44.000Z</time></trkpt>
      <trkpt lat="49.2659577168524265289306640625" lon="19.976678006350994110107421875"><ele>1084.199951171875</ele><time>2026-05-09T13:10:11.000Z</time></trkpt>
      <trkpt lat="49.266130216419696807861328125" lon="19.976971037685871124267578125"><ele>1081.4000244140625</ele><time>2026-05-09T13:10:34.000Z</time></trkpt>
      <trkpt lat="49.26627748645842075347900390625" lon="19.977103807032108306884765625"><ele>1078.800048828125</ele><time>2026-05-09T13:10:55.000Z</time></trkpt>
      <trkpt lat="49.26645820029079914093017578125" lon="19.9773839302361011505126953125"><ele>1074.5999755859375</ele><time>2026-05-09T13:11:22.000Z</time></trkpt>
      <trkpt lat="49.266663976013660430908203125" lon="19.97757646255195140838623046875"><ele>1069.800048828125</ele><time>2026-05-09T13:11:49.000Z</time></trkpt>
      <trkpt lat="49.2668783850967884063720703125" lon="19.977808892726898193359375"><ele>1064.199951171875</ele><time>2026-05-09T13:12:23.000Z</time></trkpt>
      <trkpt lat="49.26709371618926525115966796875" lon="19.9780715815722942352294921875"><ele>1058</ele><time>2026-05-09T13:12:58.000Z</time></trkpt>
      <trkpt lat="49.26733980886638164520263671875" lon="19.97821046970784664154052734375"><ele>1054.199951171875</ele><time>2026-05-09T13:13:28.000Z</time></trkpt>
      <trkpt lat="49.267518930137157440185546875" lon="19.9782915227115154266357421875"><ele>1050.4000244140625</ele><time>2026-05-09T13:13:56.000Z</time></trkpt>
      <trkpt lat="49.267727471888065338134765625" lon="19.97845052741467952728271484375"><ele>1046.4000244140625</ele><time>2026-05-09T13:14:24.000Z</time></trkpt>
      <trkpt lat="49.2679187469184398651123046875" lon="19.97854859568178653717041015625"><ele>1043.199951171875</ele><time>2026-05-09T13:14:49.000Z</time></trkpt>
      <trkpt lat="49.26803684793412685394287109375" lon="19.9788896553218364715576171875"><ele>1039.5999755859375</ele><time>2026-05-09T13:15:20.000Z</time></trkpt>
      <trkpt lat="49.268105663359165191650390625" lon="19.97923247516155242919921875"><ele>1034.5999755859375</ele><time>2026-05-09T13:15:56.000Z</time></trkpt>
      <trkpt lat="49.2682032287120819091796875" lon="19.97958258725702762603759765625"><ele>1031.4000244140625</ele><time>2026-05-09T13:16:23.000Z</time></trkpt>
      <trkpt lat="49.26840732805430889129638671875" lon="19.9798871017992496490478515625"><ele>1027.4000244140625</ele><time>2026-05-09T13:16:59.000Z</time></trkpt>
      <trkpt lat="49.26867890171706676483154296875" lon="19.98002448119223117828369140625"><ele>1023.5999755859375</ele><time>2026-05-09T13:17:28.000Z</time></trkpt>
      <trkpt lat="49.26901526749134063720703125" lon="19.9801707454025745391845703125"><ele>1021.5999755859375</ele><time>2026-05-09T13:18:18.000Z</time></trkpt>
      <trkpt lat="49.26928323693573474884033203125" lon="19.9804114736616611480712890625"><ele>1018.5999755859375</ele><time>2026-05-09T13:18:57.000Z</time></trkpt>
      <trkpt lat="49.26959135569632053375244140625" lon="19.98020066879689693450927734375"><ele>1016</ele><time>2026-05-09T13:19:35.000Z</time></trkpt>
      <trkpt lat="49.26970484666526317596435546875" lon="19.97985751368105411529541015625"><ele>1014.4000244140625</ele><time>2026-05-09T13:20:06.000Z</time></trkpt>
      <trkpt lat="49.26976821385324001312255859375" lon="19.9797680787742137908935546875"><ele>1009.5999755859375</ele><time>2026-05-09T13:20:28.000Z</time></trkpt>
      <trkpt lat="49.2708094976842403411865234375" lon="19.980342574417591094970703125"><ele>1008.20001220703125</ele><time>2026-05-09T13:20:52.000Z</time></trkpt>
    </trkseg>
  </trk>
</gpx>
