<?xml version="1.0" encoding="UTF-8"?>
<gpx version="1.1" creator="W Dobrym Kierunku" xmlns="http://www.topografix.com/GPX/1/1">
  <metadata>
    <name>Rysy od strony słowackiej — ślad GPS autora, 09.08.2026</name>
    <time>2026-08-09T03:24:29.000Z</time>
  </metadata>
  <trk>
    <name>Rysy od strony słowackiej — ślad GPS autora, 09.08.2026</name>
    <trkseg>
      <trkpt lat="49.15888435207307338714599609375" lon="20.07383801043033599853515625"><ele>1558.800048828125</ele><time>2026-08-09T03:24:29.000Z</time></trkpt>
      <trkpt lat="49.1590991802513599395751953125" lon="20.07370046339929103851318359375"><ele>1556</ele><time>2026-08-09T03:25:06.000Z</time></trkpt>
      <trkpt lat="49.15922482497990131378173828125" lon="20.07366592995822429656982421875"><ele>1554.5999755859375</ele><time>2026-08-09T03:25:26.000Z</time></trkpt>
      <trkpt lat="49.15955876000225543975830078125" lon="20.07344196550548076629638671875"><ele>1555.5999755859375</ele><time>2026-08-09T03:26:10.000Z</time></trkpt>
      <trkpt lat="49.1597449220716953277587890625" lon="20.07328639738261699676513671875"><ele>1558.800048828125</ele><time>2026-08-09T03:26:35.000Z</time></trkpt>
      <trkpt lat="49.1599688865244388580322265625" lon="20.07325974293053150177001953125"><ele>1564.4000244140625</ele><time>2026-08-09T03:27:06.000Z</time></trkpt>
      <trkpt lat="49.16017767973244190216064453125" lon="20.07328103296458721160888671875"><ele>1567.4000244140625</ele><time>2026-08-09T03:27:30.000Z</time></trkpt>
      <trkpt lat="49.1603671945631504058837890625" lon="20.07309864275157451629638671875"><ele>1570.800048828125</ele><time>2026-08-09T03:28:00.000Z</time></trkpt>
      <trkpt lat="49.1605244390666484832763671875" lon="20.07293435744941234588623046875"><ele>1574.199951171875</ele><time>2026-08-09T03:28:29.000Z</time></trkpt>
      <trkpt lat="49.160774387419223785400390625" lon="20.07269111461937427520751953125"><ele>1576</ele><time>2026-08-09T03:29:04.000Z</time></trkpt>
      <trkpt lat="49.16098921559751033782958984375" lon="20.07259304635226726531982421875"><ele>1577.5999755859375</ele><time>2026-08-09T03:29:26.000Z</time></trkpt>
      <trkpt lat="49.16125056333839893341064453125" lon="20.07236053235828876495361328125"><ele>1581.199951171875</ele><time>2026-08-09T03:30:03.000Z</time></trkpt>
      <trkpt lat="49.16137059219181537628173828125" lon="20.0723071396350860595703125"><ele>1585.199951171875</ele><time>2026-08-09T03:30:27.000Z</time></trkpt>
      <trkpt lat="49.16171617805957794189453125" lon="20.07208107970654964447021484375"><ele>1589.4000244140625</ele><time>2026-08-09T03:31:09.000Z</time></trkpt>
      <trkpt lat="49.16191424243152141571044921875" lon="20.07199793122708797454833984375"><ele>1594.4000244140625</ele><time>2026-08-09T03:31:39.000Z</time></trkpt>
      <trkpt lat="49.1621327586472034454345703125" lon="20.07188242860138416290283203125"><ele>1599.5999755859375</ele><time>2026-08-09T03:32:11.000Z</time></trkpt>
      <trkpt lat="49.162330068647861480712890625" lon="20.07184512913227081298828125"><ele>1604.199951171875</ele><time>2026-08-09T03:32:45.000Z</time></trkpt>
      <trkpt lat="49.162487648427486419677734375" lon="20.07178821600973606109619140625"><ele>1608.199951171875</ele><time>2026-08-09T03:33:11.000Z</time></trkpt>
      <trkpt lat="49.1624646820127964019775390625" lon="20.07159325294196605682373046875"><ele>1610.5999755859375</ele><time>2026-08-09T03:33:42.000Z</time></trkpt>
      <trkpt lat="49.1624878160655498504638671875" lon="20.07159409113228321075439453125"><ele>1607.800048828125</ele><time>2026-08-09T03:34:30.000Z</time></trkpt>
      <trkpt lat="49.1627201624214649200439453125" lon="20.07138823159039020538330078125"><ele>1611.199951171875</ele><time>2026-08-09T03:34:57.000Z</time></trkpt>
      <trkpt lat="49.1630423627793788909912109375" lon="20.071231909096240997314453125"><ele>1617.4000244140625</ele><time>2026-08-09T03:35:49.000Z</time></trkpt>
      <trkpt lat="49.1632022894918918609619140625" lon="20.07096410728991031646728515625"><ele>1621.199951171875</ele><time>2026-08-09T03:36:21.000Z</time></trkpt>
      <trkpt lat="49.16343656368553638458251953125" lon="20.07111020386219024658203125"><ele>1626.800048828125</ele><time>2026-08-09T03:37:05.000Z</time></trkpt>
      <trkpt lat="49.1636534035205841064453125" lon="20.0712022371590137481689453125"><ele>1633.199951171875</ele><time>2026-08-09T03:37:46.000Z</time></trkpt>
      <trkpt lat="49.16390486061573028564453125" lon="20.0714032351970672607421875"><ele>1639.5999755859375</ele><time>2026-08-09T03:38:31.000Z</time></trkpt>
      <trkpt lat="49.16418473236262798309326171875" lon="20.07125093601644039154052734375"><ele>1643</ele><time>2026-08-09T03:39:08.000Z</time></trkpt>
      <trkpt lat="49.16442730464041233062744140625" lon="20.0708471797406673431396484375"><ele>1644.800048828125</ele><time>2026-08-09T03:39:50.000Z</time></trkpt>
      <trkpt lat="49.164891578257083892822265625" lon="20.07095321081578731536865234375"><ele>1646</ele><time>2026-08-09T03:40:43.000Z</time></trkpt>
      <trkpt lat="49.16511529125273227691650390625" lon="20.07142393849790096282958984375"><ele>1649.800048828125</ele><time>2026-08-09T03:41:35.000Z</time></trkpt>
      <trkpt lat="49.16529692709445953369140625" lon="20.07170137949287891387939453125"><ele>1653.199951171875</ele><time>2026-08-09T03:42:12.000Z</time></trkpt>
      <trkpt lat="49.16552751325070858001708984375" lon="20.071775726974010467529296875"><ele>1658.5999755859375</ele><time>2026-08-09T03:42:46.000Z</time></trkpt>
      <trkpt lat="49.165620468556880950927734375" lon="20.07202886044979095458984375"><ele>1665</ele><time>2026-08-09T03:43:23.000Z</time></trkpt>
      <trkpt lat="49.16558166034519672393798828125" lon="20.07248542271554470062255859375"><ele>1669.5999755859375</ele><time>2026-08-09T03:44:01.000Z</time></trkpt>
      <trkpt lat="49.16559859178960323333740234375" lon="20.072796642780303955078125"><ele>1672.5999755859375</ele><time>2026-08-09T03:44:34.000Z</time></trkpt>
      <trkpt lat="49.16559875942766666412353515625" lon="20.073156394064426422119140625"><ele>1677.199951171875</ele><time>2026-08-09T03:45:11.000Z</time></trkpt>
      <trkpt lat="49.16539574973285198211669921875" lon="20.073628462851047515869140625"><ele>1679.800048828125</ele><time>2026-08-09T03:45:47.000Z</time></trkpt>
      <trkpt lat="49.1653941571712493896484375" lon="20.07371907122433185577392578125"><ele>1682.4000244140625</ele><time>2026-08-09T03:46:14.000Z</time></trkpt>
      <trkpt lat="49.1656223125755786895751953125" lon="20.07355780340731143951416015625"><ele>1687.800048828125</ele><time>2026-08-09T03:46:50.000Z</time></trkpt>
      <trkpt lat="49.165862537920475006103515625" lon="20.07321079261600971221923828125"><ele>1693.5999755859375</ele><time>2026-08-09T03:47:37.000Z</time></trkpt>
      <trkpt lat="49.16604853235185146331787109375" lon="20.07290652953088283538818359375"><ele>1697.800048828125</ele><time>2026-08-09T03:48:16.000Z</time></trkpt>
      <trkpt lat="49.1662335209548473358154296875" lon="20.07257577963173389434814453125"><ele>1703.5999755859375</ele><time>2026-08-09T03:49:00.000Z</time></trkpt>
      <trkpt lat="49.16635681875050067901611328125" lon="20.0726046971976757049560546875"><ele>1709.800048828125</ele><time>2026-08-09T03:49:44.000Z</time></trkpt>
      <trkpt lat="49.16654390282928943634033203125" lon="20.072319209575653076171875"><ele>1714.199951171875</ele><time>2026-08-09T03:50:24.000Z</time></trkpt>
      <trkpt lat="49.16667558252811431884765625" lon="20.07224402390420436859130859375"><ele>1718.199951171875</ele><time>2026-08-09T03:51:10.000Z</time></trkpt>
      <trkpt lat="49.1669015586376190185546875" lon="20.0724725984036922454833984375"><ele>1723.800048828125</ele><time>2026-08-09T03:51:41.000Z</time></trkpt>
      <trkpt lat="49.16708503849804401397705078125" lon="20.0725584290921688079833984375"><ele>1731</ele><time>2026-08-09T03:52:16.000Z</time></trkpt>
      <trkpt lat="49.16700658388435840606689453125" lon="20.072917006909847259521484375"><ele>1736</ele><time>2026-08-09T03:52:57.000Z</time></trkpt>
      <trkpt lat="49.167219735682010650634765625" lon="20.07278230972588062286376953125"><ele>1741.199951171875</ele><time>2026-08-09T03:53:48.000Z</time></trkpt>
      <trkpt lat="49.16729022748768329620361328125" lon="20.07283486425876617431640625"><ele>1745.5999755859375</ele><time>2026-08-09T03:54:27.000Z</time></trkpt>
      <trkpt lat="49.16726298630237579345703125" lon="20.07313929498195648193359375"><ele>1750.199951171875</ele><time>2026-08-09T03:55:09.000Z</time></trkpt>
      <trkpt lat="49.16748133487999439239501953125" lon="20.073107443749904632568359375"><ele>1754.4000244140625</ele><time>2026-08-09T03:55:54.000Z</time></trkpt>
      <trkpt lat="49.16743607260286808013916015625" lon="20.073323361575603485107421875"><ele>1759.4000244140625</ele><time>2026-08-09T03:56:28.000Z</time></trkpt>
      <trkpt lat="49.16748753748834133148193359375" lon="20.07328941486775875091552734375"><ele>1761.800048828125</ele><time>2026-08-09T03:57:02.000Z</time></trkpt>
      <trkpt lat="49.1676275990903377532958984375" lon="20.073228813707828521728515625"><ele>1764.800048828125</ele><time>2026-08-09T03:57:49.000Z</time></trkpt>
      <trkpt lat="49.167844019830226898193359375" lon="20.0733697973191738128662109375"><ele>1769.5999755859375</ele><time>2026-08-09T03:58:18.000Z</time></trkpt>
      <trkpt lat="49.16804409585893154144287109375" lon="20.0735139660537242889404296875"><ele>1775.199951171875</ele><time>2026-08-09T03:58:59.000Z</time></trkpt>
      <trkpt lat="49.1681767813861370086669921875" lon="20.07368990220129489898681640625"><ele>1780.199951171875</ele><time>2026-08-09T03:59:28.000Z</time></trkpt>
      <trkpt lat="49.168262779712677001953125" lon="20.07397882640361785888671875"><ele>1785.4000244140625</ele><time>2026-08-09T04:00:02.000Z</time></trkpt>
      <trkpt lat="49.16815222240984439849853515625" lon="20.07418745197355747222900390625"><ele>1789</ele><time>2026-08-09T04:00:27.000Z</time></trkpt>
      <trkpt lat="49.1679068841040134429931640625" lon="20.0740410201251506805419921875"><ele>1790.800048828125</ele><time>2026-08-09T04:00:56.000Z</time></trkpt>
      <trkpt lat="49.1677824966609477996826171875" lon="20.07416130043566226959228515625"><ele>1792</ele><time>2026-08-09T04:01:26.000Z</time></trkpt>
      <trkpt lat="49.1676778905093669891357421875" lon="20.0743977539241313934326171875"><ele>1796.5999755859375</ele><time>2026-08-09T04:02:00.000Z</time></trkpt>
      <trkpt lat="49.16762106120586395263671875" lon="20.074497498571872711181640625"><ele>1798.199951171875</ele><time>2026-08-09T04:02:31.000Z</time></trkpt>
      <trkpt lat="49.16757252998650074005126953125" lon="20.074626915156841278076171875"><ele>1803.800048828125</ele><time>2026-08-09T04:03:05.000Z</time></trkpt>
      <trkpt lat="49.1676785610616207122802734375" lon="20.07458710111677646636962890625"><ele>1809.199951171875</ele><time>2026-08-09T04:03:38.000Z</time></trkpt>
      <trkpt lat="49.16791283525526523590087890625" lon="20.074682570993900299072265625"><ele>1813.5999755859375</ele><time>2026-08-09T04:04:22.000Z</time></trkpt>
      <trkpt lat="49.16798852384090423583984375" lon="20.07480167783796787261962890625"><ele>1818</ele><time>2026-08-09T04:04:57.000Z</time></trkpt>
      <trkpt lat="49.1677845083177089691162109375" lon="20.0750295817852020263671875"><ele>1822.800048828125</ele><time>2026-08-09T04:05:35.000Z</time></trkpt>
      <trkpt lat="49.16745585389435291290283203125" lon="20.07522043772041797637939453125"><ele>1826.199951171875</ele><time>2026-08-09T04:06:22.000Z</time></trkpt>
      <trkpt lat="49.1675357334315776824951171875" lon="20.0752580724656581878662109375"><ele>1830.800048828125</ele><time>2026-08-09T04:06:56.000Z</time></trkpt>
      <trkpt lat="49.16753657162189483642578125" lon="20.0754334218800067901611328125"><ele>1837.199951171875</ele><time>2026-08-09T04:07:48.000Z</time></trkpt>
      <trkpt lat="49.16766724549233913421630859375" lon="20.0754957832396030426025390625"><ele>1842.5999755859375</ele><time>2026-08-09T04:08:35.000Z</time></trkpt>
      <trkpt lat="49.16758845560252666473388671875" lon="20.07564984261989593505859375"><ele>1847</ele><time>2026-08-09T04:09:16.000Z</time></trkpt>
      <trkpt lat="49.16786505840718746185302734375" lon="20.07568781264126300811767578125"><ele>1852.199951171875</ele><time>2026-08-09T04:09:56.000Z</time></trkpt>
      <trkpt lat="49.1680683195590972900390625" lon="20.075742043554782867431640625"><ele>1856.4000244140625</ele><time>2026-08-09T04:10:33.000Z</time></trkpt>
      <trkpt lat="49.1682668030261993408203125" lon="20.07582661695778369903564453125"><ele>1861.5999755859375</ele><time>2026-08-09T04:11:17.000Z</time></trkpt>
      <trkpt lat="49.16844223625957965850830078125" lon="20.075839944183826446533203125"><ele>1866.5999755859375</ele><time>2026-08-09T04:11:54.000Z</time></trkpt>
      <trkpt lat="49.16848967783153057098388671875" lon="20.07590197026729583740234375"><ele>1870.800048828125</ele><time>2026-08-09T04:12:34.000Z</time></trkpt>
      <trkpt lat="49.16838590987026691436767578125" lon="20.07603130303323268890380859375"><ele>1874.199951171875</ele><time>2026-08-09T04:13:20.000Z</time></trkpt>
      <trkpt lat="49.16844525374472141265869140625" lon="20.07621285505592823028564453125"><ele>1880</ele><time>2026-08-09T04:13:59.000Z</time></trkpt>
      <trkpt lat="49.16846193373203277587890625" lon="20.076366998255252838134765625"><ele>1885.5999755859375</ele><time>2026-08-09T04:14:33.000Z</time></trkpt>
      <trkpt lat="49.16857701726257801055908203125" lon="20.0765280984342098236083984375"><ele>1891.800048828125</ele><time>2026-08-09T04:15:24.000Z</time></trkpt>
      <trkpt lat="49.16877432726323604583740234375" lon="20.07656187750399112701416015625"><ele>1896</ele><time>2026-08-09T04:16:07.000Z</time></trkpt>
      <trkpt lat="49.1690883971750736236572265625" lon="20.07650957442820072174072265625"><ele>1900.5999755859375</ele><time>2026-08-09T04:16:58.000Z</time></trkpt>
      <trkpt lat="49.16937128640711307525634765625" lon="20.0765679962933063507080078125"><ele>1905.800048828125</ele><time>2026-08-09T04:17:43.000Z</time></trkpt>
      <trkpt lat="49.16952165775001049041748046875" lon="20.07676471956074237823486328125"><ele>1910.800048828125</ele><time>2026-08-09T04:18:21.000Z</time></trkpt>
      <trkpt lat="49.16971812956035137176513671875" lon="20.07691106759011745452880859375"><ele>1915.4000244140625</ele><time>2026-08-09T04:19:01.000Z</time></trkpt>
      <trkpt lat="49.1701314412057399749755859375" lon="20.077148862183094024658203125"><ele>1914</ele><time>2026-08-09T04:19:55.000Z</time></trkpt>
      <trkpt lat="49.1703074611723423004150390625" lon="20.07731281220912933349609375"><ele>1914</ele><time>2026-08-09T04:21:02.000Z</time></trkpt>
      <trkpt lat="49.17047115974128246307373046875" lon="20.07776903919875621795654296875"><ele>1918.5999755859375</ele><time>2026-08-09T04:21:53.000Z</time></trkpt>
      <trkpt lat="49.17069361545145511627197265625" lon="20.077995099127292633056640625"><ele>1920.4000244140625</ele><time>2026-08-09T04:22:32.000Z</time></trkpt>
      <trkpt lat="49.171015731990337371826171875" lon="20.07835711352527141571044921875"><ele>1921.800048828125</ele><time>2026-08-09T04:23:25.000Z</time></trkpt>
      <trkpt lat="49.171183370053768157958984375" lon="20.07852206937968730926513671875"><ele>1924.800048828125</ele><time>2026-08-09T04:23:56.000Z</time></trkpt>
      <trkpt lat="49.17140959762036800384521484375" lon="20.0788233987987041473388671875"><ele>1930.199951171875</ele><time>2026-08-09T04:24:38.000Z</time></trkpt>
      <trkpt lat="49.1717072390019893646240234375" lon="20.07920200936496257781982421875"><ele>1931</ele><time>2026-08-09T04:25:31.000Z</time></trkpt>
      <trkpt lat="49.172043688595294952392578125" lon="20.07961004041135311126708984375"><ele>1935.4000244140625</ele><time>2026-08-09T04:26:29.000Z</time></trkpt>
      <trkpt lat="49.17228567413985729217529296875" lon="20.0797521136701107025146484375"><ele>1938.4000244140625</ele><time>2026-08-09T04:27:11.000Z</time></trkpt>
      <trkpt lat="49.17250377126038074493408203125" lon="20.079918242990970611572265625"><ele>1942</ele><time>2026-08-09T04:27:51.000Z</time></trkpt>
      <trkpt lat="49.17269387282431125640869140625" lon="20.08019912056624889373779296875"><ele>1947.199951171875</ele><time>2026-08-09T04:28:35.000Z</time></trkpt>
      <trkpt lat="49.17293694801628589630126953125" lon="20.0804436206817626953125"><ele>1953.800048828125</ele><time>2026-08-09T04:29:19.000Z</time></trkpt>
      <trkpt lat="49.17309016920626163482666015625" lon="20.08069398812949657440185546875"><ele>1958.199951171875</ele><time>2026-08-09T04:30:00.000Z</time></trkpt>
      <trkpt lat="49.17328781448304653167724609375" lon="20.08076523430645465850830078125"><ele>1957.800048828125</ele><time>2026-08-09T04:30:35.000Z</time></trkpt>
      <trkpt lat="49.1735266149044036865234375" lon="20.08091912604868412017822265625"><ele>1961.800048828125</ele><time>2026-08-09T04:31:18.000Z</time></trkpt>
      <trkpt lat="49.17379123158752918243408203125" lon="20.08122053928673267364501953125"><ele>1967</ele><time>2026-08-09T04:32:07.000Z</time></trkpt>
      <trkpt lat="49.1739938221871852874755859375" lon="20.0811934657394886016845703125"><ele>1972</ele><time>2026-08-09T04:32:38.000Z</time></trkpt>
      <trkpt lat="49.17432096786797046661376953125" lon="20.081244595348834991455078125"><ele>1974.800048828125</ele><time>2026-08-09T04:33:29.000Z</time></trkpt>
      <trkpt lat="49.17446882463991641998291015625" lon="20.08139823563396930694580078125"><ele>1977.4000244140625</ele><time>2026-08-09T04:34:09.000Z</time></trkpt>
      <trkpt lat="49.17459522373974323272705078125" lon="20.08148842491209506988525390625"><ele>1981.800048828125</ele><time>2026-08-09T04:34:37.000Z</time></trkpt>
      <trkpt lat="49.17476914823055267333984375" lon="20.08151524700224399566650390625"><ele>1987.5999755859375</ele><time>2026-08-09T04:35:12.000Z</time></trkpt>
      <trkpt lat="49.17484483681619167327880859375" lon="20.081759579479694366455078125"><ele>1993.4000244140625</ele><time>2026-08-09T04:35:49.000Z</time></trkpt>
      <trkpt lat="49.17487107217311859130859375" lon="20.08175631053745746612548828125"><ele>1995.800048828125</ele><time>2026-08-09T04:36:27.000Z</time></trkpt>
      <trkpt lat="49.17495329864323139190673828125" lon="20.08173183538019657135009765625"><ele>1998</ele><time>2026-08-09T04:37:16.000Z</time></trkpt>
      <trkpt lat="49.17505321092903614044189453125" lon="20.081837363541126251220703125"><ele>2003.4000244140625</ele><time>2026-08-09T04:37:55.000Z</time></trkpt>
      <trkpt lat="49.17493804357945919036865234375" lon="20.082114972174167633056640625"><ele>2009.4000244140625</ele><time>2026-08-09T04:38:40.000Z</time></trkpt>
      <trkpt lat="49.17515429668128490447998046875" lon="20.0820437259972095489501953125"><ele>2015.4000244140625</ele><time>2026-08-09T04:39:21.000Z</time></trkpt>
      <trkpt lat="49.17495958507061004638671875" lon="20.08241839706897735595703125"><ele>2020.199951171875</ele><time>2026-08-09T04:40:07.000Z</time></trkpt>
      <trkpt lat="49.17477576993405818939208984375" lon="20.08261151611804962158203125"><ele>2027.5999755859375</ele><time>2026-08-09T04:40:54.000Z</time></trkpt>
      <trkpt lat="49.17495732195675373077392578125" lon="20.08262492716312408447265625"><ele>2032.4000244140625</ele><time>2026-08-09T04:41:35.000Z</time></trkpt>
      <trkpt lat="49.1748467646539211273193359375" lon="20.0827999413013458251953125"><ele>2038.199951171875</ele><time>2026-08-09T04:42:13.000Z</time></trkpt>
      <trkpt lat="49.1749159991741180419921875" lon="20.0828453712165355682373046875"><ele>2043.4000244140625</ele><time>2026-08-09T04:42:49.000Z</time></trkpt>
      <trkpt lat="49.17485120706260204315185546875" lon="20.0829167850315570831298828125"><ele>2046.800048828125</ele><time>2026-08-09T04:43:56.000Z</time></trkpt>
      <trkpt lat="49.174843914806842803955078125" lon="20.082911588251590728759765625"><ele>2048.199951171875</ele><time>2026-08-09T04:44:45.000Z</time></trkpt>
      <trkpt lat="49.1748494468629360198974609375" lon="20.08296850137412548065185546875"><ele>2050.39990234375</ele><time>2026-08-09T04:45:35.000Z</time></trkpt>
      <trkpt lat="49.174849279224872589111328125" lon="20.082993395626544952392578125"><ele>2052.199951171875</ele><time>2026-08-09T04:45:58.000Z</time></trkpt>
      <trkpt lat="49.17483041994273662567138671875" lon="20.08309699594974517822265625"><ele>2055.39990234375</ele><time>2026-08-09T04:46:31.000Z</time></trkpt>
      <trkpt lat="49.174817763268947601318359375" lon="20.083079896867275238037109375"><ele>2057.39990234375</ele><time>2026-08-09T04:47:04.000Z</time></trkpt>
      <trkpt lat="49.174768142402172088623046875" lon="20.08302935399115085601806640625"><ele>2058.199951171875</ele><time>2026-08-09T04:47:46.000Z</time></trkpt>
      <trkpt lat="49.1746117360889911651611328125" lon="20.0829959101974964141845703125"><ele>2062.60009765625</ele><time>2026-08-09T04:48:17.000Z</time></trkpt>
      <trkpt lat="49.17454828508198261260986328125" lon="20.08300588466227054595947265625"><ele>2065.800048828125</ele><time>2026-08-09T04:48:47.000Z</time></trkpt>
      <trkpt lat="49.1745198704302310943603515625" lon="20.08299113251268863677978515625"><ele>2069.39990234375</ele><time>2026-08-09T04:49:22.000Z</time></trkpt>
      <trkpt lat="49.17428542859852313995361328125" lon="20.08290731348097324371337890625"><ele>2072</ele><time>2026-08-09T04:49:54.000Z</time></trkpt>
      <trkpt lat="49.17414008639752864837646484375" lon="20.082854591310024261474609375"><ele>2072.60009765625</ele><time>2026-08-09T04:50:27.000Z</time></trkpt>
      <trkpt lat="49.1738590411841869354248046875" lon="20.082736574113368988037109375"><ele>2066.39990234375</ele><time>2026-08-09T04:51:12.000Z</time></trkpt>
      <trkpt lat="49.17355150915682315826416015625" lon="20.082847885787487030029296875"><ele>2066.39990234375</ele><time>2026-08-09T04:52:06.000Z</time></trkpt>
      <trkpt lat="49.17344824410974979400634765625" lon="20.08295592851936817169189453125"><ele>2072.39990234375</ele><time>2026-08-09T04:52:42.000Z</time></trkpt>
      <trkpt lat="49.17343365959823131561279296875" lon="20.08304595015943050384521484375"><ele>2077.199951171875</ele><time>2026-08-09T04:53:10.000Z</time></trkpt>
      <trkpt lat="49.173385798931121826171875" lon="20.08319682441651821136474609375"><ele>2082</ele><time>2026-08-09T04:53:42.000Z</time></trkpt>
      <trkpt lat="49.1733603179454803466796875" lon="20.08323739282786846160888671875"><ele>2085.39990234375</ele><time>2026-08-09T04:53:57.000Z</time></trkpt>
      <trkpt lat="49.173353947699069976806640625" lon="20.08324979804456233978271484375"><ele>2084.60009765625</ele><time>2026-08-09T04:54:32.000Z</time></trkpt>
      <trkpt lat="49.17333341203629970550537109375" lon="20.0832854211330413818359375"><ele>2087.800048828125</ele><time>2026-08-09T04:55:37.000Z</time></trkpt>
      <trkpt lat="49.1733812727034091949462890625" lon="20.08343654684722423553466796875"><ele>2091.60009765625</ele><time>2026-08-09T04:56:01.000Z</time></trkpt>
      <trkpt lat="49.1732897423207759857177734375" lon="20.08359312079846858978271484375"><ele>2096.39990234375</ele><time>2026-08-09T04:56:37.000Z</time></trkpt>
      <trkpt lat="49.17329938150942325592041015625" lon="20.08372128009796142578125"><ele>2100.60009765625</ele><time>2026-08-09T04:57:05.000Z</time></trkpt>
      <trkpt lat="49.1733504272997379302978515625" lon="20.08393778465688228607177734375"><ele>2106</ele><time>2026-08-09T04:57:41.000Z</time></trkpt>
      <trkpt lat="49.17342443950474262237548828125" lon="20.08407340385019779205322265625"><ele>2112.60009765625</ele><time>2026-08-09T04:58:25.000Z</time></trkpt>
      <trkpt lat="49.1735090129077434539794921875" lon="20.08424942381680011749267578125"><ele>2120</ele><time>2026-08-09T04:59:07.000Z</time></trkpt>
      <trkpt lat="49.17352166958153247833251953125" lon="20.0843675248324871063232421875"><ele>2126</ele><time>2026-08-09T05:00:03.000Z</time></trkpt>
      <trkpt lat="49.17344539426267147064208984375" lon="20.084709338843822479248046875"><ele>2133.60009765625</ele><time>2026-08-09T05:01:21.000Z</time></trkpt>
      <trkpt lat="49.17334715835750102996826171875" lon="20.08505760692059993743896484375"><ele>2137.199951171875</ele><time>2026-08-09T05:02:08.000Z</time></trkpt>
      <trkpt lat="49.173408932983875274658203125" lon="20.0852836668491363525390625"><ele>2141.800048828125</ele><time>2026-08-09T05:03:05.000Z</time></trkpt>
      <trkpt lat="49.1734104417264461517333984375" lon="20.08552783168852329254150390625"><ele>2147.60009765625</ele><time>2026-08-09T05:03:34.000Z</time></trkpt>
      <trkpt lat="49.173417650163173675537109375" lon="20.08573235012590885162353515625"><ele>2150.800048828125</ele><time>2026-08-09T05:04:47.000Z</time></trkpt>
      <trkpt lat="49.17365594767034053802490234375" lon="20.08581005036830902099609375"><ele>2157.800048828125</ele><time>2026-08-09T05:05:51.000Z</time></trkpt>
      <trkpt lat="49.17377346195280551910400390625" lon="20.085839889943599700927734375"><ele>2164.60009765625</ele><time>2026-08-09T05:06:34.000Z</time></trkpt>
      <trkpt lat="49.17388963513076305389404296875" lon="20.08586981333792209625244140625"><ele>2171</ele><time>2026-08-09T05:07:27.000Z</time></trkpt>
      <trkpt lat="49.17397311888635158538818359375" lon="20.0859067775309085845947265625"><ele>2177.39990234375</ele><time>2026-08-09T05:08:15.000Z</time></trkpt>
      <trkpt lat="49.1739485599100589752197265625" lon="20.08621615357697010040283203125"><ele>2186</ele><time>2026-08-09T05:09:35.000Z</time></trkpt>
      <trkpt lat="49.1740431077778339385986328125" lon="20.0865461491048336029052734375"><ele>2196.39990234375</ele><time>2026-08-09T05:10:46.000Z</time></trkpt>
      <trkpt lat="49.17426497675478458404541015625" lon="20.0869491510093212127685546875"><ele>2202.199951171875</ele><time>2026-08-09T05:11:40.000Z</time></trkpt>
      <trkpt lat="49.1743596084415912628173828125" lon="20.08705819956958293914794921875"><ele>2205.800048828125</ele><time>2026-08-09T05:12:42.000Z</time></trkpt>
      <trkpt lat="49.17445172555744647979736328125" lon="20.08706725202500820159912109375"><ele>2212</ele><time>2026-08-09T05:13:12.000Z</time></trkpt>
      <trkpt lat="49.1745041124522686004638671875" lon="20.0869535095989704132080078125"><ele>2216</ele><time>2026-08-09T05:13:56.000Z</time></trkpt>
      <trkpt lat="49.1745305992662906646728515625" lon="20.08696096949279308319091796875"><ele>2216</ele><time>2026-08-09T05:15:44.000Z</time></trkpt>
      <trkpt lat="49.17435147799551486968994140625" lon="20.08656182326376438140869140625"><ele>2209.39990234375</ele><time>2026-08-09T05:41:10.000Z</time></trkpt>
      <trkpt lat="49.17456739582121372222900390625" lon="20.0863402895629405975341796875"><ele>2215</ele><time>2026-08-09T05:41:44.000Z</time></trkpt>
      <trkpt lat="49.1746382229030132293701171875" lon="20.08587853051722049713134765625"><ele>2218.60009765625</ele><time>2026-08-09T05:42:25.000Z</time></trkpt>
      <trkpt lat="49.17464132420718669891357421875" lon="20.0857542268931865692138671875"><ele>2220.800048828125</ele><time>2026-08-09T05:43:12.000Z</time></trkpt>
      <trkpt lat="49.17467133142054080963134765625" lon="20.08565641008317470550537109375"><ele>2220.800048828125</ele><time>2026-08-09T05:44:41.000Z</time></trkpt>
      <trkpt lat="49.17464383877813816070556640625" lon="20.08602739311754703521728515625"><ele>2218.39990234375</ele><time>2026-08-09T05:45:18.000Z</time></trkpt>
      <trkpt lat="49.1746338643133640289306640625" lon="20.08656777441501617431640625"><ele>2214.39990234375</ele><time>2026-08-09T05:45:59.000Z</time></trkpt>
      <trkpt lat="49.17450922541320323944091796875" lon="20.08701142854988574981689453125"><ele>2211.199951171875</ele><time>2026-08-09T05:46:32.000Z</time></trkpt>
      <trkpt lat="49.17460964061319828033447265625" lon="20.0872314535081386566162109375"><ele>2207.60009765625</ele><time>2026-08-09T05:53:12.000Z</time></trkpt>
      <trkpt lat="49.17473830282688140869140625" lon="20.0872683338820934295654296875"><ele>2211.800048828125</ele><time>2026-08-09T05:53:41.000Z</time></trkpt>
      <trkpt lat="49.1748849861323833465576171875" lon="20.087255425751209259033203125"><ele>2219</ele><time>2026-08-09T05:54:26.000Z</time></trkpt>
      <trkpt lat="49.17506729252636432647705078125" lon="20.08739657700061798095703125"><ele>2225.60009765625</ele><time>2026-08-09T05:55:01.000Z</time></trkpt>
      <trkpt lat="49.17521171271800994873046875" lon="20.0876046158373355865478515625"><ele>2232.800048828125</ele><time>2026-08-09T05:55:47.000Z</time></trkpt>
      <trkpt lat="49.1753466613590717315673828125" lon="20.08793327026069164276123046875"><ele>2238.39990234375</ele><time>2026-08-09T05:56:29.000Z</time></trkpt>
      <trkpt lat="49.17546342127025127410888671875" lon="20.0882433168590068817138671875"><ele>2245</ele><time>2026-08-09T05:57:12.000Z</time></trkpt>
      <trkpt lat="49.1755981184542179107666015625" lon="20.08854866959154605865478515625"><ele>2251.60009765625</ele><time>2026-08-09T05:57:56.000Z</time></trkpt>
      <trkpt lat="49.175645224750041961669921875" lon="20.088868774473667144775390625"><ele>2257.199951171875</ele><time>2026-08-09T05:58:40.000Z</time></trkpt>
      <trkpt lat="49.17565871961414813995361328125" lon="20.08913892321288585662841796875"><ele>2263.39990234375</ele><time>2026-08-09T05:59:30.000Z</time></trkpt>
      <trkpt lat="49.1756564565002918243408203125" lon="20.08939859457314014434814453125"><ele>2271.199951171875</ele><time>2026-08-09T06:00:19.000Z</time></trkpt>
      <trkpt lat="49.17568990029394626617431640625" lon="20.08944117464125156402587890625"><ele>2277.60009765625</ele><time>2026-08-09T06:00:58.000Z</time></trkpt>
      <trkpt lat="49.1757607273757457733154296875" lon="20.0893061421811580657958984375"><ele>2281.39990234375</ele><time>2026-08-09T06:01:30.000Z</time></trkpt>
      <trkpt lat="49.17583440430462360382080078125" lon="20.08928124792873859405517578125"><ele>2287.800048828125</ele><time>2026-08-09T06:02:14.000Z</time></trkpt>
      <trkpt lat="49.175928868353366851806640625" lon="20.089218802750110626220703125"><ele>2293.199951171875</ele><time>2026-08-09T06:02:57.000Z</time></trkpt>
      <trkpt lat="49.175980500876903533935546875" lon="20.0891566090285778045654296875"><ele>2295.800048828125</ele><time>2026-08-09T06:03:29.000Z</time></trkpt>
      <trkpt lat="49.17599332518875598907470703125" lon="20.08916205726563930511474609375"><ele>2297.60009765625</ele><time>2026-08-09T06:03:46.000Z</time></trkpt>
      <trkpt lat="49.17606423608958721160888671875" lon="20.08932500146329402923583984375"><ele>2302</ele><time>2026-08-09T06:04:28.000Z</time></trkpt>
      <trkpt lat="49.17610011063516139984130859375" lon="20.08944385685026645660400390625"><ele>2304.800048828125</ele><time>2026-08-09T06:05:12.000Z</time></trkpt>
      <trkpt lat="49.17610849253833293914794921875" lon="20.08945609442889690399169921875"><ele>2309.199951171875</ele><time>2026-08-09T06:06:09.000Z</time></trkpt>
      <trkpt lat="49.1761234961450099945068359375" lon="20.08946321904659271240234375"><ele>2314.800048828125</ele><time>2026-08-09T06:06:56.000Z</time></trkpt>
      <trkpt lat="49.17614587582647800445556640625" lon="20.089468248188495635986328125"><ele>2321</ele><time>2026-08-09T06:07:53.000Z</time></trkpt>
      <trkpt lat="49.17616398073732852935791015625" lon="20.08947168476879596710205078125"><ele>2324.199951171875</ele><time>2026-08-09T06:08:31.000Z</time></trkpt>
      <trkpt lat="49.17618661187589168548583984375" lon="20.08946858346462249755859375"><ele>2330</ele><time>2026-08-09T06:09:14.000Z</time></trkpt>
      <trkpt lat="49.17621217668056488037109375" lon="20.08945575915277004241943359375"><ele>2335.199951171875</ele><time>2026-08-09T06:09:58.000Z</time></trkpt>
      <trkpt lat="49.17623673565685749053955078125" lon="20.08943363092839717864990234375"><ele>2340.60009765625</ele><time>2026-08-09T06:10:38.000Z</time></trkpt>
      <trkpt lat="49.17629624716937541961669921875" lon="20.089404881000518798828125"><ele>2348.60009765625</ele><time>2026-08-09T06:11:55.000Z</time></trkpt>
      <trkpt lat="49.17726050131022930145263671875" lon="20.08883918635547161102294921875"><ele>2352.800048828125</ele><time>2026-08-09T06:12:37.000Z</time></trkpt>
      <trkpt lat="49.17725010775029659271240234375" lon="20.0885591469705104827880859375"><ele>2358.199951171875</ele><time>2026-08-09T06:13:23.000Z</time></trkpt>
      <trkpt lat="49.1773677058517932891845703125" lon="20.08833174593746662139892578125"><ele>2364.199951171875</ele><time>2026-08-09T06:14:03.000Z</time></trkpt>
      <trkpt lat="49.17738472111523151397705078125" lon="20.08824440650641918182373046875"><ele>2367.60009765625</ele><time>2026-08-09T06:14:41.000Z</time></trkpt>
      <trkpt lat="49.17753056623041629791259765625" lon="20.08819394744932651519775390625"><ele>2371</ele><time>2026-08-09T06:15:30.000Z</time></trkpt>
      <trkpt lat="49.17765964753925800323486328125" lon="20.08824021555483341217041015625"><ele>2376.39990234375</ele><time>2026-08-09T06:16:22.000Z</time></trkpt>
      <trkpt lat="49.17770608328282833099365234375" lon="20.08823015727102756500244140625"><ele>2377.800048828125</ele><time>2026-08-09T06:16:36.000Z</time></trkpt>
      <trkpt lat="49.17773072607815265655517578125" lon="20.08821506984531879425048828125"><ele>2380.199951171875</ele><time>2026-08-09T06:16:58.000Z</time></trkpt>
      <trkpt lat="49.177796356379985809326171875" lon="20.088119767606258392333984375"><ele>2384</ele><time>2026-08-09T06:17:30.000Z</time></trkpt>
      <trkpt lat="49.17782284319400787353515625" lon="20.08814801461994647979736328125"><ele>2386.800048828125</ele><time>2026-08-09T06:17:59.000Z</time></trkpt>
      <trkpt lat="49.1778283752501010894775390625" lon="20.0881350226700305938720703125"><ele>2388.60009765625</ele><time>2026-08-09T06:18:17.000Z</time></trkpt>
      <trkpt lat="49.17783348821103572845458984375" lon="20.087978951632976531982421875"><ele>2396.800048828125</ele><time>2026-08-09T06:19:17.000Z</time></trkpt>
      <trkpt lat="49.17789769358932971954345703125" lon="20.08799479342997074127197265625"><ele>2399</ele><time>2026-08-09T06:19:52.000Z</time></trkpt>
      <trkpt lat="49.17797145433723926544189453125" lon="20.0880163349211215972900390625"><ele>2404.39990234375</ele><time>2026-08-09T06:20:35.000Z</time></trkpt>
      <trkpt lat="49.17798888869583606719970703125" lon="20.088010132312774658203125"><ele>2407.199951171875</ele><time>2026-08-09T06:21:13.000Z</time></trkpt>
      <trkpt lat="49.17822383344173431396484375" lon="20.08794131688773632049560546875"><ele>2407.39990234375</ele><time>2026-08-09T06:21:53.000Z</time></trkpt>
      <trkpt lat="49.17827521450817584991455078125" lon="20.0879697315394878387451171875"><ele>2407</ele><time>2026-08-09T06:22:30.000Z</time></trkpt>
      <trkpt lat="49.17845542542636394500732421875" lon="20.08796386420726776123046875"><ele>2404.199951171875</ele><time>2026-08-09T06:23:45.000Z</time></trkpt>
      <trkpt lat="49.17861937545239925384521484375" lon="20.08792337961494922637939453125"><ele>2405.60009765625</ele><time>2026-08-09T06:24:33.000Z</time></trkpt>
      <trkpt lat="49.1787435114383697509765625" lon="20.08778139017522335052490234375"><ele>2410</ele><time>2026-08-09T06:25:31.000Z</time></trkpt>
      <trkpt lat="49.1788985766470432281494140625" lon="20.08784106932580471038818359375"><ele>2417.199951171875</ele><time>2026-08-09T06:26:35.000Z</time></trkpt>
      <trkpt lat="49.17904450558125972747802734375" lon="20.0878124870359897613525390625"><ele>2422.60009765625</ele><time>2026-08-09T06:27:48.000Z</time></trkpt>
      <trkpt lat="49.17905707843601703643798828125" lon="20.08780821226537227630615234375"><ele>2432.199951171875</ele><time>2026-08-09T06:29:01.000Z</time></trkpt>
      <trkpt lat="49.1790705733001232147216796875" lon="20.08781475014984607696533203125"><ele>2440.39990234375</ele><time>2026-08-09T06:30:03.000Z</time></trkpt>
      <trkpt lat="49.179315827786922454833984375" lon="20.087995044887065887451171875"><ele>2445</ele><time>2026-08-09T06:31:13.000Z</time></trkpt>
      <trkpt lat="49.179321862757205963134765625" lon="20.08799479342997074127197265625"><ele>2448</ele><time>2026-08-09T06:32:01.000Z</time></trkpt>
      <trkpt lat="49.1793471761047840118408203125" lon="20.088131837546825408935546875"><ele>2453.199951171875</ele><time>2026-08-09T06:32:53.000Z</time></trkpt>
      <trkpt lat="49.17940107174217700958251953125" lon="20.08828748948872089385986328125"><ele>2459.60009765625</ele><time>2026-08-09T06:34:25.000Z</time></trkpt>
      <trkpt lat="49.17939729988574981689453125" lon="20.08829318918287754058837890625"><ele>2463</ele><time>2026-08-09T06:35:44.000Z</time></trkpt>
      <trkpt lat="49.17939302511513233184814453125" lon="20.08830408565700054168701171875"><ele>2467</ele><time>2026-08-09T06:36:45.000Z</time></trkpt>
      <trkpt lat="49.1793899238109588623046875" lon="20.08831196464598178863525390625"><ele>2464.60009765625</ele><time>2026-08-09T06:37:22.000Z</time></trkpt>
      <trkpt lat="49.179384224116802215576171875" lon="20.08832554332911968231201171875"><ele>2465.800048828125</ele><time>2026-08-09T06:38:36.000Z</time></trkpt>
      <trkpt lat="49.17938229627907276153564453125" lon="20.08833074010908603668212890625"><ele>2467</ele><time>2026-08-09T06:39:10.000Z</time></trkpt>
      <trkpt lat="49.17937986552715301513671875" lon="20.08833778090775012969970703125"><ele>2463.800048828125</ele><time>2026-08-09T06:40:00.000Z</time></trkpt>
      <trkpt lat="49.1793783567845821380615234375" lon="20.0883408822119235992431640625"><ele>2461.60009765625</ele><time>2026-08-09T06:41:16.000Z</time></trkpt>
      <trkpt lat="49.17937852442264556884765625" lon="20.08833811618387699127197265625"><ele>2458.39990234375</ele><time>2026-08-09T06:42:14.000Z</time></trkpt>
      <trkpt lat="49.1793790273368358612060546875" lon="20.088337026536464691162109375"><ele>2458.39990234375</ele><time>2026-08-09T06:42:45.000Z</time></trkpt>
      <trkpt lat="49.1793833859264850616455078125" lon="20.08833057247102260589599609375"><ele>2459</ele><time>2026-08-09T06:43:57.000Z</time></trkpt>
      <trkpt lat="49.1793860681354999542236328125" lon="20.088324956595897674560546875"><ele>2460.199951171875</ele><time>2026-08-09T06:44:30.000Z</time></trkpt>
      <trkpt lat="49.179392270743846893310546875" lon="20.088314227759838104248046875"><ele>2461.60009765625</ele><time>2026-08-09T06:45:23.000Z</time></trkpt>
      <trkpt lat="49.17941414751112461090087890625" lon="20.0882832147181034088134765625"><ele>2461.199951171875</ele><time>2026-08-09T06:48:17.000Z</time></trkpt>
      <trkpt lat="49.17941817082464694976806640625" lon="20.0882778503000736236572265625"><ele>2460.60009765625</ele><time>2026-08-09T06:48:54.000Z</time></trkpt>
      <trkpt lat="49.179425798356533050537109375" lon="20.08826695382595062255859375"><ele>2460.60009765625</ele><time>2026-08-09T06:50:12.000Z</time></trkpt>
      <trkpt lat="49.1794316656887531280517578125" lon="20.08825915865600109100341796875"><ele>2460.199951171875</ele><time>2026-08-09T06:51:12.000Z</time></trkpt>
      <trkpt lat="49.1794377006590366363525390625" lon="20.088251195847988128662109375"><ele>2461.800048828125</ele><time>2026-08-09T06:52:19.000Z</time></trkpt>
      <trkpt lat="49.1794430650770664215087890625" lon="20.0882446579635143280029296875"><ele>2459.800048828125</ele><time>2026-08-09T06:53:21.000Z</time></trkpt>
      <trkpt lat="49.17944826185703277587890625" lon="20.08823736570775508880615234375"><ele>2458.39990234375</ele><time>2026-08-09T06:54:38.000Z</time></trkpt>
      <trkpt lat="49.17945002205669879913330078125" lon="20.08823342621326446533203125"><ele>2456.199951171875</ele><time>2026-08-09T06:55:28.000Z</time></trkpt>
      <trkpt lat="49.1794517822563648223876953125" lon="20.08823074400424957275390625"><ele>2455.39990234375</ele><time>2026-08-09T06:56:27.000Z</time></trkpt>
      <trkpt lat="49.17945471592247486114501953125" lon="20.08822680450975894927978515625"><ele>2455</ele><time>2026-08-09T06:57:49.000Z</time></trkpt>
      <trkpt lat="49.17945890687406063079833984375" lon="20.0882208533585071563720703125"><ele>2454</ele><time>2026-08-09T07:00:09.000Z</time></trkpt>
      <trkpt lat="49.17946075089275836944580078125" lon="20.08821724914014339447021484375"><ele>2454</ele><time>2026-08-09T07:01:50.000Z</time></trkpt>
      <trkpt lat="49.17946276254951953887939453125" lon="20.08821406401693820953369140625"><ele>2456</ele><time>2026-08-09T07:03:39.000Z</time></trkpt>
      <trkpt lat="49.179463349282741546630859375" lon="20.088212303817272186279296875"><ele>2456</ele><time>2026-08-09T07:04:26.000Z</time></trkpt>
      <trkpt lat="49.17946393601596355438232421875" lon="20.08821020834147930145263671875"><ele>2454</ele><time>2026-08-09T07:05:03.000Z</time></trkpt>
      <trkpt lat="49.179462678730487823486328125" lon="20.08820794522762298583984375"><ele>2446.199951171875</ele><time>2026-08-09T07:06:26.000Z</time></trkpt>
      <trkpt lat="49.17946008034050464630126953125" lon="20.088206268846988677978515625"><ele>2443.39990234375</ele><time>2026-08-09T07:07:18.000Z</time></trkpt>
      <trkpt lat="49.17945622466504573822021484375" lon="20.08820199407637119293212890625"><ele>2441.60009765625</ele><time>2026-08-09T07:08:28.000Z</time></trkpt>
      <trkpt lat="49.17945303954184055328369140625" lon="20.0881983898580074310302734375"><ele>2437.800048828125</ele><time>2026-08-09T07:09:24.000Z</time></trkpt>
      <trkpt lat="49.1794474236667156219482421875" lon="20.0881930254399776458740234375"><ele>2433</ele><time>2026-08-09T07:10:40.000Z</time></trkpt>
      <trkpt lat="49.179441221058368682861328125" lon="20.08818640373647212982177734375"><ele>2426.60009765625</ele><time>2026-08-09T07:11:48.000Z</time></trkpt>
      <trkpt lat="49.17943141423165798187255859375" lon="20.08817307651042938232421875"><ele>2420.39990234375</ele><time>2026-08-09T07:13:29.000Z</time></trkpt>
      <trkpt lat="49.17942403815686702728271484375" lon="20.08816502988338470458984375"><ele>2414</ele><time>2026-08-09T07:14:32.000Z</time></trkpt>
      <trkpt lat="49.179411716759204864501953125" lon="20.08815572597086429595947265625"><ele>2410.60009765625</ele><time>2026-08-09T07:15:56.000Z</time></trkpt>
      <trkpt lat="49.17939604260027408599853515625" lon="20.08815019391477108001708984375"><ele>2404.199951171875</ele><time>2026-08-09T07:17:09.000Z</time></trkpt>
      <trkpt lat="49.17836708016693592071533203125" lon="20.087961517274379730224609375"><ele>2399.60009765625</ele><time>2026-08-09T07:18:28.000Z</time></trkpt>
      <trkpt lat="49.17825090698897838592529296875" lon="20.088003091514110565185546875"><ele>2404</ele><time>2026-08-09T07:19:33.000Z</time></trkpt>
      <trkpt lat="49.178059212863445281982421875" lon="20.08805162273347377777099609375"><ele>2403.39990234375</ele><time>2026-08-09T07:20:56.000Z</time></trkpt>
      <trkpt lat="49.17798117734491825103759765625" lon="20.0880409777164459228515625"><ele>2400</ele><time>2026-08-09T07:21:28.000Z</time></trkpt>
      <trkpt lat="49.17779610492289066314697265625" lon="20.08798238821327686309814453125"><ele>2389</ele><time>2026-08-09T07:22:47.000Z</time></trkpt>
      <trkpt lat="49.17779124341905117034912109375" lon="20.087991021573543548583984375"><ele>2382.199951171875</ele><time>2026-08-09T07:23:31.000Z</time></trkpt>
      <trkpt lat="49.17778286151587963104248046875" lon="20.08801256306469440460205078125"><ele>2375.800048828125</ele><time>2026-08-09T07:24:26.000Z</time></trkpt>
      <trkpt lat="49.1777546145021915435791015625" lon="20.0880411453545093536376953125"><ele>2366.199951171875</ele><time>2026-08-09T07:25:46.000Z</time></trkpt>
      <trkpt lat="49.17772972024977207183837890625" lon="20.0880679674446582794189453125"><ele>2357.39990234375</ele><time>2026-08-09T07:26:37.000Z</time></trkpt>
      <trkpt lat="49.1772419773042201995849609375" lon="20.08897832594811916351318359375"><ele>2349.39990234375</ele><time>2026-08-09T07:27:26.000Z</time></trkpt>
      <trkpt lat="49.1771169193089008331298828125" lon="20.0891928188502788543701171875"><ele>2343.60009765625</ele><time>2026-08-09T07:28:09.000Z</time></trkpt>
      <trkpt lat="49.17694986797869205474853515625" lon="20.089082680642604827880859375"><ele>2338.60009765625</ele><time>2026-08-09T07:29:14.000Z</time></trkpt>
      <trkpt lat="49.17671534232795238494873046875" lon="20.08935534395277500152587890625"><ele>2329.199951171875</ele><time>2026-08-09T07:30:54.000Z</time></trkpt>
      <trkpt lat="49.176561534404754638671875" lon="20.089432038366794586181640625"><ele>2323</ele><time>2026-08-09T07:31:29.000Z</time></trkpt>
      <trkpt lat="49.1764728538691997528076171875" lon="20.0894868560135364532470703125"><ele>2317.39990234375</ele><time>2026-08-09T07:32:11.000Z</time></trkpt>
      <trkpt lat="49.17643345892429351806640625" lon="20.08957126177847385406494140625"><ele>2313.39990234375</ele><time>2026-08-09T07:32:36.000Z</time></trkpt>
      <trkpt lat="49.1763273440301418304443359375" lon="20.08959154598414897918701171875"><ele>2307.60009765625</ele><time>2026-08-09T07:33:27.000Z</time></trkpt>
      <trkpt lat="49.1761176288127899169921875" lon="20.08956824429333209991455078125"><ele>2297.60009765625</ele><time>2026-08-09T07:34:26.000Z</time></trkpt>
      <trkpt lat="49.1760088317096233367919921875" lon="20.0892826728522777557373046875"><ele>2288.199951171875</ele><time>2026-08-09T07:35:37.000Z</time></trkpt>
      <trkpt lat="49.17594797909259796142578125" lon="20.08926649577915668487548828125"><ele>2280.199951171875</ele><time>2026-08-09T07:36:37.000Z</time></trkpt>
      <trkpt lat="49.17582593858242034912109375" lon="20.08933581411838531494140625"><ele>2272.60009765625</ele><time>2026-08-09T07:37:28.000Z</time></trkpt>
      <trkpt lat="49.1756215877830982208251953125" lon="20.089525915682315826416015625"><ele>2266.199951171875</ele><time>2026-08-09T07:38:19.000Z</time></trkpt>
      <trkpt lat="49.17553198523819446563720703125" lon="20.08939138613641262054443359375"><ele>2260.60009765625</ele><time>2026-08-09T07:38:56.000Z</time></trkpt>
      <trkpt lat="49.1755692847073078155517578125" lon="20.08913892321288585662841796875"><ele>2255.199951171875</ele><time>2026-08-09T07:39:47.000Z</time></trkpt>
      <trkpt lat="49.17560507543385028839111328125" lon="20.088861398398876190185546875"><ele>2248.60009765625</ele><time>2026-08-09T07:40:35.000Z</time></trkpt>
      <trkpt lat="49.17551639489829540252685546875" lon="20.088552944362163543701171875"><ele>2243.39990234375</ele><time>2026-08-09T07:41:17.000Z</time></trkpt>
      <trkpt lat="49.1754247806966304779052734375" lon="20.088313557207584381103515625"><ele>2237.800048828125</ele><time>2026-08-09T07:41:56.000Z</time></trkpt>
      <trkpt lat="49.1753315739333629608154296875" lon="20.08806704543530941009521484375"><ele>2232.39990234375</ele><time>2026-08-09T07:42:35.000Z</time></trkpt>
      <trkpt lat="49.1751920990645885467529296875" lon="20.08767946623265743255615234375"><ele>2227.39990234375</ele><time>2026-08-09T07:43:17.000Z</time></trkpt>
      <trkpt lat="49.17503066360950469970703125" lon="20.0874312780797481536865234375"><ele>2220.800048828125</ele><time>2026-08-09T07:43:51.000Z</time></trkpt>
      <trkpt lat="49.17486797086894512176513671875" lon="20.087353996932506561279296875"><ele>2215.199951171875</ele><time>2026-08-09T07:44:23.000Z</time></trkpt>
      <trkpt lat="49.1747872531414031982421875" lon="20.0872612930834293365478515625"><ele>2210</ele><time>2026-08-09T07:44:56.000Z</time></trkpt>
      <trkpt lat="49.17470620013773441314697265625" lon="20.08725333027541637420654296875"><ele>2204.199951171875</ele><time>2026-08-09T07:45:30.000Z</time></trkpt>
      <trkpt lat="49.17454074136912822723388671875" lon="20.08694822899997234344482421875"><ele>2202.199951171875</ele><time>2026-08-09T07:46:13.000Z</time></trkpt>
      <trkpt lat="49.17464233003556728363037109375" lon="20.08666969835758209228515625"><ele>2204.199951171875</ele><time>2026-08-09T07:47:07.000Z</time></trkpt>
      <trkpt lat="49.17465205304324626922607421875" lon="20.0867023877799510955810546875"><ele>2206</ele><time>2026-08-09T07:49:01.000Z</time></trkpt>
      <trkpt lat="49.174640737473964691162109375" lon="20.086706243455410003662109375"><ele>2205.199951171875</ele><time>2026-08-09T07:51:02.000Z</time></trkpt>
      <trkpt lat="49.174689352512359619140625" lon="20.0867419503629207611083984375"><ele>2207</ele><time>2026-08-09T07:52:59.000Z</time></trkpt>
      <trkpt lat="49.1746737621724605560302734375" lon="20.086778663098812103271484375"><ele>2206.800048828125</ele><time>2026-08-09T07:56:07.000Z</time></trkpt>
      <trkpt lat="49.17466990649700164794921875" lon="20.08676894009113311767578125"><ele>2206</ele><time>2026-08-09T07:57:42.000Z</time></trkpt>
      <trkpt lat="49.174669571220874786376953125" lon="20.08676013909280300140380859375"><ele>2204.800048828125</ele><time>2026-08-09T07:58:32.000Z</time></trkpt>
      <trkpt lat="49.1746660508215427398681640625" lon="20.08675209246575832366943359375"><ele>2207.199951171875</ele><time>2026-08-09T08:00:32.000Z</time></trkpt>
      <trkpt lat="49.17466362006962299346923828125" lon="20.08674639277160167694091796875"><ele>2205.800048828125</ele><time>2026-08-09T08:02:08.000Z</time></trkpt>
      <trkpt lat="49.17466244660317897796630859375" lon="20.08674354292452335357666015625"><ele>2207.199951171875</ele><time>2026-08-09T08:03:10.000Z</time></trkpt>
      <trkpt lat="49.17466026730835437774658203125" lon="20.08673717267811298370361328125"><ele>2206</ele><time>2026-08-09T08:05:34.000Z</time></trkpt>
      <trkpt lat="49.1746569983661174774169921875" lon="20.08673365227878093719482421875"><ele>2206.199951171875</ele><time>2026-08-09T08:07:58.000Z</time></trkpt>
      <trkpt lat="49.17465557344257831573486328125" lon="20.086729712784290313720703125"><ele>2204.39990234375</ele><time>2026-08-09T08:10:12.000Z</time></trkpt>
      <trkpt lat="49.17465389706194400787353515625" lon="20.086727030575275421142578125"><ele>2205.199951171875</ele><time>2026-08-09T08:15:06.000Z</time></trkpt>
      <trkpt lat="49.1746519692242145538330078125" lon="20.08672870695590972900390625"><ele>2204.800048828125</ele><time>2026-08-09T08:16:29.000Z</time></trkpt>
      <trkpt lat="49.1745533980429172515869140625" lon="20.08696046657860279083251953125"><ele>2203.199951171875</ele><time>2026-08-09T08:17:50.000Z</time></trkpt>
      <trkpt lat="49.1745138354599475860595703125" lon="20.08704160340130329132080078125"><ele>2196.60009765625</ele><time>2026-08-09T08:18:43.000Z</time></trkpt>
      <trkpt lat="49.17429666034877300262451171875" lon="20.08704847656190395355224609375"><ele>2189.199951171875</ele><time>2026-08-09T08:19:37.000Z</time></trkpt>
      <trkpt lat="49.1740719415247440338134765625" lon="20.0865934230387210845947265625"><ele>2180.199951171875</ele><time>2026-08-09T08:20:28.000Z</time></trkpt>
      <trkpt lat="49.17395702563226222991943359375" lon="20.08619360625743865966796875"><ele>2173.800048828125</ele><time>2026-08-09T08:21:15.000Z</time></trkpt>
      <trkpt lat="49.17396641336381435394287109375" lon="20.085947178304195404052734375"><ele>2167.800048828125</ele><time>2026-08-09T08:21:58.000Z</time></trkpt>
      <trkpt lat="49.173890054225921630859375" lon="20.0858293287456035614013671875"><ele>2162.800048828125</ele><time>2026-08-09T08:22:28.000Z</time></trkpt>
      <trkpt lat="49.17382107116281986236572265625" lon="20.085917674005031585693359375"><ele>2157.800048828125</ele><time>2026-08-09T08:22:59.000Z</time></trkpt>
      <trkpt lat="49.17373255826532840728759765625" lon="20.08578532375395298004150390625"><ele>2154.199951171875</ele><time>2026-08-09T08:23:42.000Z</time></trkpt>
      <trkpt lat="49.17364538647234439849853515625" lon="20.0858066976070404052734375"><ele>2149</ele><time>2026-08-09T08:24:11.000Z</time></trkpt>
      <trkpt lat="49.1735016368329524993896484375" lon="20.0857852399349212646484375"><ele>2143</ele><time>2026-08-09T08:24:45.000Z</time></trkpt>
      <trkpt lat="49.17337113060057163238525390625" lon="20.085611231625080108642578125"><ele>2136.39990234375</ele><time>2026-08-09T08:25:30.000Z</time></trkpt>
      <trkpt lat="49.1734215058386325836181640625" lon="20.0853827409446239471435546875"><ele>2132.60009765625</ele><time>2026-08-09T08:26:08.000Z</time></trkpt>
      <trkpt lat="49.17338772676885128021240234375" lon="20.085027851164340972900390625"><ele>2124.800048828125</ele><time>2026-08-09T08:26:49.000Z</time></trkpt>
      <trkpt lat="49.17334950529038906097412109375" lon="20.0846950896084308624267578125"><ele>2120.199951171875</ele><time>2026-08-09T08:27:19.000Z</time></trkpt>
      <trkpt lat="49.17348495684564113616943359375" lon="20.084501467645168304443359375"><ele>2114.800048828125</ele><time>2026-08-09T08:27:53.000Z</time></trkpt>
      <trkpt lat="49.173480011522769927978515625" lon="20.08432812988758087158203125"><ele>2109.199951171875</ele><time>2026-08-09T08:28:27.000Z</time></trkpt>
      <trkpt lat="49.17341521941125392913818359375" lon="20.0840946100652217864990234375"><ele>2100.39990234375</ele><time>2026-08-09T08:28:53.000Z</time></trkpt>
      <trkpt lat="49.1733266226947307586669921875" lon="20.0838998146355152130126953125"><ele>2093.39990234375</ele><time>2026-08-09T08:29:19.000Z</time></trkpt>
      <trkpt lat="49.173298962414264678955078125" lon="20.08373712189495563507080078125"><ele>2086.800048828125</ele><time>2026-08-09T08:29:47.000Z</time></trkpt>
      <trkpt lat="49.17323819361627101898193359375" lon="20.08345146663486957550048828125"><ele>2079.60009765625</ele><time>2026-08-09T08:30:19.000Z</time></trkpt>
      <trkpt lat="49.17332720942795276641845703125" lon="20.08327276445925235748291015625"><ele>2074.800048828125</ele><time>2026-08-09T08:30:50.000Z</time></trkpt>
      <trkpt lat="49.17326736263930797576904296875" lon="20.08318810723721981048583984375"><ele>2068.39990234375</ele><time>2026-08-09T08:31:20.000Z</time></trkpt>
      <trkpt lat="49.17340013198554515838623046875" lon="20.0830681622028350830078125"><ele>2062</ele><time>2026-08-09T08:31:58.000Z</time></trkpt>
      <trkpt lat="49.17331807315349578857421875" lon="20.08295006118714809417724609375"><ele>2058.60009765625</ele><time>2026-08-09T08:32:41.000Z</time></trkpt>
      <trkpt lat="49.1734171472489833831787109375" lon="20.08284076116979122161865234375"><ele>2056.199951171875</ele><time>2026-08-09T08:34:09.000Z</time></trkpt>
      <trkpt lat="49.1735629923641681671142578125" lon="20.08272282779216766357421875"><ele>2051.800048828125</ele><time>2026-08-09T08:34:46.000Z</time></trkpt>
      <trkpt lat="49.17384822852909564971923828125" lon="20.08268351666629314422607421875"><ele>2051</ele><time>2026-08-09T08:35:38.000Z</time></trkpt>
      <trkpt lat="49.1740638948976993560791015625" lon="20.082800947129726409912109375"><ele>2054.60009765625</ele><time>2026-08-09T08:36:26.000Z</time></trkpt>
      <trkpt lat="49.1742653958499431610107421875" lon="20.08285819552838802337646484375"><ele>2057.199951171875</ele><time>2026-08-09T08:37:05.000Z</time></trkpt>
      <trkpt lat="49.1744461096823215484619140625" lon="20.08284562267363071441650390625"><ele>2054</ele><time>2026-08-09T08:37:45.000Z</time></trkpt>
      <trkpt lat="49.17457644827663898468017578125" lon="20.0829903781414031982421875"><ele>2052.39990234375</ele><time>2026-08-09T08:38:25.000Z</time></trkpt>
      <trkpt lat="49.174624644219875335693359375" lon="20.0829687528312206268310546875"><ele>2048.800048828125</ele><time>2026-08-09T08:39:04.000Z</time></trkpt>
      <trkpt lat="49.17474240995943546295166015625" lon="20.0830381549894809722900390625"><ele>2044.5999755859375</ele><time>2026-08-09T08:39:48.000Z</time></trkpt>
      <trkpt lat="49.17476705275475978851318359375" lon="20.083017535507678985595703125"><ele>2040.800048828125</ele><time>2026-08-09T08:40:33.000Z</time></trkpt>
      <trkpt lat="49.17485875077545642852783203125" lon="20.08297587744891643524169921875"><ele>2034.800048828125</ele><time>2026-08-09T08:41:45.000Z</time></trkpt>
      <trkpt lat="49.1749423183500766754150390625" lon="20.0828356482088565826416015625"><ele>2031.5999755859375</ele><time>2026-08-09T08:42:35.000Z</time></trkpt>
      <trkpt lat="49.17485455982387065887451171875" lon="20.08278711698949337005615234375"><ele>2029.5999755859375</ele><time>2026-08-09T08:43:22.000Z</time></trkpt>
      <trkpt lat="49.17479052208364009857177734375" lon="20.08278074674308300018310546875"><ele>2025</ele><time>2026-08-09T08:44:06.000Z</time></trkpt>
      <trkpt lat="49.17479471303522586822509765625" lon="20.08264831267297267913818359375"><ele>2019.5999755859375</ele><time>2026-08-09T08:44:44.000Z</time></trkpt>
      <trkpt lat="49.17480208911001682281494140625" lon="20.08253532461822032928466796875"><ele>2014</ele><time>2026-08-09T08:45:29.000Z</time></trkpt>
      <trkpt lat="49.17474660091102123260498046875" lon="20.08247061632573604583740234375"><ele>2008.800048828125</ele><time>2026-08-09T08:46:37.000Z</time></trkpt>
      <trkpt lat="49.17496838606894016265869140625" lon="20.0821718014776706695556640625"><ele>2002.4000244140625</ele><time>2026-08-09T08:47:22.000Z</time></trkpt>
      <trkpt lat="49.1751019097864627838134765625" lon="20.0820350088179111480712890625"><ele>1998.5999755859375</ele><time>2026-08-09T08:47:57.000Z</time></trkpt>
      <trkpt lat="49.17488926090300083160400390625" lon="20.082033164799213409423828125"><ele>1993.4000244140625</ele><time>2026-08-09T08:48:29.000Z</time></trkpt>
      <trkpt lat="49.17485632002353668212890625" lon="20.08205302990972995758056640625"><ele>1990</ele><time>2026-08-09T08:49:07.000Z</time></trkpt>
      <trkpt lat="49.1749012470245361328125" lon="20.08211371488869190216064453125"><ele>1988</ele><time>2026-08-09T08:51:04.000Z</time></trkpt>
      <trkpt lat="49.17502655647695064544677734375" lon="20.08183493278920650482177734375"><ele>1984.4000244140625</ele><time>2026-08-09T08:51:49.000Z</time></trkpt>
      <trkpt lat="49.1749929450452327728271484375" lon="20.08173837326467037200927734375"><ele>1981.800048828125</ele><time>2026-08-09T08:52:24.000Z</time></trkpt>
      <trkpt lat="49.174786917865276336669921875" lon="20.08172345347702503204345703125"><ele>1978.199951171875</ele><time>2026-08-09T08:53:02.000Z</time></trkpt>
      <trkpt lat="49.17474693618714809417724609375" lon="20.08171892724931240081787109375"><ele>1977.5999755859375</ele><time>2026-08-09T08:53:35.000Z</time></trkpt>
      <trkpt lat="49.174826145172119140625" lon="20.08159051649272441864013671875"><ele>1971.800048828125</ele><time>2026-08-09T08:54:19.000Z</time></trkpt>
      <trkpt lat="49.174660854041576385498046875" lon="20.081516839563846588134765625"><ele>1968.5999755859375</ele><time>2026-08-09T08:54:43.000Z</time></trkpt>
      <trkpt lat="49.174502603709697723388671875" lon="20.0814489461481571197509765625"><ele>1962.5999755859375</ele><time>2026-08-09T08:55:20.000Z</time></trkpt>
      <trkpt lat="49.17429649271070957183837890625" lon="20.08135515265166759490966796875"><ele>1957.800048828125</ele><time>2026-08-09T08:55:56.000Z</time></trkpt>
      <trkpt lat="49.17410873807966709136962890625" lon="20.08122087456285953521728515625"><ele>1955.199951171875</ele><time>2026-08-09T08:56:25.000Z</time></trkpt>
      <trkpt lat="49.1739673353731632232666015625" lon="20.081218779087066650390625"><ele>1953.5999755859375</ele><time>2026-08-09T08:57:22.000Z</time></trkpt>
      <trkpt lat="49.173868261277675628662109375" lon="20.081275440752506256103515625"><ele>1952</ele><time>2026-08-09T08:58:46.000Z</time></trkpt>
      <trkpt lat="49.17347942478954792022705078125" lon="20.08084419183433055877685546875"><ele>1948.199951171875</ele><time>2026-08-09T08:59:36.000Z</time></trkpt>
      <trkpt lat="49.17332268320024013519287109375" lon="20.08072718046605587005615234375"><ele>1943.199951171875</ele><time>2026-08-09T09:00:03.000Z</time></trkpt>
      <trkpt lat="49.1731164045631885528564453125" lon="20.08064319379627704620361328125"><ele>1940</ele><time>2026-08-09T09:00:40.000Z</time></trkpt>
      <trkpt lat="49.1729112155735492706298828125" lon="20.08048896677792072296142578125"><ele>1940.800048828125</ele><time>2026-08-09T09:01:23.000Z</time></trkpt>
      <trkpt lat="49.17269689030945301055908203125" lon="20.08022208698093891143798828125"><ele>1936.4000244140625</ele><time>2026-08-09T09:02:05.000Z</time></trkpt>
      <trkpt lat="49.17256965301930904388427734375" lon="20.08004724048078060150146484375"><ele>1933.5999755859375</ele><time>2026-08-09T09:02:34.000Z</time></trkpt>
      <trkpt lat="49.17239807546138763427734375" lon="20.0799241103231906890869140625"><ele>1928.4000244140625</ele><time>2026-08-09T09:03:09.000Z</time></trkpt>
      <trkpt lat="49.17219146154820919036865234375" lon="20.0796461664140224456787109375"><ele>1925</ele><time>2026-08-09T09:03:55.000Z</time></trkpt>
      <trkpt lat="49.17190865613520145416259765625" lon="20.079516582190990447998046875"><ele>1920.800048828125</ele><time>2026-08-09T09:04:33.000Z</time></trkpt>
      <trkpt lat="49.17165552265942096710205078125" lon="20.079277865588665008544921875"><ele>1916.5999755859375</ele><time>2026-08-09T09:05:22.000Z</time></trkpt>
      <trkpt lat="49.17143382132053375244140625" lon="20.07895641960203647613525390625"><ele>1914.5999755859375</ele><time>2026-08-09T09:06:26.000Z</time></trkpt>
      <trkpt lat="49.1712118685245513916015625" lon="20.078685767948627471923828125"><ele>1912.800048828125</ele><time>2026-08-09T09:07:11.000Z</time></trkpt>
      <trkpt lat="49.1710065118968486785888671875" lon="20.0784344784915447235107421875"><ele>1909.4000244140625</ele><time>2026-08-09T09:07:43.000Z</time></trkpt>
      <trkpt lat="49.17085102759301662445068359375" lon="20.07811873219907283782958984375"><ele>1905.800048828125</ele><time>2026-08-09T09:08:54.000Z</time></trkpt>
      <trkpt lat="49.17048834264278411865234375" lon="20.07790130563080310821533203125"><ele>1904.199951171875</ele><time>2026-08-09T09:09:52.000Z</time></trkpt>
      <trkpt lat="49.17036437429487705230712890625" lon="20.077474415302276611328125"><ele>1901.4000244140625</ele><time>2026-08-09T09:10:31.000Z</time></trkpt>
      <trkpt lat="49.1701703332364559173583984375" lon="20.077262185513973236083984375"><ele>1899</ele><time>2026-08-09T09:11:34.000Z</time></trkpt>
      <trkpt lat="49.16978962719440460205078125" lon="20.077064037322998046875"><ele>1899</ele><time>2026-08-09T09:12:27.000Z</time></trkpt>
      <trkpt lat="49.16948913596570491790771484375" lon="20.07683294825255870819091796875"><ele>1897</ele><time>2026-08-09T09:13:13.000Z</time></trkpt>
      <trkpt lat="49.169292747974395751953125" lon="20.07656606845557689666748046875"><ele>1890.5999755859375</ele><time>2026-08-09T09:13:50.000Z</time></trkpt>
      <trkpt lat="49.16903165169060230255126953125" lon="20.07656154222786426544189453125"><ele>1885.199951171875</ele><time>2026-08-09T09:14:30.000Z</time></trkpt>
      <trkpt lat="49.168744571506977081298828125" lon="20.07660563103854656219482421875"><ele>1880.800048828125</ele><time>2026-08-09T09:15:09.000Z</time></trkpt>
      <trkpt lat="49.16844508610665798187255859375" lon="20.07653304375708103179931640625"><ele>1874.5999755859375</ele><time>2026-08-09T09:15:54.000Z</time></trkpt>
      <trkpt lat="49.16851448826491832733154296875" lon="20.07632450200617313385009765625"><ele>1869.199951171875</ele><time>2026-08-09T09:16:35.000Z</time></trkpt>
      <trkpt lat="49.16837970726191997528076171875" lon="20.07628343068063259124755859375"><ele>1864.4000244140625</ele><time>2026-08-09T09:17:08.000Z</time></trkpt>
      <trkpt lat="49.168353974819183349609375" lon="20.07617446593940258026123046875"><ele>1860.4000244140625</ele><time>2026-08-09T09:17:43.000Z</time></trkpt>
      <trkpt lat="49.1683631949126720428466796875" lon="20.0761767290532588958740234375"><ele>1860.5999755859375</ele><time>2026-08-09T09:18:24.000Z</time></trkpt>
      <trkpt lat="49.16840032674372196197509765625" lon="20.076183937489986419677734375"><ele>1859.4000244140625</ele><time>2026-08-09T09:21:22.000Z</time></trkpt>
      <trkpt lat="49.16845120489597320556640625" lon="20.07587925530970096588134765625"><ele>1855.800048828125</ele><time>2026-08-09T09:22:14.000Z</time></trkpt>
      <trkpt lat="49.16833452880382537841796875" lon="20.0758692808449268341064453125"><ele>1851.800048828125</ele><time>2026-08-09T09:23:02.000Z</time></trkpt>
      <trkpt lat="49.16822061873972415924072265625" lon="20.075775571167469024658203125"><ele>1847.5999755859375</ele><time>2026-08-09T09:23:28.000Z</time></trkpt>
      <trkpt lat="49.168046526610851287841796875" lon="20.0758020579814910888671875"><ele>1843</ele><time>2026-08-09T09:24:02.000Z</time></trkpt>
      <trkpt lat="49.16784326545894145965576171875" lon="20.07578806020319461822509765625"><ele>1837.800048828125</ele><time>2026-08-09T09:24:33.000Z</time></trkpt>
      <trkpt lat="49.16762785054743289947509765625" lon="20.07569518871605396270751953125"><ele>1833.199951171875</ele><time>2026-08-09T09:25:01.000Z</time></trkpt>
      <trkpt lat="49.16765383444726467132568359375" lon="20.0755195878446102142333984375"><ele>1828</ele><time>2026-08-09T09:25:35.000Z</time></trkpt>
      <trkpt lat="49.16756029240787029266357421875" lon="20.07546334527432918548583984375"><ele>1823.5999755859375</ele><time>2026-08-09T09:26:03.000Z</time></trkpt>
      <trkpt lat="49.167501032352447509765625" lon="20.0753408856689929962158203125"><ele>1818.199951171875</ele><time>2026-08-09T09:26:39.000Z</time></trkpt>
      <trkpt lat="49.16742433793842792510986328125" lon="20.07515321485698223114013671875"><ele>1811.199951171875</ele><time>2026-08-09T09:27:12.000Z</time></trkpt>
      <trkpt lat="49.1676745377480983734130859375" lon="20.075015835464000701904296875"><ele>1806.800048828125</ele><time>2026-08-09T09:27:52.000Z</time></trkpt>
      <trkpt lat="49.16806421242654323577880859375" lon="20.07485783658921718597412109375"><ele>1801.4000244140625</ele><time>2026-08-09T09:28:36.000Z</time></trkpt>
      <trkpt lat="49.16785080917179584503173828125" lon="20.07477787323296070098876953125"><ele>1796.5999755859375</ele><time>2026-08-09T09:29:08.000Z</time></trkpt>
      <trkpt lat="49.1676725260913372039794921875" lon="20.0746438466012477874755859375"><ele>1793</ele><time>2026-08-09T09:29:43.000Z</time></trkpt>
      <trkpt lat="49.16751670651137828826904296875" lon="20.0746277533471584320068359375"><ele>1788.199951171875</ele><time>2026-08-09T09:30:17.000Z</time></trkpt>
      <trkpt lat="49.16763891465961933135986328125" lon="20.07440504617989063262939453125"><ele>1783</ele><time>2026-08-09T09:30:55.000Z</time></trkpt>
      <trkpt lat="49.16774938814342021942138671875" lon="20.0742517411708831787109375"><ele>1777.199951171875</ele><time>2026-08-09T09:31:27.000Z</time></trkpt>
      <trkpt lat="49.16793965734541416168212890625" lon="20.07406004704535007476806640625"><ele>1773.4000244140625</ele><time>2026-08-09T09:32:12.000Z</time></trkpt>
      <trkpt lat="49.16825272142887115478515625" lon="20.07407496683299541473388671875"><ele>1769.5999755859375</ele><time>2026-08-09T09:32:52.000Z</time></trkpt>
      <trkpt lat="49.16821206919848918914794921875" lon="20.07383323274552822113037109375"><ele>1765.199951171875</ele><time>2026-08-09T09:33:22.000Z</time></trkpt>
      <trkpt lat="49.1680507175624370574951171875" lon="20.07356568239629268646240234375"><ele>1759.4000244140625</ele><time>2026-08-09T09:34:09.000Z</time></trkpt>
      <trkpt lat="49.16785634122788906097412109375" lon="20.07341195829212665557861328125"><ele>1753</ele><time>2026-08-09T09:34:53.000Z</time></trkpt>
      <trkpt lat="49.16769071482121944427490234375" lon="20.07335261441767215728759765625"><ele>1748.800048828125</ele><time>2026-08-09T09:35:29.000Z</time></trkpt>
      <trkpt lat="49.16748351417481899261474609375" lon="20.0733711384236812591552734375"><ele>1744.4000244140625</ele><time>2026-08-09T09:36:29.000Z</time></trkpt>
      <trkpt lat="49.16750463657081127166748046875" lon="20.07309311069548130035400390625"><ele>1739.4000244140625</ele><time>2026-08-09T09:37:17.000Z</time></trkpt>
      <trkpt lat="49.1672832705080509185791015625" lon="20.07313527166843414306640625"><ele>1734.199951171875</ele><time>2026-08-09T09:37:55.000Z</time></trkpt>
      <trkpt lat="49.16733046062290668487548828125" lon="20.07282203994691371917724609375"><ele>1729.199951171875</ele><time>2026-08-09T09:38:37.000Z</time></trkpt>
      <trkpt lat="49.16717983782291412353515625" lon="20.0728568248450756072998046875"><ele>1724.800048828125</ele><time>2026-08-09T09:39:09.000Z</time></trkpt>
      <trkpt lat="49.16706223972141742706298828125" lon="20.0728735886514186859130859375"><ele>1719.4000244140625</ele><time>2026-08-09T09:39:41.000Z</time></trkpt>
      <trkpt lat="49.16706324554979801177978515625" lon="20.07267636246979236602783203125"><ele>1715.4000244140625</ele><time>2026-08-09T09:40:28.000Z</time></trkpt>
      <trkpt lat="49.16695947758853435516357421875" lon="20.07255398668348789215087890625"><ele>1710.5999755859375</ele><time>2026-08-09T09:41:21.000Z</time></trkpt>
      <trkpt lat="49.16676702909171581268310546875" lon="20.0724213011562824249267578125"><ele>1703.4000244140625</ele><time>2026-08-09T09:41:49.000Z</time></trkpt>
      <trkpt lat="49.16673450730741024017333984375" lon="20.07241987623274326324462890625"><ele>1701.199951171875</ele><time>2026-08-09T09:43:01.000Z</time></trkpt>
      <trkpt lat="49.1665359400212764739990234375" lon="20.07241635583341121673583984375"><ele>1695.5999755859375</ele><time>2026-08-09T09:43:38.000Z</time></trkpt>
      <trkpt lat="49.1663689725100994110107421875" lon="20.0727150030434131622314453125"><ele>1691.5999755859375</ele><time>2026-08-09T09:44:24.000Z</time></trkpt>
      <trkpt lat="49.1662714071571826934814453125" lon="20.0726013444364070892333984375"><ele>1686.5999755859375</ele><time>2026-08-09T09:44:59.000Z</time></trkpt>
      <trkpt lat="49.1661409847438335418701171875" lon="20.07283712737262248992919921875"><ele>1681.4000244140625</ele><time>2026-08-09T09:45:31.000Z</time></trkpt>
      <trkpt lat="49.16594912298023700714111328125" lon="20.073086321353912353515625"><ele>1676.199951171875</ele><time>2026-08-09T09:46:08.000Z</time></trkpt>
      <trkpt lat="49.16577276773750782012939453125" lon="20.07338999770581722259521484375"><ele>1676.199951171875</ele><time>2026-08-09T09:46:53.000Z</time></trkpt>
      <trkpt lat="49.16560445912182331085205078125" lon="20.0736497528851032257080078125"><ele>1670.5999755859375</ele><time>2026-08-09T09:47:23.000Z</time></trkpt>
      <trkpt lat="49.16542978025972843170166015625" lon="20.073796100914478302001953125"><ele>1666.800048828125</ele><time>2026-08-09T09:47:47.000Z</time></trkpt>
      <trkpt lat="49.16537580080330371856689453125" lon="20.07367799989879131317138671875"><ele>1661.5999755859375</ele><time>2026-08-09T09:48:17.000Z</time></trkpt>
      <trkpt lat="49.1656213067471981048583984375" lon="20.07301767356693744659423828125"><ele>1658.4000244140625</ele><time>2026-08-09T09:49:05.000Z</time></trkpt>
      <trkpt lat="49.1655354760587215423583984375" lon="20.07256396114826202392578125"><ele>1653.199951171875</ele><time>2026-08-09T09:49:49.000Z</time></trkpt>
      <trkpt lat="49.16558182798326015472412109375" lon="20.0720903836190700531005859375"><ele>1648</ele><time>2026-08-09T09:50:28.000Z</time></trkpt>
      <trkpt lat="49.16548258624970912933349609375" lon="20.071764998137950897216796875"><ele>1643.800048828125</ele><time>2026-08-09T09:51:05.000Z</time></trkpt>
      <trkpt lat="49.1652799956500530242919921875" lon="20.07175619713962078094482421875"><ele>1638.800048828125</ele><time>2026-08-09T09:51:40.000Z</time></trkpt>
      <trkpt lat="49.16510112583637237548828125" lon="20.0715073384344577789306640625"><ele>1634.800048828125</ele><time>2026-08-09T09:52:24.000Z</time></trkpt>
      <trkpt lat="49.16493843309581279754638671875" lon="20.0711536221206188201904296875"><ele>1632</ele><time>2026-08-09T09:53:07.000Z</time></trkpt>
      <trkpt lat="49.1645430587232112884521484375" lon="20.07086469791829586029052734375"><ele>1628.5999755859375</ele><time>2026-08-09T09:53:57.000Z</time></trkpt>
      <trkpt lat="49.1642667911946773529052734375" lon="20.07124624215066432952880859375"><ele>1628.199951171875</ele><time>2026-08-09T09:54:36.000Z</time></trkpt>
      <trkpt lat="49.16392221115529537200927734375" lon="20.0714536942541599273681640625"><ele>1627.4000244140625</ele><time>2026-08-09T09:55:14.000Z</time></trkpt>
      <trkpt lat="49.16369422338902950286865234375" lon="20.07130826823413372039794921875"><ele>1622.5999755859375</ele><time>2026-08-09T09:55:47.000Z</time></trkpt>
      <trkpt lat="49.16359079070389270782470703125" lon="20.0711309909820556640625"><ele>1617</ele><time>2026-08-09T09:56:16.000Z</time></trkpt>
      <trkpt lat="49.16334620676934719085693359375" lon="20.071081705391407012939453125"><ele>1610.800048828125</ele><time>2026-08-09T09:56:55.000Z</time></trkpt>
      <trkpt lat="49.1632215678691864013671875" lon="20.07100157439708709716796875"><ele>1604.800048828125</ele><time>2026-08-09T09:57:58.000Z</time></trkpt>
      <trkpt lat="49.16298176161944866180419921875" lon="20.07118019275367259979248046875"><ele>1600.199951171875</ele><time>2026-08-09T09:58:51.000Z</time></trkpt>
      <trkpt lat="49.16274237446486949920654296875" lon="20.071465261280536651611328125"><ele>1596</ele><time>2026-08-09T09:59:34.000Z</time></trkpt>
      <trkpt lat="49.16252830065786838531494140625" lon="20.07170825265347957611083984375"><ele>1590.5999755859375</ele><time>2026-08-09T10:00:17.000Z</time></trkpt>
      <trkpt lat="49.1625089384615421295166015625" lon="20.071858875453472137451171875"><ele>1590.4000244140625</ele><time>2026-08-09T10:00:49.000Z</time></trkpt>
      <trkpt lat="49.16221582330763339996337890625" lon="20.0718774832785129547119140625"><ele>1585</ele><time>2026-08-09T10:01:37.000Z</time></trkpt>
      <trkpt lat="49.16200024075806140899658203125" lon="20.07201410830020904541015625"><ele>1579.5999755859375</ele><time>2026-08-09T10:02:11.000Z</time></trkpt>
      <trkpt lat="49.1616992466151714324951171875" lon="20.07221535779535770416259765625"><ele>1573.4000244140625</ele><time>2026-08-09T10:02:57.000Z</time></trkpt>
      <trkpt lat="49.1613924689590930938720703125" lon="20.072439573705196380615234375"><ele>1568.800048828125</ele><time>2026-08-09T10:03:41.000Z</time></trkpt>
      <trkpt lat="49.161136150360107421875" lon="20.07257225923240184783935546875"><ele>1562.199951171875</ele><time>2026-08-09T10:04:25.000Z</time></trkpt>
      <trkpt lat="49.16077212430536746978759765625" lon="20.0729111395776271820068359375"><ele>1559.4000244140625</ele><time>2026-08-09T10:05:15.000Z</time></trkpt>
      <trkpt lat="49.1604962758719921112060546875" lon="20.0731734931468963623046875"><ele>1556</ele><time>2026-08-09T10:05:52.000Z</time></trkpt>
      <trkpt lat="49.16023300029337406158447265625" lon="20.07329083979129791259765625"><ele>1551.800048828125</ele><time>2026-08-09T10:06:25.000Z</time></trkpt>
      <trkpt lat="49.15990157984197139739990234375" lon="20.07332436740398406982421875"><ele>1547.4000244140625</ele><time>2026-08-09T10:07:11.000Z</time></trkpt>
      <trkpt lat="49.159652553498744964599609375" lon="20.07339720614254474639892578125"><ele>1541</ele><time>2026-08-09T10:07:49.000Z</time></trkpt>
      <trkpt lat="49.1593016870319843292236328125" lon="20.073665678501129150390625"><ele>1537.5999755859375</ele><time>2026-08-09T10:08:33.000Z</time></trkpt>
      <trkpt lat="49.15919196791946887969970703125" lon="20.07396533153951168060302734375"><ele>1538.5999755859375</ele><time>2026-08-09T10:09:01.000Z</time></trkpt>
      <trkpt lat="49.15894679725170135498046875" lon="20.07422097958624362945556640625"><ele>1542.199951171875</ele><time>2026-08-09T10:09:34.000Z</time></trkpt>
      <trkpt lat="49.15876566432416439056396484375" lon="20.07465046830475330352783203125"><ele>1542.5999755859375</ele><time>2026-08-09T10:10:12.000Z</time></trkpt>
      <trkpt lat="49.15833684615790843963623046875" lon="20.07503234781324863433837890625"><ele>1540.199951171875</ele><time>2026-08-09T10:10:58.000Z</time></trkpt>
      <trkpt lat="49.157858826220035552978515625" lon="20.075320266187191009521484375"><ele>1540.800048828125</ele><time>2026-08-09T10:11:51.000Z</time></trkpt>
      <trkpt lat="49.157492704689502716064453125" lon="20.075690746307373046875"><ele>1541.4000244140625</ele><time>2026-08-09T10:12:36.000Z</time></trkpt>
      <trkpt lat="49.1571545787155628204345703125" lon="20.07581102661788463592529296875"><ele>1537</ele><time>2026-08-09T10:13:18.000Z</time></trkpt>
      <trkpt lat="49.15676213800907135009765625" lon="20.07593742571771144866943359375"><ele>1532.199951171875</ele><time>2026-08-09T10:14:01.000Z</time></trkpt>
      <trkpt lat="49.1565628163516521453857421875" lon="20.0759561173617839813232421875"><ele>1527.5999755859375</ele><time>2026-08-09T10:14:34.000Z</time></trkpt>
      <trkpt lat="49.15630088187754154205322265625" lon="20.076039098203182220458984375"><ele>1523.199951171875</ele><time>2026-08-09T10:15:14.000Z</time></trkpt>
      <trkpt lat="49.15587105788290500640869140625" lon="20.07614412344992160797119140625"><ele>1519.800048828125</ele><time>2026-08-09T10:15:59.000Z</time></trkpt>
      <trkpt lat="49.1555955447256565093994140625" lon="20.0763302855193614959716796875"><ele>1518.5999755859375</ele><time>2026-08-09T10:16:29.000Z</time></trkpt>
      <trkpt lat="49.1552294231951236724853515625" lon="20.076929591596126556396484375"><ele>1515.5999755859375</ele><time>2026-08-09T10:17:35.000Z</time></trkpt>
      <trkpt lat="49.154949970543384552001953125" lon="20.07698164321482181549072265625"><ele>1512.199951171875</ele><time>2026-08-09T10:18:08.000Z</time></trkpt>
      <trkpt lat="49.1544552706182003021240234375" lon="20.07730183191597461700439453125"><ele>1512.199951171875</ele><time>2026-08-09T10:18:52.000Z</time></trkpt>
      <trkpt lat="49.15438972413539886474609375" lon="20.07750567980110645294189453125"><ele>1509.199951171875</ele><time>2026-08-09T10:19:29.000Z</time></trkpt>
      <trkpt lat="49.1542940028011798858642578125" lon="20.0778618268668651580810546875"><ele>1504.5999755859375</ele><time>2026-08-09T10:20:05.000Z</time></trkpt>
      <trkpt lat="49.154582507908344268798828125" lon="20.07833615876734256744384765625"><ele>1504</ele><time>2026-08-09T10:20:40.000Z</time></trkpt>
      <trkpt lat="49.15481275878846645355224609375" lon="20.078789703547954559326171875"><ele>1501.5999755859375</ele><time>2026-08-09T10:21:15.000Z</time></trkpt>
      <trkpt lat="49.1548897884786128997802734375" lon="20.07921525277197360992431640625"><ele>1497.800048828125</ele><time>2026-08-09T10:21:40.000Z</time></trkpt>
      <trkpt lat="49.15491811931133270263671875" lon="20.079534687101840972900390625"><ele>1496.4000244140625</ele><time>2026-08-09T10:22:05.000Z</time></trkpt>
    </trkseg>
  </trk>
</gpx>
