<?xml version="1.0" encoding="UTF-8"?>
<gpx creator="W Dobrym Kierunku — GPX uproszczony z Garmin Connect" version="1.1" xmlns="http://www.topografix.com/GPX/1/1" xmlns:xsi="http://www.w3.org/2001/XMLSchema-instance" xsi:schemaLocation="http://www.topografix.com/GPX/1/1 http://www.topografix.com/GPX/11.xsd">
  <metadata>
    <time>2026-04-03T06:44:33.000Z</time>
  </metadata>
  <trk>
    <name>Grań Karkonoszy - Szklarska Poręba Piesze wędrówki</name>
    <type>hiking</type>
    <trkseg>
      <trkpt lat="50.821704" lon="15.523695"><ele>645.2</ele><time>2026-04-03T06:44:39.000Z</time></trkpt>
      <trkpt lat="50.821645" lon="15.524307"><ele>647.0</ele><time>2026-04-03T06:45:30.000Z</time></trkpt>
      <trkpt lat="50.821544" lon="15.523580"><ele>650.6</ele><time>2026-04-03T06:46:17.000Z</time></trkpt>
      <trkpt lat="50.821378" lon="15.523186"><ele>654.6</ele><time>2026-04-03T06:46:51.000Z</time></trkpt>
      <trkpt lat="50.821214" lon="15.522909"><ele>660.0</ele><time>2026-04-03T06:47:21.000Z</time></trkpt>
      <trkpt lat="50.821094" lon="15.522621"><ele>665.2</ele><time>2026-04-03T06:47:50.000Z</time></trkpt>
      <trkpt lat="50.820858" lon="15.522358"><ele>670.4</ele><time>2026-04-03T06:48:27.000Z</time></trkpt>
      <trkpt lat="50.820637" lon="15.522023"><ele>673.8</ele><time>2026-04-03T06:48:59.000Z</time></trkpt>
      <trkpt lat="50.820069" lon="15.521302"><ele>675.8</ele><time>2026-04-03T06:50:06.000Z</time></trkpt>
      <trkpt lat="50.819970" lon="15.520521"><ele>679.2</ele><time>2026-04-03T06:51:02.000Z</time></trkpt>
      <trkpt lat="50.820313" lon="15.519846"><ele>681.4</ele><time>2026-04-03T06:51:50.000Z</time></trkpt>
      <trkpt lat="50.820344" lon="15.519232"><ele>684.4</ele><time>2026-04-03T06:52:38.000Z</time></trkpt>
      <trkpt lat="50.820192" lon="15.518908"><ele>687.6</ele><time>2026-04-03T06:53:08.000Z</time></trkpt>
      <trkpt lat="50.820002" lon="15.518529"><ele>691.0</ele><time>2026-04-03T06:53:46.000Z</time></trkpt>
      <trkpt lat="50.819718" lon="15.518332"><ele>694.2</ele><time>2026-04-03T06:54:17.000Z</time></trkpt>
      <trkpt lat="50.819419" lon="15.518044"><ele>697.6</ele><time>2026-04-03T06:54:53.000Z</time></trkpt>
      <trkpt lat="50.819046" lon="15.517632"><ele>700.6</ele><time>2026-04-03T06:55:36.000Z</time></trkpt>
      <trkpt lat="50.818672" lon="15.517070"><ele>703.4</ele><time>2026-04-03T06:56:27.000Z</time></trkpt>
      <trkpt lat="50.818841" lon="15.516361"><ele>706.4</ele><time>2026-04-03T06:57:10.000Z</time></trkpt>
      <trkpt lat="50.818756" lon="15.515810"><ele>708.8</ele><time>2026-04-03T06:57:52.000Z</time></trkpt>
      <trkpt lat="50.818676" lon="15.515424"><ele>707.8</ele><time>2026-04-03T06:58:41.000Z</time></trkpt>
      <trkpt lat="50.818500" lon="15.515178"><ele>706.2</ele><time>2026-04-03T06:59:12.000Z</time></trkpt>
      <trkpt lat="50.818355" lon="15.514655"><ele>706.0</ele><time>2026-04-03T06:59:47.000Z</time></trkpt>
      <trkpt lat="50.818200" lon="15.514322"><ele>709.0</ele><time>2026-04-03T07:00:22.000Z</time></trkpt>
      <trkpt lat="50.818046" lon="15.513984"><ele>712.6</ele><time>2026-04-03T07:00:51.000Z</time></trkpt>
      <trkpt lat="50.817916" lon="15.513658"><ele>716.2</ele><time>2026-04-03T07:01:19.000Z</time></trkpt>
      <trkpt lat="50.817799" lon="15.513247"><ele>719.4</ele><time>2026-04-03T07:01:53.000Z</time></trkpt>
      <trkpt lat="50.817819" lon="15.513232"><ele>718.4</ele><time>2026-04-03T07:03:15.000Z</time></trkpt>
      <trkpt lat="50.817605" lon="15.512819"><ele>720.2</ele><time>2026-04-03T07:04:31.000Z</time></trkpt>
      <trkpt lat="50.817473" lon="15.512427"><ele>722.0</ele><time>2026-04-03T07:04:56.000Z</time></trkpt>
      <trkpt lat="50.817264" lon="15.511711"><ele>723.2</ele><time>2026-04-03T07:05:41.000Z</time></trkpt>
      <trkpt lat="50.817159" lon="15.510987"><ele>723.6</ele><time>2026-04-03T07:06:24.000Z</time></trkpt>
      <trkpt lat="50.817384" lon="15.510346"><ele>725.2</ele><time>2026-04-03T07:07:03.000Z</time></trkpt>
      <trkpt lat="50.817363" lon="15.509999"><ele>725.8</ele><time>2026-04-03T07:07:29.000Z</time></trkpt>
      <trkpt lat="50.817492" lon="15.509166"><ele>726.6</ele><time>2026-04-03T07:08:14.000Z</time></trkpt>
      <trkpt lat="50.817532" lon="15.508517"><ele>728.4</ele><time>2026-04-03T07:08:58.000Z</time></trkpt>
      <trkpt lat="50.817504" lon="15.508093"><ele>729.6</ele><time>2026-04-03T07:09:39.000Z</time></trkpt>
      <trkpt lat="50.817516" lon="15.507408"><ele>731.8</ele><time>2026-04-03T07:10:15.000Z</time></trkpt>
      <trkpt lat="50.817633" lon="15.506786"><ele>733.0</ele><time>2026-04-03T07:10:52.000Z</time></trkpt>
      <trkpt lat="50.817733" lon="15.506187"><ele>737.0</ele><time>2026-04-03T07:11:33.000Z</time></trkpt>
      <trkpt lat="50.817565" lon="15.505682"><ele>739.4</ele><time>2026-04-03T07:12:08.000Z</time></trkpt>
      <trkpt lat="50.817568" lon="15.505209"><ele>743.0</ele><time>2026-04-03T07:12:44.000Z</time></trkpt>
      <trkpt lat="50.817594" lon="15.504763"><ele>746.2</ele><time>2026-04-03T07:13:21.000Z</time></trkpt>
      <trkpt lat="50.817552" lon="15.504304"><ele>749.0</ele><time>2026-04-03T07:13:55.000Z</time></trkpt>
      <trkpt lat="50.817422" lon="15.503818"><ele>752.8</ele><time>2026-04-03T07:14:37.000Z</time></trkpt>
      <trkpt lat="50.817255" lon="15.503243"><ele>757.6</ele><time>2026-04-03T07:15:21.000Z</time></trkpt>
      <trkpt lat="50.817446" lon="15.503108"><ele>760.6</ele><time>2026-04-03T07:16:02.000Z</time></trkpt>
      <trkpt lat="50.817823" lon="15.503159"><ele>761.6</ele><time>2026-04-03T07:16:49.000Z</time></trkpt>
      <trkpt lat="50.818482" lon="15.502737"><ele>760.8</ele><time>2026-04-03T07:17:46.000Z</time></trkpt>
      <trkpt lat="50.818687" lon="15.502358"><ele>760.6</ele><time>2026-04-03T07:18:31.000Z</time></trkpt>
      <trkpt lat="50.818524" lon="15.502134"><ele>762.6</ele><time>2026-04-03T07:19:38.000Z</time></trkpt>
      <trkpt lat="50.818276" lon="15.501882"><ele>765.0</ele><time>2026-04-03T07:20:06.000Z</time></trkpt>
      <trkpt lat="50.817955" lon="15.501457"><ele>768.0</ele><time>2026-04-03T07:20:44.000Z</time></trkpt>
      <trkpt lat="50.817577" lon="15.500912"><ele>771.8</ele><time>2026-04-03T07:21:32.000Z</time></trkpt>
      <trkpt lat="50.817065" lon="15.500296"><ele>775.6</ele><time>2026-04-03T07:22:26.000Z</time></trkpt>
      <trkpt lat="50.816723" lon="15.499808"><ele>778.4</ele><time>2026-04-03T07:23:04.000Z</time></trkpt>
      <trkpt lat="50.816405" lon="15.499490"><ele>782.8</ele><time>2026-04-03T07:23:39.000Z</time></trkpt>
      <trkpt lat="50.816127" lon="15.499116"><ele>788.0</ele><time>2026-04-03T07:24:18.000Z</time></trkpt>
      <trkpt lat="50.815825" lon="15.498748"><ele>793.8</ele><time>2026-04-03T07:24:56.000Z</time></trkpt>
      <trkpt lat="50.815670" lon="15.498513"><ele>798.6</ele><time>2026-04-03T07:25:25.000Z</time></trkpt>
      <trkpt lat="50.815452" lon="15.498251"><ele>805.2</ele><time>2026-04-03T07:26:02.000Z</time></trkpt>
      <trkpt lat="50.815267" lon="15.497995"><ele>810.6</ele><time>2026-04-03T07:26:35.000Z</time></trkpt>
      <trkpt lat="50.815017" lon="15.497743"><ele>817.0</ele><time>2026-04-03T07:27:11.000Z</time></trkpt>
      <trkpt lat="50.814820" lon="15.497496"><ele>823.2</ele><time>2026-04-03T07:27:44.000Z</time></trkpt>
      <trkpt lat="50.814540" lon="15.497460"><ele>827.6</ele><time>2026-04-03T07:28:31.000Z</time></trkpt>
      <trkpt lat="50.814635" lon="15.497418"><ele>828.0</ele><time>2026-04-03T07:29:14.000Z</time></trkpt>
      <trkpt lat="50.814555" lon="15.497164"><ele>831.8</ele><time>2026-04-03T07:29:57.000Z</time></trkpt>
      <trkpt lat="50.814403" lon="15.496923"><ele>837.4</ele><time>2026-04-03T07:30:31.000Z</time></trkpt>
      <trkpt lat="50.814128" lon="15.496665"><ele>843.8</ele><time>2026-04-03T07:31:14.000Z</time></trkpt>
      <trkpt lat="50.814057" lon="15.496644"><ele>844.0</ele><time>2026-04-03T07:32:31.000Z</time></trkpt>
      <trkpt lat="50.814035" lon="15.496591"><ele>845.2</ele><time>2026-04-03T07:34:07.000Z</time></trkpt>
      <trkpt lat="50.814036" lon="15.496593"><ele>843.4</ele><time>2026-04-03T07:35:39.000Z</time></trkpt>
      <trkpt lat="50.814038" lon="15.496594"><ele>843.2</ele><time>2026-04-03T07:36:35.000Z</time></trkpt>
      <trkpt lat="50.813912" lon="15.496272"><ele>846.0</ele><time>2026-04-03T07:37:40.000Z</time></trkpt>
      <trkpt lat="50.813536" lon="15.496513"><ele>847.8</ele><time>2026-04-03T07:38:19.000Z</time></trkpt>
      <trkpt lat="50.813222" lon="15.496658"><ele>850.8</ele><time>2026-04-03T07:39:02.000Z</time></trkpt>
      <trkpt lat="50.813171" lon="15.496423"><ele>852.0</ele><time>2026-04-03T07:39:34.000Z</time></trkpt>
      <trkpt lat="50.813048" lon="15.496518"><ele>854.4</ele><time>2026-04-03T07:40:27.000Z</time></trkpt>
      <trkpt lat="50.812889" lon="15.496700"><ele>859.8</ele><time>2026-04-03T07:40:53.000Z</time></trkpt>
      <trkpt lat="50.812745" lon="15.496747"><ele>865.0</ele><time>2026-04-03T07:41:24.000Z</time></trkpt>
      <trkpt lat="50.812554" lon="15.496741"><ele>869.4</ele><time>2026-04-03T07:41:56.000Z</time></trkpt>
      <trkpt lat="50.812365" lon="15.496771"><ele>874.8</ele><time>2026-04-03T07:42:36.000Z</time></trkpt>
      <trkpt lat="50.812110" lon="15.496847"><ele>878.6</ele><time>2026-04-03T07:43:10.000Z</time></trkpt>
      <trkpt lat="50.811747" lon="15.496743"><ele>883.2</ele><time>2026-04-03T07:43:55.000Z</time></trkpt>
      <trkpt lat="50.811545" lon="15.496734"><ele>886.0</ele><time>2026-04-03T07:44:30.000Z</time></trkpt>
      <trkpt lat="50.811267" lon="15.496738"><ele>890.0</ele><time>2026-04-03T07:45:07.000Z</time></trkpt>
      <trkpt lat="50.811187" lon="15.496791"><ele>893.6</ele><time>2026-04-03T07:45:43.000Z</time></trkpt>
      <trkpt lat="50.810992" lon="15.496917"><ele>898.0</ele><time>2026-04-03T07:46:18.000Z</time></trkpt>
      <trkpt lat="50.810784" lon="15.497112"><ele>902.4</ele><time>2026-04-03T07:46:50.000Z</time></trkpt>
      <trkpt lat="50.810549" lon="15.497142"><ele>905.6</ele><time>2026-04-03T07:47:18.000Z</time></trkpt>
      <trkpt lat="50.810263" lon="15.497178"><ele>911.0</ele><time>2026-04-03T07:48:02.000Z</time></trkpt>
      <trkpt lat="50.809959" lon="15.497114"><ele>915.4</ele><time>2026-04-03T07:48:45.000Z</time></trkpt>
      <trkpt lat="50.809577" lon="15.497050"><ele>920.0</ele><time>2026-04-03T07:49:30.000Z</time></trkpt>
      <trkpt lat="50.809324" lon="15.497059"><ele>923.6</ele><time>2026-04-03T07:50:02.000Z</time></trkpt>
      <trkpt lat="50.809106" lon="15.497158"><ele>927.0</ele><time>2026-04-03T07:50:31.000Z</time></trkpt>
      <trkpt lat="50.808714" lon="15.497037"><ele>931.4</ele><time>2026-04-03T07:51:19.000Z</time></trkpt>
      <trkpt lat="50.808234" lon="15.496726"><ele>936.2</ele><time>2026-04-03T07:52:19.000Z</time></trkpt>
      <trkpt lat="50.807911" lon="15.496521"><ele>939.2</ele><time>2026-04-03T07:53:01.000Z</time></trkpt>
      <trkpt lat="50.807626" lon="15.496382"><ele>943.4</ele><time>2026-04-03T07:53:44.000Z</time></trkpt>
      <trkpt lat="50.807303" lon="15.496336"><ele>947.6</ele><time>2026-04-03T07:54:21.000Z</time></trkpt>
      <trkpt lat="50.807096" lon="15.496313"><ele>951.0</ele><time>2026-04-03T07:55:04.000Z</time></trkpt>
      <trkpt lat="50.806860" lon="15.496289"><ele>954.4</ele><time>2026-04-03T07:55:38.000Z</time></trkpt>
      <trkpt lat="50.806751" lon="15.496343"><ele>956.0</ele><time>2026-04-03T07:55:58.000Z</time></trkpt>
      <trkpt lat="50.806597" lon="15.496448"><ele>959.8</ele><time>2026-04-03T07:56:33.000Z</time></trkpt>
      <trkpt lat="50.806515" lon="15.496428"><ele>961.4</ele><time>2026-04-03T07:57:01.000Z</time></trkpt>
      <trkpt lat="50.806460" lon="15.496379"><ele>963.4</ele><time>2026-04-03T07:59:02.000Z</time></trkpt>
      <trkpt lat="50.806172" lon="15.496496"><ele>968.2</ele><time>2026-04-03T07:59:38.000Z</time></trkpt>
      <trkpt lat="50.805941" lon="15.496734"><ele>973.6</ele><time>2026-04-03T08:00:16.000Z</time></trkpt>
      <trkpt lat="50.805777" lon="15.496788"><ele>978.6</ele><time>2026-04-03T08:00:54.000Z</time></trkpt>
      <trkpt lat="50.805600" lon="15.496827"><ele>983.2</ele><time>2026-04-03T08:01:36.000Z</time></trkpt>
      <trkpt lat="50.805441" lon="15.496921"><ele>987.4</ele><time>2026-04-03T08:02:16.000Z</time></trkpt>
      <trkpt lat="50.805233" lon="15.496960"><ele>992.8</ele><time>2026-04-03T08:03:01.000Z</time></trkpt>
      <trkpt lat="50.805037" lon="15.497043"><ele>996.8</ele><time>2026-04-03T08:03:41.000Z</time></trkpt>
      <trkpt lat="50.804813" lon="15.497064"><ele>1001.0</ele><time>2026-04-03T08:04:14.000Z</time></trkpt>
      <trkpt lat="50.804536" lon="15.497052"><ele>1006.0</ele><time>2026-04-03T08:04:59.000Z</time></trkpt>
      <trkpt lat="50.804272" lon="15.497200"><ele>1009.4</ele><time>2026-04-03T08:05:40.000Z</time></trkpt>
      <trkpt lat="50.804019" lon="15.497354"><ele>1013.0</ele><time>2026-04-03T08:06:26.000Z</time></trkpt>
      <trkpt lat="50.803718" lon="15.497497"><ele>1017.0</ele><time>2026-04-03T08:07:17.000Z</time></trkpt>
      <trkpt lat="50.803395" lon="15.497680"><ele>1023.4</ele><time>2026-04-03T08:08:12.000Z</time></trkpt>
      <trkpt lat="50.803149" lon="15.497795"><ele>1027.4</ele><time>2026-04-03T08:08:52.000Z</time></trkpt>
      <trkpt lat="50.802870" lon="15.497934"><ele>1032.4</ele><time>2026-04-03T08:09:35.000Z</time></trkpt>
      <trkpt lat="50.802604" lon="15.498130"><ele>1036.6</ele><time>2026-04-03T08:10:18.000Z</time></trkpt>
      <trkpt lat="50.802367" lon="15.498211"><ele>1039.8</ele><time>2026-04-03T08:10:59.000Z</time></trkpt>
      <trkpt lat="50.802036" lon="15.498426"><ele>1044.0</ele><time>2026-04-03T08:11:45.000Z</time></trkpt>
      <trkpt lat="50.801667" lon="15.498535"><ele>1048.4</ele><time>2026-04-03T08:12:25.000Z</time></trkpt>
      <trkpt lat="50.801430" lon="15.498719"><ele>1053.6</ele><time>2026-04-03T08:13:05.000Z</time></trkpt>
      <trkpt lat="50.801208" lon="15.498981"><ele>1059.0</ele><time>2026-04-03T08:13:51.000Z</time></trkpt>
      <trkpt lat="50.801011" lon="15.499202"><ele>1063.8</ele><time>2026-04-03T08:14:30.000Z</time></trkpt>
      <trkpt lat="50.800780" lon="15.499517"><ele>1069.8</ele><time>2026-04-03T08:15:18.000Z</time></trkpt>
      <trkpt lat="50.800568" lon="15.499732"><ele>1075.2</ele><time>2026-04-03T08:15:59.000Z</time></trkpt>
      <trkpt lat="50.800087" lon="15.499810"><ele>1081.0</ele><time>2026-04-03T08:16:48.000Z</time></trkpt>
      <trkpt lat="50.799895" lon="15.499912"><ele>1084.8</ele><time>2026-04-03T08:17:21.000Z</time></trkpt>
      <trkpt lat="50.799696" lon="15.500010"><ele>1088.8</ele><time>2026-04-03T08:17:57.000Z</time></trkpt>
      <trkpt lat="50.799494" lon="15.500024"><ele>1093.2</ele><time>2026-04-03T08:18:28.000Z</time></trkpt>
      <trkpt lat="50.799220" lon="15.500130"><ele>1098.2</ele><time>2026-04-03T08:19:00.000Z</time></trkpt>
      <trkpt lat="50.799005" lon="15.500230"><ele>1102.4</ele><time>2026-04-03T08:19:38.000Z</time></trkpt>
      <trkpt lat="50.798882" lon="15.500326"><ele>1107.0</ele><time>2026-04-03T08:20:17.000Z</time></trkpt>
      <trkpt lat="50.798687" lon="15.500509"><ele>1112.0</ele><time>2026-04-03T08:20:56.000Z</time></trkpt>
      <trkpt lat="50.798427" lon="15.500724"><ele>1116.8</ele><time>2026-04-03T08:21:41.000Z</time></trkpt>
      <trkpt lat="50.798293" lon="15.500882"><ele>1120.0</ele><time>2026-04-03T08:22:18.000Z</time></trkpt>
      <trkpt lat="50.798157" lon="15.501031"><ele>1124.2</ele><time>2026-04-03T08:22:49.000Z</time></trkpt>
      <trkpt lat="50.797939" lon="15.501137"><ele>1129.6</ele><time>2026-04-03T08:23:30.000Z</time></trkpt>
      <trkpt lat="50.797668" lon="15.501123"><ele>1133.6</ele><time>2026-04-03T08:24:53.000Z</time></trkpt>
      <trkpt lat="50.797254" lon="15.501144"><ele>1139.2</ele><time>2026-04-03T08:25:48.000Z</time></trkpt>
      <trkpt lat="50.797022" lon="15.501168"><ele>1143.6</ele><time>2026-04-03T08:26:26.000Z</time></trkpt>
      <trkpt lat="50.796768" lon="15.501123"><ele>1147.2</ele><time>2026-04-03T08:27:02.000Z</time></trkpt>
      <trkpt lat="50.796480" lon="15.501185"><ele>1152.0</ele><time>2026-04-03T08:27:43.000Z</time></trkpt>
      <trkpt lat="50.796240" lon="15.501166"><ele>1156.8</ele><time>2026-04-03T08:28:26.000Z</time></trkpt>
      <trkpt lat="50.796003" lon="15.501189"><ele>1161.8</ele><time>2026-04-03T08:29:19.000Z</time></trkpt>
      <trkpt lat="50.795731" lon="15.501225"><ele>1168.0</ele><time>2026-04-03T08:30:19.000Z</time></trkpt>
      <trkpt lat="50.795512" lon="15.501283"><ele>1173.0</ele><time>2026-04-03T08:31:09.000Z</time></trkpt>
      <trkpt lat="50.795178" lon="15.501353"><ele>1178.6</ele><time>2026-04-03T08:32:02.000Z</time></trkpt>
      <trkpt lat="50.794839" lon="15.501415"><ele>1185.4</ele><time>2026-04-03T08:32:57.000Z</time></trkpt>
      <trkpt lat="50.794530" lon="15.501453"><ele>1191.8</ele><time>2026-04-03T08:33:51.000Z</time></trkpt>
      <trkpt lat="50.794285" lon="15.501465"><ele>1197.0</ele><time>2026-04-03T08:34:39.000Z</time></trkpt>
      <trkpt lat="50.794160" lon="15.501630"><ele>1201.0</ele><time>2026-04-03T08:35:30.000Z</time></trkpt>
      <trkpt lat="50.794271" lon="15.501612"><ele>1201.2</ele><time>2026-04-03T08:36:30.000Z</time></trkpt>
      <trkpt lat="50.794201" lon="15.501613"><ele>1200.8</ele><time>2026-04-03T08:37:33.000Z</time></trkpt>
      <trkpt lat="50.794214" lon="15.501627"><ele>1200.6</ele><time>2026-04-03T08:38:03.000Z</time></trkpt>
      <trkpt lat="50.794250" lon="15.501649"><ele>1200.6</ele><time>2026-04-03T08:39:11.000Z</time></trkpt>
      <trkpt lat="50.794146" lon="15.501643"><ele>1200.2</ele><time>2026-04-03T08:40:17.000Z</time></trkpt>
      <trkpt lat="50.794290" lon="15.501422"><ele>1200.2</ele><time>2026-04-03T08:40:52.000Z</time></trkpt>
      <trkpt lat="50.794317" lon="15.501673"><ele>1199.8</ele><time>2026-04-03T08:41:33.000Z</time></trkpt>
      <trkpt lat="50.794318" lon="15.501566"><ele>1199.4</ele><time>2026-04-03T08:42:18.000Z</time></trkpt>
      <trkpt lat="50.794344" lon="15.501613"><ele>1199.6</ele><time>2026-04-03T08:43:15.000Z</time></trkpt>
      <trkpt lat="50.794264" lon="15.501655"><ele>1199.4</ele><time>2026-04-03T08:44:11.000Z</time></trkpt>
      <trkpt lat="50.794268" lon="15.501837"><ele>1199.4</ele><time>2026-04-03T08:44:56.000Z</time></trkpt>
      <trkpt lat="50.794237" lon="15.501338"><ele>1198.4</ele><time>2026-04-03T08:46:31.000Z</time></trkpt>
      <trkpt lat="50.793997" lon="15.501642"><ele>1201.4</ele><time>2026-04-03T08:47:26.000Z</time></trkpt>
      <trkpt lat="50.794340" lon="15.501588"><ele>1200.2</ele><time>2026-04-03T08:48:13.000Z</time></trkpt>
      <trkpt lat="50.794363" lon="15.501603"><ele>1200.4</ele><time>2026-04-03T08:48:38.000Z</time></trkpt>
      <trkpt lat="50.794399" lon="15.501623"><ele>1201.2</ele><time>2026-04-03T08:49:15.000Z</time></trkpt>
      <trkpt lat="50.794396" lon="15.501629"><ele>1201.0</ele><time>2026-04-03T08:49:34.000Z</time></trkpt>
      <trkpt lat="50.794334" lon="15.501690"><ele>1201.0</ele><time>2026-04-03T08:50:06.000Z</time></trkpt>
      <trkpt lat="50.794301" lon="15.501691"><ele>1200.6</ele><time>2026-04-03T08:51:01.000Z</time></trkpt>
      <trkpt lat="50.794238" lon="15.501719"><ele>1199.8</ele><time>2026-04-03T08:51:53.000Z</time></trkpt>
      <trkpt lat="50.794283" lon="15.501674"><ele>1199.8</ele><time>2026-04-03T08:52:42.000Z</time></trkpt>
      <trkpt lat="50.794256" lon="15.501642"><ele>1198.8</ele><time>2026-04-03T08:53:39.000Z</time></trkpt>
      <trkpt lat="50.794321" lon="15.501704"><ele>1197.4</ele><time>2026-04-03T08:55:02.000Z</time></trkpt>
      <trkpt lat="50.794266" lon="15.501697"><ele>1196.4</ele><time>2026-04-03T08:57:56.000Z</time></trkpt>
      <trkpt lat="50.794266" lon="15.501618"><ele>1195.8</ele><time>2026-04-03T08:59:13.000Z</time></trkpt>
      <trkpt lat="50.794312" lon="15.501683"><ele>1196.0</ele><time>2026-04-03T09:01:27.000Z</time></trkpt>
      <trkpt lat="50.794373" lon="15.501730"><ele>1196.2</ele><time>2026-04-03T09:02:44.000Z</time></trkpt>
      <trkpt lat="50.794277" lon="15.501697"><ele>1196.0</ele><time>2026-04-03T09:03:27.000Z</time></trkpt>
      <trkpt lat="50.794278" lon="15.501716"><ele>1195.6</ele><time>2026-04-03T09:03:46.000Z</time></trkpt>
      <trkpt lat="50.794329" lon="15.501712"><ele>1196.6</ele><time>2026-04-03T09:05:00.000Z</time></trkpt>
      <trkpt lat="50.794411" lon="15.501687"><ele>1197.0</ele><time>2026-04-03T09:05:41.000Z</time></trkpt>
      <trkpt lat="50.794470" lon="15.501717"><ele>1197.4</ele><time>2026-04-03T09:06:26.000Z</time></trkpt>
      <trkpt lat="50.794405" lon="15.501678"><ele>1196.4</ele><time>2026-04-03T09:08:06.000Z</time></trkpt>
      <trkpt lat="50.794375" lon="15.501606"><ele>1195.0</ele><time>2026-04-03T09:09:53.000Z</time></trkpt>
      <trkpt lat="50.794335" lon="15.501683"><ele>1195.6</ele><time>2026-04-03T09:11:03.000Z</time></trkpt>
      <trkpt lat="50.794296" lon="15.501694"><ele>1195.2</ele><time>2026-04-03T09:12:20.000Z</time></trkpt>
      <trkpt lat="50.794275" lon="15.501664"><ele>1195.8</ele><time>2026-04-03T09:13:05.000Z</time></trkpt>
      <trkpt lat="50.794179" lon="15.501549"><ele>1194.2</ele><time>2026-04-03T09:13:33.000Z</time></trkpt>
      <trkpt lat="50.793941" lon="15.501382"><ele>1192.0</ele><time>2026-04-03T09:14:10.000Z</time></trkpt>
      <trkpt lat="50.794130" lon="15.501490"><ele>1191.4</ele><time>2026-04-03T09:14:39.000Z</time></trkpt>
      <trkpt lat="50.794371" lon="15.501427"><ele>1188.6</ele><time>2026-04-03T09:15:26.000Z</time></trkpt>
      <trkpt lat="50.794175" lon="15.501012"><ele>1190.2</ele><time>2026-04-03T09:16:16.000Z</time></trkpt>
      <trkpt lat="50.793938" lon="15.500987"><ele>1194.4</ele><time>2026-04-03T09:16:56.000Z</time></trkpt>
      <trkpt lat="50.793667" lon="15.501029"><ele>1200.0</ele><time>2026-04-03T09:17:39.000Z</time></trkpt>
      <trkpt lat="50.793427" lon="15.501210"><ele>1205.2</ele><time>2026-04-03T09:18:25.000Z</time></trkpt>
      <trkpt lat="50.793302" lon="15.501676"><ele>1210.6</ele><time>2026-04-03T09:19:14.000Z</time></trkpt>
      <trkpt lat="50.793351" lon="15.502383"><ele>1214.0</ele><time>2026-04-03T09:20:14.000Z</time></trkpt>
      <trkpt lat="50.793344" lon="15.502394"><ele>1215.2</ele><time>2026-04-03T09:21:28.000Z</time></trkpt>
      <trkpt lat="50.793423" lon="15.502925"><ele>1217.4</ele><time>2026-04-03T09:23:03.000Z</time></trkpt>
      <trkpt lat="50.793354" lon="15.503257"><ele>1222.2</ele><time>2026-04-03T09:23:39.000Z</time></trkpt>
      <trkpt lat="50.793230" lon="15.503649"><ele>1228.8</ele><time>2026-04-03T09:24:24.000Z</time></trkpt>
      <trkpt lat="50.793082" lon="15.504120"><ele>1235.6</ele><time>2026-04-03T09:25:19.000Z</time></trkpt>
      <trkpt lat="50.792976" lon="15.504484"><ele>1240.8</ele><time>2026-04-03T09:26:02.000Z</time></trkpt>
      <trkpt lat="50.792848" lon="15.504989"><ele>1247.2</ele><time>2026-04-03T09:26:59.000Z</time></trkpt>
      <trkpt lat="50.792773" lon="15.505394"><ele>1252.4</ele><time>2026-04-03T09:27:45.000Z</time></trkpt>
      <trkpt lat="50.792685" lon="15.505751"><ele>1257.6</ele><time>2026-04-03T09:28:26.000Z</time></trkpt>
      <trkpt lat="50.792592" lon="15.505949"><ele>1261.2</ele><time>2026-04-03T09:28:52.000Z</time></trkpt>
      <trkpt lat="50.792360" lon="15.506175"><ele>1267.2</ele><time>2026-04-03T09:29:44.000Z</time></trkpt>
      <trkpt lat="50.792164" lon="15.506376"><ele>1271.6</ele><time>2026-04-03T09:30:24.000Z</time></trkpt>
      <trkpt lat="50.791909" lon="15.506611"><ele>1278.0</ele><time>2026-04-03T09:31:15.000Z</time></trkpt>
      <trkpt lat="50.791677" lon="15.506900"><ele>1283.4</ele><time>2026-04-03T09:32:01.000Z</time></trkpt>
      <trkpt lat="50.791496" lon="15.507196"><ele>1288.8</ele><time>2026-04-03T09:32:40.000Z</time></trkpt>
      <trkpt lat="50.791231" lon="15.507564"><ele>1293.8</ele><time>2026-04-03T09:33:31.000Z</time></trkpt>
      <trkpt lat="50.790996" lon="15.507953"><ele>1298.4</ele><time>2026-04-03T09:34:12.000Z</time></trkpt>
      <trkpt lat="50.790803" lon="15.508584"><ele>1302.8</ele><time>2026-04-03T09:35:02.000Z</time></trkpt>
      <trkpt lat="50.790661" lon="15.509423"><ele>1306.4</ele><time>2026-04-03T09:35:59.000Z</time></trkpt>
      <trkpt lat="50.790696" lon="15.509705"><ele>1307.6</ele><time>2026-04-03T09:36:28.000Z</time></trkpt>
      <trkpt lat="50.790443" lon="15.510324"><ele>1309.8</ele><time>2026-04-03T09:37:26.000Z</time></trkpt>
      <trkpt lat="50.790266" lon="15.510920"><ele>1312.2</ele><time>2026-04-03T09:38:10.000Z</time></trkpt>
      <trkpt lat="50.789853" lon="15.511715"><ele>1312.6</ele><time>2026-04-03T09:39:15.000Z</time></trkpt>
      <trkpt lat="50.789345" lon="15.511949"><ele>1311.0</ele><time>2026-04-03T09:40:15.000Z</time></trkpt>
      <trkpt lat="50.788673" lon="15.512216"><ele>1309.8</ele><time>2026-04-03T09:41:27.000Z</time></trkpt>
      <trkpt lat="50.788379" lon="15.512491"><ele>1306.6</ele><time>2026-04-03T09:42:15.000Z</time></trkpt>
      <trkpt lat="50.788233" lon="15.512631"><ele>1303.4</ele><time>2026-04-03T09:42:40.000Z</time></trkpt>
      <trkpt lat="50.788081" lon="15.512772"><ele>1301.6</ele><time>2026-04-03T09:43:11.000Z</time></trkpt>
      <trkpt lat="50.787698" lon="15.513175"><ele>1296.8</ele><time>2026-04-03T09:44:03.000Z</time></trkpt>
      <trkpt lat="50.787431" lon="15.513493"><ele>1293.2</ele><time>2026-04-03T09:44:41.000Z</time></trkpt>
      <trkpt lat="50.787198" lon="15.513767"><ele>1289.2</ele><time>2026-04-03T09:45:18.000Z</time></trkpt>
      <trkpt lat="50.786825" lon="15.514129"><ele>1285.4</ele><time>2026-04-03T09:46:21.000Z</time></trkpt>
      <trkpt lat="50.786530" lon="15.514413"><ele>1284.2</ele><time>2026-04-03T09:47:14.000Z</time></trkpt>
      <trkpt lat="50.785855" lon="15.515043"><ele>1283.6</ele><time>2026-04-03T09:48:27.000Z</time></trkpt>
      <trkpt lat="50.785379" lon="15.515501"><ele>1286.2</ele><time>2026-04-03T09:49:36.000Z</time></trkpt>
      <trkpt lat="50.784937" lon="15.515741"><ele>1289.4</ele><time>2026-04-03T09:50:25.000Z</time></trkpt>
      <trkpt lat="50.784612" lon="15.515970"><ele>1295.8</ele><time>2026-04-03T09:51:19.000Z</time></trkpt>
      <trkpt lat="50.784377" lon="15.516192"><ele>1301.4</ele><time>2026-04-03T09:52:06.000Z</time></trkpt>
      <trkpt lat="50.784399" lon="15.516704"><ele>1307.0</ele><time>2026-04-03T09:52:55.000Z</time></trkpt>
      <trkpt lat="50.784091" lon="15.517078"><ele>1313.6</ele><time>2026-04-03T09:53:53.000Z</time></trkpt>
      <trkpt lat="50.783699" lon="15.517434"><ele>1317.8</ele><time>2026-04-03T09:54:48.000Z</time></trkpt>
      <trkpt lat="50.783331" lon="15.517484"><ele>1324.2</ele><time>2026-04-03T09:55:37.000Z</time></trkpt>
      <trkpt lat="50.782904" lon="15.517740"><ele>1328.8</ele><time>2026-04-03T09:56:27.000Z</time></trkpt>
      <trkpt lat="50.782600" lon="15.518346"><ele>1332.0</ele><time>2026-04-03T09:57:20.000Z</time></trkpt>
      <trkpt lat="50.782227" lon="15.519221"><ele>1335.8</ele><time>2026-04-03T09:58:31.000Z</time></trkpt>
      <trkpt lat="50.781924" lon="15.519692"><ele>1340.0</ele><time>2026-04-03T09:59:27.000Z</time></trkpt>
      <trkpt lat="50.781673" lon="15.520175"><ele>1342.8</ele><time>2026-04-03T10:00:37.000Z</time></trkpt>
      <trkpt lat="50.781437" lon="15.520604"><ele>1344.8</ele><time>2026-04-03T10:01:36.000Z</time></trkpt>
      <trkpt lat="50.781106" lon="15.521260"><ele>1349.0</ele><time>2026-04-03T10:02:33.000Z</time></trkpt>
      <trkpt lat="50.780717" lon="15.521921"><ele>1354.4</ele><time>2026-04-03T10:03:38.000Z</time></trkpt>
      <trkpt lat="50.780480" lon="15.522295"><ele>1357.6</ele><time>2026-04-03T10:04:15.000Z</time></trkpt>
      <trkpt lat="50.780202" lon="15.522758"><ele>1361.8</ele><time>2026-04-03T10:05:03.000Z</time></trkpt>
      <trkpt lat="50.779817" lon="15.523391"><ele>1367.2</ele><time>2026-04-03T10:06:06.000Z</time></trkpt>
      <trkpt lat="50.779464" lon="15.524073"><ele>1372.0</ele><time>2026-04-03T10:07:07.000Z</time></trkpt>
      <trkpt lat="50.779309" lon="15.525002"><ele>1373.6</ele><time>2026-04-03T10:08:06.000Z</time></trkpt>
      <trkpt lat="50.779127" lon="15.526385"><ele>1375.4</ele><time>2026-04-03T10:09:31.000Z</time></trkpt>
      <trkpt lat="50.779170" lon="15.527123"><ele>1377.6</ele><time>2026-04-03T10:10:19.000Z</time></trkpt>
      <trkpt lat="50.779199" lon="15.527380"><ele>1379.2</ele><time>2026-04-03T10:11:15.000Z</time></trkpt>
      <trkpt lat="50.779076" lon="15.528063"><ele>1383.8</ele><time>2026-04-03T10:12:02.000Z</time></trkpt>
      <trkpt lat="50.779292" lon="15.528778"><ele>1388.0</ele><time>2026-04-03T10:12:58.000Z</time></trkpt>
      <trkpt lat="50.779446" lon="15.529443"><ele>1392.6</ele><time>2026-04-03T10:13:52.000Z</time></trkpt>
      <trkpt lat="50.779560" lon="15.530596"><ele>1396.8</ele><time>2026-04-03T10:15:06.000Z</time></trkpt>
      <trkpt lat="50.779361" lon="15.531806"><ele>1398.2</ele><time>2026-04-03T10:16:22.000Z</time></trkpt>
      <trkpt lat="50.779115" lon="15.533378"><ele>1398.8</ele><time>2026-04-03T10:17:57.000Z</time></trkpt>
      <trkpt lat="50.779213" lon="15.534201"><ele>1399.6</ele><time>2026-04-03T10:18:54.000Z</time></trkpt>
      <trkpt lat="50.779376" lon="15.535113"><ele>1400.2</ele><time>2026-04-03T10:19:51.000Z</time></trkpt>
      <trkpt lat="50.779503" lon="15.535772"><ele>1400.6</ele><time>2026-04-03T10:20:43.000Z</time></trkpt>
      <trkpt lat="50.779674" lon="15.536616"><ele>1403.4</ele><time>2026-04-03T10:21:39.000Z</time></trkpt>
      <trkpt lat="50.779845" lon="15.537395"><ele>1407.2</ele><time>2026-04-03T10:22:33.000Z</time></trkpt>
      <trkpt lat="50.779984" lon="15.538063"><ele>1410.4</ele><time>2026-04-03T10:23:19.000Z</time></trkpt>
      <trkpt lat="50.780044" lon="15.538468"><ele>1412.6</ele><time>2026-04-03T10:23:48.000Z</time></trkpt>
      <trkpt lat="50.780153" lon="15.539173"><ele>1416.8</ele><time>2026-04-03T10:24:39.000Z</time></trkpt>
      <trkpt lat="50.780220" lon="15.539950"><ele>1419.6</ele><time>2026-04-03T10:25:43.000Z</time></trkpt>
      <trkpt lat="50.780241" lon="15.540695"><ele>1423.8</ele><time>2026-04-03T10:26:32.000Z</time></trkpt>
      <trkpt lat="50.780210" lon="15.541677"><ele>1426.8</ele><time>2026-04-03T10:27:33.000Z</time></trkpt>
      <trkpt lat="50.780211" lon="15.542165"><ele>1427.4</ele><time>2026-04-03T10:28:13.000Z</time></trkpt>
      <trkpt lat="50.780199" lon="15.543070"><ele>1431.2</ele><time>2026-04-03T10:29:16.000Z</time></trkpt>
      <trkpt lat="50.780075" lon="15.543609"><ele>1433.2</ele><time>2026-04-03T10:30:01.000Z</time></trkpt>
      <trkpt lat="50.780004" lon="15.544362"><ele>1437.6</ele><time>2026-04-03T10:30:57.000Z</time></trkpt>
      <trkpt lat="50.779921" lon="15.545222"><ele>1442.8</ele><time>2026-04-03T10:32:00.000Z</time></trkpt>
      <trkpt lat="50.780046" lon="15.545832"><ele>1446.6</ele><time>2026-04-03T10:32:47.000Z</time></trkpt>
      <trkpt lat="50.780043" lon="15.546607"><ele>1443.8</ele><time>2026-04-03T10:33:39.000Z</time></trkpt>
      <trkpt lat="50.779979" lon="15.547447"><ele>1440.6</ele><time>2026-04-03T10:34:29.000Z</time></trkpt>
      <trkpt lat="50.779909" lon="15.548612"><ele>1441.4</ele><time>2026-04-03T10:35:49.000Z</time></trkpt>
      <trkpt lat="50.779903" lon="15.549028"><ele>1443.8</ele><time>2026-04-03T10:36:21.000Z</time></trkpt>
      <trkpt lat="50.779856" lon="15.549588"><ele>1447.0</ele><time>2026-04-03T10:37:01.000Z</time></trkpt>
      <trkpt lat="50.779819" lon="15.550227"><ele>1451.6</ele><time>2026-04-03T10:37:46.000Z</time></trkpt>
      <trkpt lat="50.779819" lon="15.550758"><ele>1456.0</ele><time>2026-04-03T10:38:26.000Z</time></trkpt>
      <trkpt lat="50.779835" lon="15.551203"><ele>1459.6</ele><time>2026-04-03T10:39:03.000Z</time></trkpt>
      <trkpt lat="50.779832" lon="15.551650"><ele>1464.2</ele><time>2026-04-03T10:39:41.000Z</time></trkpt>
      <trkpt lat="50.779736" lon="15.552269"><ele>1470.4</ele><time>2026-04-03T10:40:28.000Z</time></trkpt>
      <trkpt lat="50.779741" lon="15.552930"><ele>1474.8</ele><time>2026-04-03T10:41:16.000Z</time></trkpt>
      <trkpt lat="50.779740" lon="15.553487"><ele>1478.2</ele><time>2026-04-03T10:41:55.000Z</time></trkpt>
      <trkpt lat="50.779567" lon="15.554389"><ele>1482.2</ele><time>2026-04-03T10:43:02.000Z</time></trkpt>
      <trkpt lat="50.779388" lon="15.555263"><ele>1482.6</ele><time>2026-04-03T10:43:58.000Z</time></trkpt>
      <trkpt lat="50.779202" lon="15.556256"><ele>1483.4</ele><time>2026-04-03T10:44:58.000Z</time></trkpt>
      <trkpt lat="50.779038" lon="15.556930"><ele>1484.8</ele><time>2026-04-03T10:45:48.000Z</time></trkpt>
      <trkpt lat="50.779019" lon="15.557026"><ele>1487.0</ele><time>2026-04-03T10:47:03.000Z</time></trkpt>
      <trkpt lat="50.779050" lon="15.557087"><ele>1488.8</ele><time>2026-04-03T10:50:25.000Z</time></trkpt>
      <trkpt lat="50.778781" lon="15.557124"><ele>1491.6</ele><time>2026-04-03T10:51:03.000Z</time></trkpt>
      <trkpt lat="50.778425" lon="15.557222"><ele>1491.0</ele><time>2026-04-03T10:51:45.000Z</time></trkpt>
      <trkpt lat="50.777957" lon="15.557176"><ele>1486.8</ele><time>2026-04-03T10:52:42.000Z</time></trkpt>
      <trkpt lat="50.777630" lon="15.557535"><ele>1483.4</ele><time>2026-04-03T10:53:26.000Z</time></trkpt>
      <trkpt lat="50.777438" lon="15.557883"><ele>1481.6</ele><time>2026-04-03T10:54:08.000Z</time></trkpt>
      <trkpt lat="50.777477" lon="15.558467"><ele>1482.2</ele><time>2026-04-03T10:54:53.000Z</time></trkpt>
      <trkpt lat="50.777527" lon="15.558594"><ele>1482.0</ele><time>2026-04-03T10:56:24.000Z</time></trkpt>
      <trkpt lat="50.777481" lon="15.558580"><ele>1481.4</ele><time>2026-04-03T10:58:27.000Z</time></trkpt>
      <trkpt lat="50.777063" lon="15.558619"><ele>1478.2</ele><time>2026-04-03T10:59:21.000Z</time></trkpt>
      <trkpt lat="50.776767" lon="15.559159"><ele>1476.6</ele><time>2026-04-03T11:00:20.000Z</time></trkpt>
      <trkpt lat="50.776722" lon="15.559902"><ele>1477.8</ele><time>2026-04-03T11:01:15.000Z</time></trkpt>
      <trkpt lat="50.776846" lon="15.560448"><ele>1480.6</ele><time>2026-04-03T11:02:02.000Z</time></trkpt>
      <trkpt lat="50.777184" lon="15.560797"><ele>1480.2</ele><time>2026-04-03T11:03:19.000Z</time></trkpt>
      <trkpt lat="50.777158" lon="15.560887"><ele>1478.4</ele><time>2026-04-03T11:04:34.000Z</time></trkpt>
      <trkpt lat="50.776999" lon="15.561573"><ele>1480.2</ele><time>2026-04-03T11:05:29.000Z</time></trkpt>
      <trkpt lat="50.776723" lon="15.562453"><ele>1481.8</ele><time>2026-04-03T11:06:40.000Z</time></trkpt>
      <trkpt lat="50.776932" lon="15.563024"><ele>1480.4</ele><time>2026-04-03T11:07:34.000Z</time></trkpt>
      <trkpt lat="50.777260" lon="15.563341"><ele>1475.4</ele><time>2026-04-03T11:08:26.000Z</time></trkpt>
      <trkpt lat="50.777422" lon="15.563137"><ele>1472.0</ele><time>2026-04-03T11:09:06.000Z</time></trkpt>
      <trkpt lat="50.777539" lon="15.562919"><ele>1468.0</ele><time>2026-04-03T11:09:52.000Z</time></trkpt>
      <trkpt lat="50.777534" lon="15.562911"><ele>1469.8</ele><time>2026-04-03T11:10:44.000Z</time></trkpt>
      <trkpt lat="50.777537" lon="15.563010"><ele>1468.8</ele><time>2026-04-03T11:12:46.000Z</time></trkpt>
      <trkpt lat="50.777536" lon="15.563021"><ele>1469.8</ele><time>2026-04-03T11:13:45.000Z</time></trkpt>
      <trkpt lat="50.777320" lon="15.563316"><ele>1475.6</ele><time>2026-04-03T11:14:22.000Z</time></trkpt>
      <trkpt lat="50.777114" lon="15.563519"><ele>1479.0</ele><time>2026-04-03T11:15:10.000Z</time></trkpt>
      <trkpt lat="50.777026" lon="15.564047"><ele>1481.4</ele><time>2026-04-03T11:15:59.000Z</time></trkpt>
      <trkpt lat="50.776971" lon="15.564798"><ele>1483.6</ele><time>2026-04-03T11:17:01.000Z</time></trkpt>
      <trkpt lat="50.777006" lon="15.565377"><ele>1487.8</ele><time>2026-04-03T11:17:54.000Z</time></trkpt>
      <trkpt lat="50.776875" lon="15.565812"><ele>1489.6</ele><time>2026-04-03T11:18:47.000Z</time></trkpt>
      <trkpt lat="50.776718" lon="15.565990"><ele>1491.2</ele><time>2026-04-03T11:19:21.000Z</time></trkpt>
      <trkpt lat="50.776464" lon="15.566334"><ele>1491.4</ele><time>2026-04-03T11:20:03.000Z</time></trkpt>
      <trkpt lat="50.776326" lon="15.566321"><ele>1490.8</ele><time>2026-04-03T11:20:29.000Z</time></trkpt>
      <trkpt lat="50.776056" lon="15.566288"><ele>1488.8</ele><time>2026-04-03T11:21:19.000Z</time></trkpt>
      <trkpt lat="50.775685" lon="15.566379"><ele>1484.0</ele><time>2026-04-03T11:22:05.000Z</time></trkpt>
      <trkpt lat="50.775519" lon="15.566557"><ele>1480.8</ele><time>2026-04-03T11:22:37.000Z</time></trkpt>
      <trkpt lat="50.775377" lon="15.566597"><ele>1478.0</ele><time>2026-04-03T11:23:13.000Z</time></trkpt>
      <trkpt lat="50.775106" lon="15.566727"><ele>1472.4</ele><time>2026-04-03T11:23:57.000Z</time></trkpt>
      <trkpt lat="50.774974" lon="15.567102"><ele>1468.2</ele><time>2026-04-03T11:25:07.000Z</time></trkpt>
      <trkpt lat="50.774859" lon="15.567783"><ele>1460.8</ele><time>2026-04-03T11:26:00.000Z</time></trkpt>
      <trkpt lat="50.774844" lon="15.568309"><ele>1454.8</ele><time>2026-04-03T11:26:46.000Z</time></trkpt>
      <trkpt lat="50.774823" lon="15.568642"><ele>1450.2</ele><time>2026-04-03T11:27:25.000Z</time></trkpt>
      <trkpt lat="50.774934" lon="15.569182"><ele>1446.0</ele><time>2026-04-03T11:28:15.000Z</time></trkpt>
      <trkpt lat="50.775114" lon="15.569598"><ele>1446.0</ele><time>2026-04-03T11:29:06.000Z</time></trkpt>
      <trkpt lat="50.775176" lon="15.569847"><ele>1442.2</ele><time>2026-04-03T11:29:37.000Z</time></trkpt>
      <trkpt lat="50.775333" lon="15.570204"><ele>1440.0</ele><time>2026-04-03T11:30:10.000Z</time></trkpt>
      <trkpt lat="50.775472" lon="15.570407"><ele>1438.8</ele><time>2026-04-03T11:30:42.000Z</time></trkpt>
      <trkpt lat="50.775502" lon="15.570476"><ele>1440.8</ele><time>2026-04-03T11:31:04.000Z</time></trkpt>
      <trkpt lat="50.775680" lon="15.570689"><ele>1438.2</ele><time>2026-04-03T11:31:43.000Z</time></trkpt>
      <trkpt lat="50.775885" lon="15.570964"><ele>1432.4</ele><time>2026-04-03T11:32:17.000Z</time></trkpt>
      <trkpt lat="50.776030" lon="15.571184"><ele>1427.0</ele><time>2026-04-03T11:32:47.000Z</time></trkpt>
      <trkpt lat="50.776216" lon="15.571474"><ele>1420.4</ele><time>2026-04-03T11:33:24.000Z</time></trkpt>
      <trkpt lat="50.776435" lon="15.571785"><ele>1414.0</ele><time>2026-04-03T11:34:14.000Z</time></trkpt>
      <trkpt lat="50.776645" lon="15.572092"><ele>1408.8</ele><time>2026-04-03T11:34:57.000Z</time></trkpt>
      <trkpt lat="50.776787" lon="15.572314"><ele>1405.6</ele><time>2026-04-03T11:35:32.000Z</time></trkpt>
      <trkpt lat="50.777000" lon="15.572614"><ele>1401.2</ele><time>2026-04-03T11:36:00.000Z</time></trkpt>
      <trkpt lat="50.777219" lon="15.572861"><ele>1397.2</ele><time>2026-04-03T11:36:37.000Z</time></trkpt>
      <trkpt lat="50.777411" lon="15.573061"><ele>1394.0</ele><time>2026-04-03T11:37:29.000Z</time></trkpt>
      <trkpt lat="50.777495" lon="15.573301"><ele>1391.4</ele><time>2026-04-03T11:38:38.000Z</time></trkpt>
      <trkpt lat="50.777696" lon="15.573962"><ele>1387.2</ele><time>2026-04-03T11:39:26.000Z</time></trkpt>
      <trkpt lat="50.778015" lon="15.575091"><ele>1385.8</ele><time>2026-04-03T11:40:47.000Z</time></trkpt>
      <trkpt lat="50.778191" lon="15.575781"><ele>1386.6</ele><time>2026-04-03T11:41:58.000Z</time></trkpt>
      <trkpt lat="50.778302" lon="15.576206"><ele>1387.4</ele><time>2026-04-03T11:42:56.000Z</time></trkpt>
      <trkpt lat="50.778529" lon="15.577014"><ele>1391.4</ele><time>2026-04-03T11:44:05.000Z</time></trkpt>
      <trkpt lat="50.778679" lon="15.577614"><ele>1394.6</ele><time>2026-04-03T11:45:02.000Z</time></trkpt>
      <trkpt lat="50.778883" lon="15.578366"><ele>1399.8</ele><time>2026-04-03T11:46:09.000Z</time></trkpt>
      <trkpt lat="50.778943" lon="15.579190"><ele>1399.0</ele><time>2026-04-03T11:47:13.000Z</time></trkpt>
      <trkpt lat="50.778771" lon="15.579521"><ele>1392.2</ele><time>2026-04-03T11:47:57.000Z</time></trkpt>
      <trkpt lat="50.778769" lon="15.579916"><ele>1385.4</ele><time>2026-04-03T11:48:45.000Z</time></trkpt>
      <trkpt lat="50.778685" lon="15.580158"><ele>1380.0</ele><time>2026-04-03T11:49:23.000Z</time></trkpt>
      <trkpt lat="50.778660" lon="15.580242"><ele>1376.6</ele><time>2026-04-03T11:50:01.000Z</time></trkpt>
      <trkpt lat="50.778581" lon="15.580891"><ele>1369.8</ele><time>2026-04-03T11:50:59.000Z</time></trkpt>
      <trkpt lat="50.778477" lon="15.581286"><ele>1363.2</ele><time>2026-04-03T11:51:37.000Z</time></trkpt>
      <trkpt lat="50.778533" lon="15.581597"><ele>1356.4</ele><time>2026-04-03T11:52:10.000Z</time></trkpt>
      <trkpt lat="50.778518" lon="15.581871"><ele>1353.0</ele><time>2026-04-03T11:52:34.000Z</time></trkpt>
      <trkpt lat="50.778526" lon="15.582259"><ele>1348.8</ele><time>2026-04-03T11:53:00.000Z</time></trkpt>
      <trkpt lat="50.778542" lon="15.582545"><ele>1345.8</ele><time>2026-04-03T11:53:30.000Z</time></trkpt>
      <trkpt lat="50.778540" lon="15.582586"><ele>1344.8</ele><time>2026-04-03T11:54:01.000Z</time></trkpt>
      <trkpt lat="50.778464" lon="15.582491"><ele>1345.0</ele><time>2026-04-03T11:56:17.000Z</time></trkpt>
      <trkpt lat="50.778596" lon="15.583098"><ele>1343.0</ele><time>2026-04-03T11:57:46.000Z</time></trkpt>
      <trkpt lat="50.778661" lon="15.583868"><ele>1340.2</ele><time>2026-04-03T11:58:55.000Z</time></trkpt>
      <trkpt lat="50.778670" lon="15.584879"><ele>1340.8</ele><time>2026-04-03T12:00:08.000Z</time></trkpt>
      <trkpt lat="50.778668" lon="15.585399"><ele>1342.4</ele><time>2026-04-03T12:00:43.000Z</time></trkpt>
      <trkpt lat="50.778589" lon="15.585898"><ele>1344.8</ele><time>2026-04-03T12:01:22.000Z</time></trkpt>
      <trkpt lat="50.778575" lon="15.586539"><ele>1347.6</ele><time>2026-04-03T12:02:16.000Z</time></trkpt>
      <trkpt lat="50.778531" lon="15.586865"><ele>1351.6</ele><time>2026-04-03T12:02:56.000Z</time></trkpt>
      <trkpt lat="50.778513" lon="15.587094"><ele>1357.8</ele><time>2026-04-03T12:03:35.000Z</time></trkpt>
      <trkpt lat="50.778390" lon="15.587503"><ele>1364.4</ele><time>2026-04-03T12:04:25.000Z</time></trkpt>
      <trkpt lat="50.778272" lon="15.588033"><ele>1369.4</ele><time>2026-04-03T12:05:16.000Z</time></trkpt>
      <trkpt lat="50.778138" lon="15.588273"><ele>1376.0</ele><time>2026-04-03T12:05:57.000Z</time></trkpt>
      <trkpt lat="50.778048" lon="15.588361"><ele>1380.0</ele><time>2026-04-03T12:06:39.000Z</time></trkpt>
      <trkpt lat="50.777960" lon="15.588700"><ele>1385.4</ele><time>2026-04-03T12:07:49.000Z</time></trkpt>
      <trkpt lat="50.777785" lon="15.589207"><ele>1389.4</ele><time>2026-04-03T12:08:35.000Z</time></trkpt>
      <trkpt lat="50.777538" lon="15.589716"><ele>1394.2</ele><time>2026-04-03T12:09:27.000Z</time></trkpt>
      <trkpt lat="50.777116" lon="15.590668"><ele>1396.2</ele><time>2026-04-03T12:10:55.000Z</time></trkpt>
      <trkpt lat="50.777175" lon="15.591125"><ele>1398.4</ele><time>2026-04-03T12:11:44.000Z</time></trkpt>
      <trkpt lat="50.777054" lon="15.591494"><ele>1396.8</ele><time>2026-04-03T12:12:59.000Z</time></trkpt>
      <trkpt lat="50.776963" lon="15.592260"><ele>1395.8</ele><time>2026-04-03T12:13:59.000Z</time></trkpt>
      <trkpt lat="50.776975" lon="15.592795"><ele>1398.8</ele><time>2026-04-03T12:14:42.000Z</time></trkpt>
      <trkpt lat="50.776958" lon="15.593274"><ele>1402.2</ele><time>2026-04-03T12:15:21.000Z</time></trkpt>
      <trkpt lat="50.776963" lon="15.593811"><ele>1406.4</ele><time>2026-04-03T12:16:07.000Z</time></trkpt>
      <trkpt lat="50.776801" lon="15.594324"><ele>1403.0</ele><time>2026-04-03T12:17:01.000Z</time></trkpt>
      <trkpt lat="50.776771" lon="15.594628"><ele>1400.2</ele><time>2026-04-03T12:17:28.000Z</time></trkpt>
      <trkpt lat="50.776763" lon="15.594719"><ele>1398.0</ele><time>2026-04-03T12:17:57.000Z</time></trkpt>
      <trkpt lat="50.776855" lon="15.595065"><ele>1394.6</ele><time>2026-04-03T12:18:25.000Z</time></trkpt>
      <trkpt lat="50.776959" lon="15.595511"><ele>1393.0</ele><time>2026-04-03T12:18:59.000Z</time></trkpt>
      <trkpt lat="50.777021" lon="15.596238"><ele>1392.8</ele><time>2026-04-03T12:19:55.000Z</time></trkpt>
      <trkpt lat="50.777031" lon="15.596811"><ele>1390.6</ele><time>2026-04-03T12:20:30.000Z</time></trkpt>
      <trkpt lat="50.777003" lon="15.597503"><ele>1387.8</ele><time>2026-04-03T12:21:12.000Z</time></trkpt>
      <trkpt lat="50.776971" lon="15.598530"><ele>1386.0</ele><time>2026-04-03T12:22:17.000Z</time></trkpt>
      <trkpt lat="50.776917" lon="15.599488"><ele>1389.0</ele><time>2026-04-03T12:23:24.000Z</time></trkpt>
      <trkpt lat="50.776926" lon="15.600090"><ele>1392.6</ele><time>2026-04-03T12:24:08.000Z</time></trkpt>
      <trkpt lat="50.776909" lon="15.600669"><ele>1396.0</ele><time>2026-04-03T12:24:50.000Z</time></trkpt>
      <trkpt lat="50.776804" lon="15.601505"><ele>1399.4</ele><time>2026-04-03T12:25:48.000Z</time></trkpt>
      <trkpt lat="50.776698" lon="15.601824"><ele>1399.6</ele><time>2026-04-03T12:26:42.000Z</time></trkpt>
      <trkpt lat="50.776294" lon="15.602608"><ele>1397.0</ele><time>2026-04-03T12:27:49.000Z</time></trkpt>
      <trkpt lat="50.776031" lon="15.602741"><ele>1394.6</ele><time>2026-04-03T12:28:49.000Z</time></trkpt>
      <trkpt lat="50.775802" lon="15.603088"><ele>1388.4</ele><time>2026-04-03T12:29:42.000Z</time></trkpt>
      <trkpt lat="50.775793" lon="15.603590"><ele>1383.4</ele><time>2026-04-03T12:30:19.000Z</time></trkpt>
      <trkpt lat="50.775789" lon="15.603978"><ele>1378.8</ele><time>2026-04-03T12:31:09.000Z</time></trkpt>
      <trkpt lat="50.775900" lon="15.604462"><ele>1373.8</ele><time>2026-04-03T12:31:52.000Z</time></trkpt>
      <trkpt lat="50.775780" lon="15.604955"><ele>1367.8</ele><time>2026-04-03T12:32:27.000Z</time></trkpt>
      <trkpt lat="50.775670" lon="15.605200"><ele>1364.6</ele><time>2026-04-03T12:33:05.000Z</time></trkpt>
      <trkpt lat="50.775469" lon="15.605355"><ele>1360.4</ele><time>2026-04-03T12:33:35.000Z</time></trkpt>
      <trkpt lat="50.775382" lon="15.605543"><ele>1356.8</ele><time>2026-04-03T12:34:00.000Z</time></trkpt>
      <trkpt lat="50.775458" lon="15.605859"><ele>1351.6</ele><time>2026-04-03T12:34:25.000Z</time></trkpt>
      <trkpt lat="50.775545" lon="15.606039"><ele>1348.6</ele><time>2026-04-03T12:34:47.000Z</time></trkpt>
      <trkpt lat="50.775602" lon="15.606267"><ele>1347.2</ele><time>2026-04-03T12:35:19.000Z</time></trkpt>
      <trkpt lat="50.775548" lon="15.606550"><ele>1344.8</ele><time>2026-04-03T12:36:28.000Z</time></trkpt>
      <trkpt lat="50.775442" lon="15.606908"><ele>1341.4</ele><time>2026-04-03T12:36:55.000Z</time></trkpt>
      <trkpt lat="50.775234" lon="15.607515"><ele>1335.8</ele><time>2026-04-03T12:37:37.000Z</time></trkpt>
      <trkpt lat="50.775101" lon="15.607917"><ele>1331.6</ele><time>2026-04-03T12:38:10.000Z</time></trkpt>
      <trkpt lat="50.774990" lon="15.608178"><ele>1329.0</ele><time>2026-04-03T12:38:33.000Z</time></trkpt>
      <trkpt lat="50.774850" lon="15.608499"><ele>1325.8</ele><time>2026-04-03T12:38:58.000Z</time></trkpt>
      <trkpt lat="50.774678" lon="15.608915"><ele>1322.0</ele><time>2026-04-03T12:39:35.000Z</time></trkpt>
      <trkpt lat="50.774550" lon="15.609521"><ele>1317.2</ele><time>2026-04-03T12:40:25.000Z</time></trkpt>
      <trkpt lat="50.774508" lon="15.609697"><ele>1315.6</ele><time>2026-04-03T12:40:38.000Z</time></trkpt>
      <trkpt lat="50.774413" lon="15.610124"><ele>1312.2</ele><time>2026-04-03T12:41:11.000Z</time></trkpt>
      <trkpt lat="50.774178" lon="15.610524"><ele>1308.2</ele><time>2026-04-03T12:41:48.000Z</time></trkpt>
      <trkpt lat="50.773941" lon="15.610857"><ele>1304.0</ele><time>2026-04-03T12:42:28.000Z</time></trkpt>
      <trkpt lat="50.773586" lon="15.611195"><ele>1299.4</ele><time>2026-04-03T12:43:19.000Z</time></trkpt>
      <trkpt lat="50.773207" lon="15.611463"><ele>1293.6</ele><time>2026-04-03T12:44:08.000Z</time></trkpt>
      <trkpt lat="50.772951" lon="15.611634"><ele>1288.6</ele><time>2026-04-03T12:44:58.000Z</time></trkpt>
      <trkpt lat="50.772658" lon="15.611814"><ele>1283.0</ele><time>2026-04-03T12:45:42.000Z</time></trkpt>
      <trkpt lat="50.772480" lon="15.611842"><ele>1279.8</ele><time>2026-04-03T12:46:13.000Z</time></trkpt>
    </trkseg>
  </trk>
</gpx>
