<?xml version="1.0" encoding="UTF-8"?>
<gpx creator="W Dobrym Kierunku — GPX uproszczony z Garmin Connect" version="1.1" xmlns="http://www.topografix.com/GPX/1/1" xmlns:xsi="http://www.w3.org/2001/XMLSchema-instance" xsi:schemaLocation="http://www.topografix.com/GPX/1/1 http://www.topografix.com/GPX/11.xsd">
  <metadata>
    <time>2026-04-05T08:44:59.000Z</time>
  </metadata>
  <trk>
    <name>Grań Karkonoszy - Spindleruv Mlyn Piesze wędrówki</name>
    <type>hiking</type>
    <trkseg>
      <trkpt lat="50.762419" lon="15.635167"><ele>1194.8</ele><time>2026-04-05T08:47:33.000Z</time></trkpt>
      <trkpt lat="50.762742" lon="15.634142"><ele>1191.2</ele><time>2026-04-05T08:48:44.000Z</time></trkpt>
      <trkpt lat="50.762944" lon="15.633970"><ele>1194.0</ele><time>2026-04-05T08:49:27.000Z</time></trkpt>
      <trkpt lat="50.762946" lon="15.634073"><ele>1193.8</ele><time>2026-04-05T08:50:05.000Z</time></trkpt>
      <trkpt lat="50.762992" lon="15.634250"><ele>1193.6</ele><time>2026-04-05T08:51:01.000Z</time></trkpt>
      <trkpt lat="50.763034" lon="15.634359"><ele>1194.2</ele><time>2026-04-05T08:51:51.000Z</time></trkpt>
      <trkpt lat="50.762903" lon="15.634018"><ele>1195.6</ele><time>2026-04-05T08:52:36.000Z</time></trkpt>
      <trkpt lat="50.762919" lon="15.633550"><ele>1192.0</ele><time>2026-04-05T08:52:59.000Z</time></trkpt>
      <trkpt lat="50.763009" lon="15.632614"><ele>1194.8</ele><time>2026-04-05T08:53:49.000Z</time></trkpt>
      <trkpt lat="50.763268" lon="15.631413"><ele>1200.4</ele><time>2026-04-05T08:54:57.000Z</time></trkpt>
      <trkpt lat="50.763490" lon="15.630587"><ele>1205.4</ele><time>2026-04-05T08:55:53.000Z</time></trkpt>
      <trkpt lat="50.763662" lon="15.629893"><ele>1208.8</ele><time>2026-04-05T08:56:44.000Z</time></trkpt>
      <trkpt lat="50.763870" lon="15.629069"><ele>1212.4</ele><time>2026-04-05T08:57:38.000Z</time></trkpt>
      <trkpt lat="50.764179" lon="15.628113"><ele>1213.2</ele><time>2026-04-05T08:58:42.000Z</time></trkpt>
      <trkpt lat="50.764560" lon="15.626999"><ele>1210.6</ele><time>2026-04-05T08:59:58.000Z</time></trkpt>
      <trkpt lat="50.764716" lon="15.626296"><ele>1205.2</ele><time>2026-04-05T09:00:41.000Z</time></trkpt>
      <trkpt lat="50.764794" lon="15.625863"><ele>1201.8</ele><time>2026-04-05T09:01:08.000Z</time></trkpt>
      <trkpt lat="50.764884" lon="15.625054"><ele>1198.8</ele><time>2026-04-05T09:02:13.000Z</time></trkpt>
      <trkpt lat="50.764949" lon="15.624408"><ele>1196.2</ele><time>2026-04-05T09:02:53.000Z</time></trkpt>
      <trkpt lat="50.765033" lon="15.623557"><ele>1193.6</ele><time>2026-04-05T09:03:48.000Z</time></trkpt>
      <trkpt lat="50.765127" lon="15.622756"><ele>1191.6</ele><time>2026-04-05T09:04:36.000Z</time></trkpt>
      <trkpt lat="50.765345" lon="15.621851"><ele>1188.2</ele><time>2026-04-05T09:05:33.000Z</time></trkpt>
      <trkpt lat="50.765762" lon="15.621295"><ele>1183.0</ele><time>2026-04-05T09:06:23.000Z</time></trkpt>
      <trkpt lat="50.766019" lon="15.620997"><ele>1178.6</ele><time>2026-04-05T09:06:52.000Z</time></trkpt>
      <trkpt lat="50.766736" lon="15.620553"><ele>1172.4</ele><time>2026-04-05T09:07:55.000Z</time></trkpt>
      <trkpt lat="50.767600" lon="15.620093"><ele>1171.8</ele><time>2026-04-05T09:09:14.000Z</time></trkpt>
      <trkpt lat="50.768103" lon="15.619791"><ele>1173.4</ele><time>2026-04-05T09:10:02.000Z</time></trkpt>
      <trkpt lat="50.768405" lon="15.619579"><ele>1175.8</ele><time>2026-04-05T09:10:31.000Z</time></trkpt>
      <trkpt lat="50.768765" lon="15.619348"><ele>1179.8</ele><time>2026-04-05T09:11:07.000Z</time></trkpt>
      <trkpt lat="50.769166" lon="15.619068"><ele>1184.0</ele><time>2026-04-05T09:11:48.000Z</time></trkpt>
      <trkpt lat="50.769545" lon="15.618802"><ele>1187.8</ele><time>2026-04-05T09:12:31.000Z</time></trkpt>
      <trkpt lat="50.769966" lon="15.618489"><ele>1193.8</ele><time>2026-04-05T09:13:16.000Z</time></trkpt>
      <trkpt lat="50.770040" lon="15.618443"><ele>1195.2</ele><time>2026-04-05T09:14:38.000Z</time></trkpt>
      <trkpt lat="50.770148" lon="15.618338"><ele>1197.6</ele><time>2026-04-05T09:16:13.000Z</time></trkpt>
      <trkpt lat="50.770395" lon="15.618148"><ele>1201.2</ele><time>2026-04-05T09:16:48.000Z</time></trkpt>
      <trkpt lat="50.770591" lon="15.617938"><ele>1205.8</ele><time>2026-04-05T09:17:17.000Z</time></trkpt>
      <trkpt lat="50.770919" lon="15.617656"><ele>1212.2</ele><time>2026-04-05T09:18:02.000Z</time></trkpt>
      <trkpt lat="50.771243" lon="15.617382"><ele>1219.0</ele><time>2026-04-05T09:18:47.000Z</time></trkpt>
      <trkpt lat="50.771550" lon="15.617133"><ele>1225.6</ele><time>2026-04-05T09:19:26.000Z</time></trkpt>
      <trkpt lat="50.771976" lon="15.616744"><ele>1232.2</ele><time>2026-04-05T09:20:20.000Z</time></trkpt>
      <trkpt lat="50.772319" lon="15.616431"><ele>1238.8</ele><time>2026-04-05T09:21:07.000Z</time></trkpt>
      <trkpt lat="50.772550" lon="15.616016"><ele>1243.6</ele><time>2026-04-05T09:21:48.000Z</time></trkpt>
      <trkpt lat="50.772821" lon="15.615456"><ele>1250.4</ele><time>2026-04-05T09:22:39.000Z</time></trkpt>
      <trkpt lat="50.772937" lon="15.614864"><ele>1258.0</ele><time>2026-04-05T09:23:30.000Z</time></trkpt>
      <trkpt lat="50.772812" lon="15.614138"><ele>1265.6</ele><time>2026-04-05T09:24:21.000Z</time></trkpt>
      <trkpt lat="50.772744" lon="15.613413"><ele>1272.6</ele><time>2026-04-05T09:25:09.000Z</time></trkpt>
      <trkpt lat="50.772687" lon="15.612781"><ele>1278.2</ele><time>2026-04-05T09:25:54.000Z</time></trkpt>
      <trkpt lat="50.772670" lon="15.612267"><ele>1283.6</ele><time>2026-04-05T09:26:34.000Z</time></trkpt>
      <trkpt lat="50.772487" lon="15.611845"><ele>1282.2</ele><time>2026-04-05T09:27:15.000Z</time></trkpt>
      <trkpt lat="50.772840" lon="15.611651"><ele>1286.8</ele><time>2026-04-05T09:28:09.000Z</time></trkpt>
      <trkpt lat="50.773125" lon="15.611465"><ele>1293.0</ele><time>2026-04-05T09:28:59.000Z</time></trkpt>
      <trkpt lat="50.773469" lon="15.611235"><ele>1298.2</ele><time>2026-04-05T09:29:57.000Z</time></trkpt>
      <trkpt lat="50.773846" lon="15.610916"><ele>1303.6</ele><time>2026-04-05T09:30:57.000Z</time></trkpt>
      <trkpt lat="50.774123" lon="15.610511"><ele>1308.0</ele><time>2026-04-05T09:31:58.000Z</time></trkpt>
      <trkpt lat="50.774362" lon="15.610205"><ele>1310.6</ele><time>2026-04-05T09:32:42.000Z</time></trkpt>
      <trkpt lat="50.774481" lon="15.609653"><ele>1315.0</ele><time>2026-04-05T09:33:35.000Z</time></trkpt>
      <trkpt lat="50.774568" lon="15.609244"><ele>1318.2</ele><time>2026-04-05T09:34:13.000Z</time></trkpt>
      <trkpt lat="50.774708" lon="15.608796"><ele>1321.8</ele><time>2026-04-05T09:34:54.000Z</time></trkpt>
      <trkpt lat="50.774887" lon="15.608374"><ele>1325.8</ele><time>2026-04-05T09:35:38.000Z</time></trkpt>
      <trkpt lat="50.775071" lon="15.607951"><ele>1330.0</ele><time>2026-04-05T09:36:25.000Z</time></trkpt>
      <trkpt lat="50.775196" lon="15.607570"><ele>1333.6</ele><time>2026-04-05T09:37:04.000Z</time></trkpt>
      <trkpt lat="50.775390" lon="15.607071"><ele>1338.8</ele><time>2026-04-05T09:37:56.000Z</time></trkpt>
      <trkpt lat="50.775510" lon="15.606573"><ele>1342.2</ele><time>2026-04-05T09:38:43.000Z</time></trkpt>
      <trkpt lat="50.775553" lon="15.606224"><ele>1346.0</ele><time>2026-04-05T09:39:18.000Z</time></trkpt>
      <trkpt lat="50.775375" lon="15.605786"><ele>1351.2</ele><time>2026-04-05T09:40:04.000Z</time></trkpt>
      <trkpt lat="50.775337" lon="15.605572"><ele>1355.6</ele><time>2026-04-05T09:40:51.000Z</time></trkpt>
      <trkpt lat="50.775501" lon="15.605316"><ele>1360.8</ele><time>2026-04-05T09:41:39.000Z</time></trkpt>
      <trkpt lat="50.775647" lon="15.605092"><ele>1365.4</ele><time>2026-04-05T09:42:12.000Z</time></trkpt>
      <trkpt lat="50.775747" lon="15.604921"><ele>1368.6</ele><time>2026-04-05T09:42:38.000Z</time></trkpt>
      <trkpt lat="50.775796" lon="15.604560"><ele>1372.8</ele><time>2026-04-05T09:43:21.000Z</time></trkpt>
      <trkpt lat="50.775813" lon="15.604194"><ele>1377.0</ele><time>2026-04-05T09:44:01.000Z</time></trkpt>
      <trkpt lat="50.775742" lon="15.603867"><ele>1380.4</ele><time>2026-04-05T09:44:35.000Z</time></trkpt>
      <trkpt lat="50.775759" lon="15.603604"><ele>1383.4</ele><time>2026-04-05T09:45:08.000Z</time></trkpt>
      <trkpt lat="50.775777" lon="15.603323"><ele>1388.4</ele><time>2026-04-05T09:45:54.000Z</time></trkpt>
      <trkpt lat="50.775756" lon="15.602835"><ele>1393.4</ele><time>2026-04-05T09:46:40.000Z</time></trkpt>
      <trkpt lat="50.776070" lon="15.602700"><ele>1399.6</ele><time>2026-04-05T09:47:25.000Z</time></trkpt>
      <trkpt lat="50.776187" lon="15.602745"><ele>1402.2</ele><time>2026-04-05T09:48:17.000Z</time></trkpt>
      <trkpt lat="50.776166" lon="15.602736"><ele>1400.4</ele><time>2026-04-05T09:50:12.000Z</time></trkpt>
      <trkpt lat="50.776626" lon="15.602060"><ele>1402.4</ele><time>2026-04-05T09:51:26.000Z</time></trkpt>
      <trkpt lat="50.776797" lon="15.601444"><ele>1404.4</ele><time>2026-04-05T09:52:16.000Z</time></trkpt>
      <trkpt lat="50.776856" lon="15.600692"><ele>1402.4</ele><time>2026-04-05T09:53:08.000Z</time></trkpt>
      <trkpt lat="50.776879" lon="15.600032"><ele>1399.0</ele><time>2026-04-05T09:53:51.000Z</time></trkpt>
      <trkpt lat="50.776907" lon="15.599576"><ele>1395.8</ele><time>2026-04-05T09:54:20.000Z</time></trkpt>
      <trkpt lat="50.776916" lon="15.598873"><ele>1393.4</ele><time>2026-04-05T09:55:05.000Z</time></trkpt>
      <trkpt lat="50.776977" lon="15.597901"><ele>1393.2</ele><time>2026-04-05T09:56:12.000Z</time></trkpt>
      <trkpt lat="50.776992" lon="15.597233"><ele>1395.4</ele><time>2026-04-05T09:57:05.000Z</time></trkpt>
      <trkpt lat="50.776983" lon="15.596488"><ele>1397.8</ele><time>2026-04-05T09:58:05.000Z</time></trkpt>
      <trkpt lat="50.776969" lon="15.595713"><ele>1400.6</ele><time>2026-04-05T09:58:58.000Z</time></trkpt>
      <trkpt lat="50.776809" lon="15.594979"><ele>1403.6</ele><time>2026-04-05T09:59:55.000Z</time></trkpt>
      <trkpt lat="50.776761" lon="15.594499"><ele>1409.6</ele><time>2026-04-05T10:00:35.000Z</time></trkpt>
      <trkpt lat="50.776867" lon="15.593930"><ele>1415.8</ele><time>2026-04-05T10:01:23.000Z</time></trkpt>
      <trkpt lat="50.776946" lon="15.593483"><ele>1415.2</ele><time>2026-04-05T10:02:01.000Z</time></trkpt>
      <trkpt lat="50.776935" lon="15.592951"><ele>1407.0</ele><time>2026-04-05T10:02:38.000Z</time></trkpt>
      <trkpt lat="50.776926" lon="15.592307"><ele>1403.4</ele><time>2026-04-05T10:03:20.000Z</time></trkpt>
      <trkpt lat="50.776946" lon="15.591635"><ele>1400.0</ele><time>2026-04-05T10:04:11.000Z</time></trkpt>
      <trkpt lat="50.777063" lon="15.591347"><ele>1404.4</ele><time>2026-04-05T10:04:39.000Z</time></trkpt>
      <trkpt lat="50.777214" lon="15.590807"><ele>1405.6</ele><time>2026-04-05T10:05:38.000Z</time></trkpt>
      <trkpt lat="50.777247" lon="15.590273"><ele>1404.0</ele><time>2026-04-05T10:06:22.000Z</time></trkpt>
      <trkpt lat="50.777579" lon="15.589530"><ele>1402.4</ele><time>2026-04-05T10:07:27.000Z</time></trkpt>
      <trkpt lat="50.777862" lon="15.588989"><ele>1396.6</ele><time>2026-04-05T10:08:13.000Z</time></trkpt>
      <trkpt lat="50.777949" lon="15.588663"><ele>1392.2</ele><time>2026-04-05T10:08:45.000Z</time></trkpt>
      <trkpt lat="50.778089" lon="15.588250"><ele>1385.8</ele><time>2026-04-05T10:09:32.000Z</time></trkpt>
      <trkpt lat="50.778262" lon="15.588023"><ele>1380.0</ele><time>2026-04-05T10:10:08.000Z</time></trkpt>
      <trkpt lat="50.778375" lon="15.587677"><ele>1374.0</ele><time>2026-04-05T10:10:44.000Z</time></trkpt>
      <trkpt lat="50.778459" lon="15.587213"><ele>1370.0</ele><time>2026-04-05T10:11:21.000Z</time></trkpt>
      <trkpt lat="50.778565" lon="15.586940"><ele>1362.2</ele><time>2026-04-05T10:12:03.000Z</time></trkpt>
      <trkpt lat="50.778532" lon="15.586758"><ele>1358.0</ele><time>2026-04-05T10:12:38.000Z</time></trkpt>
      <trkpt lat="50.778574" lon="15.586369"><ele>1351.6</ele><time>2026-04-05T10:13:40.000Z</time></trkpt>
      <trkpt lat="50.778624" lon="15.585678"><ele>1347.8</ele><time>2026-04-05T10:14:23.000Z</time></trkpt>
      <trkpt lat="50.778649" lon="15.584757"><ele>1343.6</ele><time>2026-04-05T10:15:22.000Z</time></trkpt>
      <trkpt lat="50.778596" lon="15.583661"><ele>1344.4</ele><time>2026-04-05T10:16:41.000Z</time></trkpt>
      <trkpt lat="50.778575" lon="15.583200"><ele>1347.0</ele><time>2026-04-05T10:17:20.000Z</time></trkpt>
      <trkpt lat="50.778529" lon="15.582615"><ele>1349.4</ele><time>2026-04-05T10:18:33.000Z</time></trkpt>
      <trkpt lat="50.778391" lon="15.582488"><ele>1350.4</ele><time>2026-04-05T10:19:37.000Z</time></trkpt>
      <trkpt lat="50.778396" lon="15.582472"><ele>1349.2</ele><time>2026-04-05T10:20:47.000Z</time></trkpt>
      <trkpt lat="50.778482" lon="15.582307"><ele>1350.8</ele><time>2026-04-05T10:21:37.000Z</time></trkpt>
      <trkpt lat="50.778509" lon="15.581983"><ele>1354.4</ele><time>2026-04-05T10:22:13.000Z</time></trkpt>
      <trkpt lat="50.778539" lon="15.581583"><ele>1359.6</ele><time>2026-04-05T10:23:00.000Z</time></trkpt>
      <trkpt lat="50.778487" lon="15.581323"><ele>1365.2</ele><time>2026-04-05T10:23:46.000Z</time></trkpt>
      <trkpt lat="50.778514" lon="15.581093"><ele>1369.4</ele><time>2026-04-05T10:24:40.000Z</time></trkpt>
      <trkpt lat="50.778572" lon="15.580816"><ele>1375.4</ele><time>2026-04-05T10:25:38.000Z</time></trkpt>
      <trkpt lat="50.778549" lon="15.580152"><ele>1383.2</ele><time>2026-04-05T10:27:07.000Z</time></trkpt>
      <trkpt lat="50.778672" lon="15.579710"><ele>1390.4</ele><time>2026-04-05T10:28:22.000Z</time></trkpt>
      <trkpt lat="50.778756" lon="15.579500"><ele>1396.0</ele><time>2026-04-05T10:29:10.000Z</time></trkpt>
      <trkpt lat="50.778941" lon="15.578981"><ele>1401.4</ele><time>2026-04-05T10:30:17.000Z</time></trkpt>
      <trkpt lat="50.778898" lon="15.578491"><ele>1402.8</ele><time>2026-04-05T10:31:17.000Z</time></trkpt>
      <trkpt lat="50.778701" lon="15.577721"><ele>1397.6</ele><time>2026-04-05T10:32:18.000Z</time></trkpt>
      <trkpt lat="50.778577" lon="15.577305"><ele>1393.8</ele><time>2026-04-05T10:32:51.000Z</time></trkpt>
      <trkpt lat="50.778354" lon="15.576466"><ele>1391.4</ele><time>2026-04-05T10:33:54.000Z</time></trkpt>
      <trkpt lat="50.778147" lon="15.575633"><ele>1387.8</ele><time>2026-04-05T10:34:59.000Z</time></trkpt>
      <trkpt lat="50.777934" lon="15.574847"><ele>1387.6</ele><time>2026-04-05T10:36:34.000Z</time></trkpt>
      <trkpt lat="50.777743" lon="15.574231"><ele>1386.2</ele><time>2026-04-05T10:37:27.000Z</time></trkpt>
      <trkpt lat="50.777533" lon="15.573485"><ele>1391.4</ele><time>2026-04-05T10:38:32.000Z</time></trkpt>
      <trkpt lat="50.777414" lon="15.573165"><ele>1395.6</ele><time>2026-04-05T10:39:18.000Z</time></trkpt>
      <trkpt lat="50.777296" lon="15.572982"><ele>1401.6</ele><time>2026-04-05T10:40:27.000Z</time></trkpt>
      <trkpt lat="50.776983" lon="15.572612"><ele>1405.2</ele><time>2026-04-05T10:41:41.000Z</time></trkpt>
      <trkpt lat="50.776713" lon="15.572240"><ele>1410.2</ele><time>2026-04-05T10:42:29.000Z</time></trkpt>
      <trkpt lat="50.776550" lon="15.571965"><ele>1416.0</ele><time>2026-04-05T10:43:15.000Z</time></trkpt>
      <trkpt lat="50.776421" lon="15.571758"><ele>1421.8</ele><time>2026-04-05T10:43:51.000Z</time></trkpt>
      <trkpt lat="50.776300" lon="15.571594"><ele>1422.2</ele><time>2026-04-05T10:44:30.000Z</time></trkpt>
      <trkpt lat="50.776037" lon="15.571219"><ele>1430.2</ele><time>2026-04-05T10:45:26.000Z</time></trkpt>
      <trkpt lat="50.775864" lon="15.570968"><ele>1435.4</ele><time>2026-04-05T10:46:13.000Z</time></trkpt>
      <trkpt lat="50.775698" lon="15.570724"><ele>1440.0</ele><time>2026-04-05T10:46:50.000Z</time></trkpt>
      <trkpt lat="50.775482" lon="15.570453"><ele>1445.4</ele><time>2026-04-05T10:47:42.000Z</time></trkpt>
      <trkpt lat="50.775212" lon="15.570003"><ele>1444.4</ele><time>2026-04-05T10:48:42.000Z</time></trkpt>
      <trkpt lat="50.775067" lon="15.569657"><ele>1446.6</ele><time>2026-04-05T10:49:24.000Z</time></trkpt>
      <trkpt lat="50.774916" lon="15.569139"><ele>1446.8</ele><time>2026-04-05T10:50:33.000Z</time></trkpt>
      <trkpt lat="50.774829" lon="15.568673"><ele>1451.2</ele><time>2026-04-05T10:51:19.000Z</time></trkpt>
      <trkpt lat="50.774738" lon="15.568344"><ele>1456.6</ele><time>2026-04-05T10:52:06.000Z</time></trkpt>
      <trkpt lat="50.774811" lon="15.568000"><ele>1462.4</ele><time>2026-04-05T10:52:49.000Z</time></trkpt>
      <trkpt lat="50.774880" lon="15.567477"><ele>1465.4</ele><time>2026-04-05T10:53:46.000Z</time></trkpt>
      <trkpt lat="50.774928" lon="15.567106"><ele>1471.6</ele><time>2026-04-05T10:54:27.000Z</time></trkpt>
      <trkpt lat="50.775015" lon="15.566645"><ele>1476.0</ele><time>2026-04-05T10:55:29.000Z</time></trkpt>
      <trkpt lat="50.775099" lon="15.566094"><ele>1477.8</ele><time>2026-04-05T10:56:27.000Z</time></trkpt>
      <trkpt lat="50.775193" lon="15.565505"><ele>1479.0</ele><time>2026-04-05T10:57:24.000Z</time></trkpt>
      <trkpt lat="50.775296" lon="15.564875"><ele>1483.8</ele><time>2026-04-05T10:58:13.000Z</time></trkpt>
      <trkpt lat="50.775411" lon="15.564175"><ele>1485.4</ele><time>2026-04-05T10:59:10.000Z</time></trkpt>
      <trkpt lat="50.775598" lon="15.563035"><ele>1483.8</ele><time>2026-04-05T11:00:27.000Z</time></trkpt>
      <trkpt lat="50.775704" lon="15.562365"><ele>1484.8</ele><time>2026-04-05T11:01:10.000Z</time></trkpt>
      <trkpt lat="50.775777" lon="15.561828"><ele>1485.0</ele><time>2026-04-05T11:01:49.000Z</time></trkpt>
      <trkpt lat="50.775852" lon="15.561216"><ele>1488.4</ele><time>2026-04-05T11:02:38.000Z</time></trkpt>
      <trkpt lat="50.775916" lon="15.560793"><ele>1483.4</ele><time>2026-04-05T11:03:15.000Z</time></trkpt>
      <trkpt lat="50.776138" lon="15.560035"><ele>1486.2</ele><time>2026-04-05T11:04:11.000Z</time></trkpt>
      <trkpt lat="50.776298" lon="15.559628"><ele>1480.0</ele><time>2026-04-05T11:04:47.000Z</time></trkpt>
      <trkpt lat="50.776486" lon="15.559183"><ele>1481.2</ele><time>2026-04-05T11:05:25.000Z</time></trkpt>
      <trkpt lat="50.776677" lon="15.558799"><ele>1480.8</ele><time>2026-04-05T11:06:17.000Z</time></trkpt>
      <trkpt lat="50.776813" lon="15.558465"><ele>1479.8</ele><time>2026-04-05T11:07:15.000Z</time></trkpt>
      <trkpt lat="50.777103" lon="15.557904"><ele>1482.8</ele><time>2026-04-05T11:08:08.000Z</time></trkpt>
      <trkpt lat="50.777283" lon="15.557562"><ele>1483.8</ele><time>2026-04-05T11:08:43.000Z</time></trkpt>
      <trkpt lat="50.777439" lon="15.557232"><ele>1487.0</ele><time>2026-04-05T11:09:19.000Z</time></trkpt>
      <trkpt lat="50.777674" lon="15.557136"><ele>1486.2</ele><time>2026-04-05T11:10:00.000Z</time></trkpt>
      <trkpt lat="50.777724" lon="15.557130"><ele>1484.4</ele><time>2026-04-05T11:10:22.000Z</time></trkpt>
      <trkpt lat="50.778072" lon="15.557059"><ele>1490.2</ele><time>2026-04-05T11:11:23.000Z</time></trkpt>
      <trkpt lat="50.778555" lon="15.557180"><ele>1493.4</ele><time>2026-04-05T11:12:25.000Z</time></trkpt>
      <trkpt lat="50.778727" lon="15.557391"><ele>1495.6</ele><time>2026-04-05T11:13:01.000Z</time></trkpt>
      <trkpt lat="50.778890" lon="15.557485"><ele>1490.8</ele><time>2026-04-05T11:13:29.000Z</time></trkpt>
      <trkpt lat="50.778878" lon="15.557475"><ele>1490.8</ele><time>2026-04-05T11:14:15.000Z</time></trkpt>
      <trkpt lat="50.778874" lon="15.557440"><ele>1492.0</ele><time>2026-04-05T11:15:34.000Z</time></trkpt>
      <trkpt lat="50.778872" lon="15.557432"><ele>1494.4</ele><time>2026-04-05T11:18:21.000Z</time></trkpt>
      <trkpt lat="50.778873" lon="15.557435"><ele>1492.4</ele><time>2026-04-05T11:19:08.000Z</time></trkpt>
      <trkpt lat="50.778877" lon="15.557440"><ele>1493.4</ele><time>2026-04-05T11:20:20.000Z</time></trkpt>
      <trkpt lat="50.778734" lon="15.557412"><ele>1493.4</ele><time>2026-04-05T11:21:17.000Z</time></trkpt>
      <trkpt lat="50.778765" lon="15.557110"><ele>1490.6</ele><time>2026-04-05T11:21:55.000Z</time></trkpt>
      <trkpt lat="50.779061" lon="15.556690"><ele>1491.6</ele><time>2026-04-05T11:22:44.000Z</time></trkpt>
      <trkpt lat="50.779182" lon="15.556253"><ele>1488.6</ele><time>2026-04-05T11:23:18.000Z</time></trkpt>
      <trkpt lat="50.779348" lon="15.555511"><ele>1490.2</ele><time>2026-04-05T11:24:13.000Z</time></trkpt>
      <trkpt lat="50.779474" lon="15.554828"><ele>1488.2</ele><time>2026-04-05T11:25:04.000Z</time></trkpt>
      <trkpt lat="50.779600" lon="15.554341"><ele>1492.2</ele><time>2026-04-05T11:25:38.000Z</time></trkpt>
      <trkpt lat="50.779689" lon="15.553833"><ele>1488.2</ele><time>2026-04-05T11:26:17.000Z</time></trkpt>
      <trkpt lat="50.779691" lon="15.553759"><ele>1485.8</ele><time>2026-04-05T11:26:44.000Z</time></trkpt>
      <trkpt lat="50.779733" lon="15.553188"><ele>1482.2</ele><time>2026-04-05T11:27:17.000Z</time></trkpt>
      <trkpt lat="50.779771" lon="15.552298"><ele>1475.2</ele><time>2026-04-05T11:28:10.000Z</time></trkpt>
      <trkpt lat="50.779832" lon="15.551664"><ele>1469.4</ele><time>2026-04-05T11:28:56.000Z</time></trkpt>
      <trkpt lat="50.779850" lon="15.550951"><ele>1461.2</ele><time>2026-04-05T11:29:41.000Z</time></trkpt>
      <trkpt lat="50.779814" lon="15.550514"><ele>1456.4</ele><time>2026-04-05T11:30:10.000Z</time></trkpt>
      <trkpt lat="50.779811" lon="15.549969"><ele>1454.8</ele><time>2026-04-05T11:30:44.000Z</time></trkpt>
      <trkpt lat="50.779896" lon="15.549142"><ele>1450.2</ele><time>2026-04-05T11:31:37.000Z</time></trkpt>
      <trkpt lat="50.779913" lon="15.548706"><ele>1448.8</ele><time>2026-04-05T11:32:27.000Z</time></trkpt>
      <trkpt lat="50.780013" lon="15.547559"><ele>1447.8</ele><time>2026-04-05T11:33:40.000Z</time></trkpt>
      <trkpt lat="50.780050" lon="15.546762"><ele>1450.2</ele><time>2026-04-05T11:34:45.000Z</time></trkpt>
      <trkpt lat="50.780059" lon="15.546041"><ele>1454.8</ele><time>2026-04-05T11:35:43.000Z</time></trkpt>
      <trkpt lat="50.779940" lon="15.545285"><ele>1451.0</ele><time>2026-04-05T11:36:36.000Z</time></trkpt>
      <trkpt lat="50.780013" lon="15.544284"><ele>1446.2</ele><time>2026-04-05T11:37:35.000Z</time></trkpt>
      <trkpt lat="50.780100" lon="15.543437"><ele>1442.2</ele><time>2026-04-05T11:38:26.000Z</time></trkpt>
      <trkpt lat="50.780236" lon="15.542662"><ele>1436.6</ele><time>2026-04-05T11:39:18.000Z</time></trkpt>
      <trkpt lat="50.780226" lon="15.541489"><ele>1432.8</ele><time>2026-04-05T11:40:33.000Z</time></trkpt>
      <trkpt lat="50.780238" lon="15.540276"><ele>1430.2</ele><time>2026-04-05T11:41:48.000Z</time></trkpt>
      <trkpt lat="50.780155" lon="15.539355"><ele>1423.0</ele><time>2026-04-05T11:42:48.000Z</time></trkpt>
      <trkpt lat="50.780113" lon="15.539066"><ele>1421.4</ele><time>2026-04-05T11:43:17.000Z</time></trkpt>
      <trkpt lat="50.779995" lon="15.538195"><ele>1415.6</ele><time>2026-04-05T11:44:08.000Z</time></trkpt>
      <trkpt lat="50.779888" lon="15.537577"><ele>1412.8</ele><time>2026-04-05T11:44:53.000Z</time></trkpt>
      <trkpt lat="50.779805" lon="15.537177"><ele>1410.6</ele><time>2026-04-05T11:45:41.000Z</time></trkpt>
      <trkpt lat="50.779666" lon="15.536495"><ele>1406.0</ele><time>2026-04-05T11:46:26.000Z</time></trkpt>
      <trkpt lat="50.779518" lon="15.535781"><ele>1406.8</ele><time>2026-04-05T11:47:14.000Z</time></trkpt>
      <trkpt lat="50.779479" lon="15.535365"><ele>1407.4</ele><time>2026-04-05T11:48:03.000Z</time></trkpt>
      <trkpt lat="50.779956" lon="15.535255"><ele>1405.2</ele><time>2026-04-05T11:49:09.000Z</time></trkpt>
      <trkpt lat="50.780451" lon="15.534961"><ele>1398.8</ele><time>2026-04-05T11:50:02.000Z</time></trkpt>
      <trkpt lat="50.780857" lon="15.534783"><ele>1394.2</ele><time>2026-04-05T11:50:47.000Z</time></trkpt>
      <trkpt lat="50.781148" lon="15.534749"><ele>1391.0</ele><time>2026-04-05T11:51:26.000Z</time></trkpt>
      <trkpt lat="50.781584" lon="15.534889"><ele>1383.2</ele><time>2026-04-05T11:52:06.000Z</time></trkpt>
      <trkpt lat="50.781853" lon="15.534998"><ele>1376.2</ele><time>2026-04-05T11:52:46.000Z</time></trkpt>
      <trkpt lat="50.782129" lon="15.535117"><ele>1369.6</ele><time>2026-04-05T11:53:25.000Z</time></trkpt>
      <trkpt lat="50.782230" lon="15.535180"><ele>1366.0</ele><time>2026-04-05T11:54:10.000Z</time></trkpt>
      <trkpt lat="50.782472" lon="15.535310"><ele>1358.6</ele><time>2026-04-05T11:54:40.000Z</time></trkpt>
      <trkpt lat="50.782608" lon="15.535356"><ele>1351.8</ele><time>2026-04-05T11:55:14.000Z</time></trkpt>
      <trkpt lat="50.782674" lon="15.535318"><ele>1350.8</ele><time>2026-04-05T11:55:59.000Z</time></trkpt>
      <trkpt lat="50.782960" lon="15.535317"><ele>1341.2</ele><time>2026-04-05T11:56:22.000Z</time></trkpt>
      <trkpt lat="50.783174" lon="15.535311"><ele>1332.4</ele><time>2026-04-05T11:56:48.000Z</time></trkpt>
      <trkpt lat="50.783391" lon="15.535320"><ele>1324.6</ele><time>2026-04-05T11:57:16.000Z</time></trkpt>
      <trkpt lat="50.783676" lon="15.535321"><ele>1313.8</ele><time>2026-04-05T11:57:36.000Z</time></trkpt>
      <trkpt lat="50.783990" lon="15.535392"><ele>1302.2</ele><time>2026-04-05T11:57:59.000Z</time></trkpt>
      <trkpt lat="50.784156" lon="15.535410"><ele>1296.0</ele><time>2026-04-05T11:58:32.000Z</time></trkpt>
      <trkpt lat="50.784378" lon="15.535481"><ele>1286.6</ele><time>2026-04-05T11:58:59.000Z</time></trkpt>
      <trkpt lat="50.784633" lon="15.535527"><ele>1276.8</ele><time>2026-04-05T11:59:29.000Z</time></trkpt>
      <trkpt lat="50.784889" lon="15.535579"><ele>1268.0</ele><time>2026-04-05T11:59:48.000Z</time></trkpt>
      <trkpt lat="50.785102" lon="15.535619"><ele>1259.6</ele><time>2026-04-05T12:00:19.000Z</time></trkpt>
      <trkpt lat="50.785298" lon="15.535689"><ele>1251.0</ele><time>2026-04-05T12:00:47.000Z</time></trkpt>
      <trkpt lat="50.785448" lon="15.535711"><ele>1245.6</ele><time>2026-04-05T12:01:30.000Z</time></trkpt>
      <trkpt lat="50.785674" lon="15.535765"><ele>1238.6</ele><time>2026-04-05T12:02:03.000Z</time></trkpt>
      <trkpt lat="50.785977" lon="15.535800"><ele>1229.8</ele><time>2026-04-05T12:02:28.000Z</time></trkpt>
      <trkpt lat="50.786339" lon="15.535906"><ele>1219.4</ele><time>2026-04-05T12:03:06.000Z</time></trkpt>
      <trkpt lat="50.786622" lon="15.536010"><ele>1212.6</ele><time>2026-04-05T12:03:44.000Z</time></trkpt>
      <trkpt lat="50.786895" lon="15.536192"><ele>1203.6</ele><time>2026-04-05T12:04:14.000Z</time></trkpt>
      <trkpt lat="50.787139" lon="15.536269"><ele>1197.0</ele><time>2026-04-05T12:04:56.000Z</time></trkpt>
      <trkpt lat="50.787386" lon="15.536515"><ele>1187.0</ele><time>2026-04-05T12:05:26.000Z</time></trkpt>
      <trkpt lat="50.787597" lon="15.536579"><ele>1180.2</ele><time>2026-04-05T12:05:49.000Z</time></trkpt>
      <trkpt lat="50.787814" lon="15.536716"><ele>1172.8</ele><time>2026-04-05T12:06:30.000Z</time></trkpt>
      <trkpt lat="50.787962" lon="15.536922"><ele>1166.4</ele><time>2026-04-05T12:06:54.000Z</time></trkpt>
      <trkpt lat="50.788001" lon="15.537156"><ele>1161.4</ele><time>2026-04-05T12:07:36.000Z</time></trkpt>
      <trkpt lat="50.788229" lon="15.536898"><ele>1163.6</ele><time>2026-04-05T12:08:13.000Z</time></trkpt>
      <trkpt lat="50.788274" lon="15.536607"><ele>1164.4</ele><time>2026-04-05T12:08:46.000Z</time></trkpt>
      <trkpt lat="50.788212" lon="15.536446"><ele>1165.0</ele><time>2026-04-05T12:09:56.000Z</time></trkpt>
      <trkpt lat="50.788375" lon="15.536436"><ele>1162.6</ele><time>2026-04-05T12:10:38.000Z</time></trkpt>
      <trkpt lat="50.788329" lon="15.536491"><ele>1163.0</ele><time>2026-04-05T12:12:03.000Z</time></trkpt>
      <trkpt lat="50.788305" lon="15.536451"><ele>1165.2</ele><time>2026-04-05T12:13:27.000Z</time></trkpt>
      <trkpt lat="50.788263" lon="15.536520"><ele>1164.8</ele><time>2026-04-05T12:14:24.000Z</time></trkpt>
      <trkpt lat="50.788454" lon="15.536502"><ele>1161.8</ele><time>2026-04-05T12:15:31.000Z</time></trkpt>
      <trkpt lat="50.788292" lon="15.536568"><ele>1164.2</ele><time>2026-04-05T12:17:43.000Z</time></trkpt>
      <trkpt lat="50.788112" lon="15.536699"><ele>1166.0</ele><time>2026-04-05T12:18:41.000Z</time></trkpt>
      <trkpt lat="50.788352" lon="15.536857"><ele>1165.6</ele><time>2026-04-05T12:19:30.000Z</time></trkpt>
      <trkpt lat="50.788437" lon="15.536745"><ele>1165.0</ele><time>2026-04-05T12:20:09.000Z</time></trkpt>
      <trkpt lat="50.788204" lon="15.536600"><ele>1165.0</ele><time>2026-04-05T12:20:48.000Z</time></trkpt>
      <trkpt lat="50.788239" lon="15.536859"><ele>1165.2</ele><time>2026-04-05T12:21:41.000Z</time></trkpt>
      <trkpt lat="50.788338" lon="15.536725"><ele>1164.8</ele><time>2026-04-05T12:22:17.000Z</time></trkpt>
      <trkpt lat="50.788196" lon="15.536674"><ele>1165.6</ele><time>2026-04-05T12:23:20.000Z</time></trkpt>
      <trkpt lat="50.788230" lon="15.536362"><ele>1165.4</ele><time>2026-04-05T12:28:19.000Z</time></trkpt>
      <trkpt lat="50.788428" lon="15.536527"><ele>1161.6</ele><time>2026-04-05T12:29:29.000Z</time></trkpt>
      <trkpt lat="50.788458" lon="15.536498"><ele>1163.2</ele><time>2026-04-05T12:33:39.000Z</time></trkpt>
      <trkpt lat="50.788428" lon="15.536913"><ele>1158.0</ele><time>2026-04-05T12:34:14.000Z</time></trkpt>
      <trkpt lat="50.788565" lon="15.537112"><ele>1152.8</ele><time>2026-04-05T12:34:58.000Z</time></trkpt>
      <trkpt lat="50.788776" lon="15.536956"><ele>1146.6</ele><time>2026-04-05T12:35:26.000Z</time></trkpt>
      <trkpt lat="50.789055" lon="15.536766"><ele>1140.6</ele><time>2026-04-05T12:36:07.000Z</time></trkpt>
      <trkpt lat="50.789387" lon="15.536558"><ele>1134.4</ele><time>2026-04-05T12:36:49.000Z</time></trkpt>
      <trkpt lat="50.789691" lon="15.536011"><ele>1130.6</ele><time>2026-04-05T12:37:35.000Z</time></trkpt>
      <trkpt lat="50.789895" lon="15.535538"><ele>1129.2</ele><time>2026-04-05T12:38:11.000Z</time></trkpt>
      <trkpt lat="50.790142" lon="15.534906"><ele>1127.6</ele><time>2026-04-05T12:39:03.000Z</time></trkpt>
      <trkpt lat="50.790402" lon="15.534204"><ele>1125.0</ele><time>2026-04-05T12:39:51.000Z</time></trkpt>
      <trkpt lat="50.790561" lon="15.533789"><ele>1124.4</ele><time>2026-04-05T12:40:25.000Z</time></trkpt>
      <trkpt lat="50.790737" lon="15.533261"><ele>1121.8</ele><time>2026-04-05T12:41:04.000Z</time></trkpt>
      <trkpt lat="50.790876" lon="15.532866"><ele>1120.6</ele><time>2026-04-05T12:41:34.000Z</time></trkpt>
      <trkpt lat="50.790982" lon="15.532658"><ele>1119.4</ele><time>2026-04-05T12:42:10.000Z</time></trkpt>
      <trkpt lat="50.791073" lon="15.532206"><ele>1117.2</ele><time>2026-04-05T12:43:12.000Z</time></trkpt>
      <trkpt lat="50.790868" lon="15.531654"><ele>1115.0</ele><time>2026-04-05T12:43:51.000Z</time></trkpt>
      <trkpt lat="50.790676" lon="15.531290"><ele>1112.2</ele><time>2026-04-05T12:44:20.000Z</time></trkpt>
      <trkpt lat="50.790468" lon="15.530861"><ele>1110.4</ele><time>2026-04-05T12:44:52.000Z</time></trkpt>
      <trkpt lat="50.790277" lon="15.530338"><ele>1108.6</ele><time>2026-04-05T12:45:26.000Z</time></trkpt>
      <trkpt lat="50.790202" lon="15.529805"><ele>1103.0</ele><time>2026-04-05T12:46:06.000Z</time></trkpt>
      <trkpt lat="50.790303" lon="15.529364"><ele>1098.6</ele><time>2026-04-05T12:46:41.000Z</time></trkpt>
      <trkpt lat="50.790504" lon="15.529080"><ele>1093.4</ele><time>2026-04-05T12:47:11.000Z</time></trkpt>
      <trkpt lat="50.790716" lon="15.528784"><ele>1088.6</ele><time>2026-04-05T12:48:00.000Z</time></trkpt>
      <trkpt lat="50.790987" lon="15.528303"><ele>1080.8</ele><time>2026-04-05T12:49:09.000Z</time></trkpt>
      <trkpt lat="50.791048" lon="15.528042"><ele>1075.8</ele><time>2026-04-05T12:49:45.000Z</time></trkpt>
      <trkpt lat="50.791191" lon="15.527654"><ele>1071.8</ele><time>2026-04-05T12:50:27.000Z</time></trkpt>
      <trkpt lat="50.791315" lon="15.527317"><ele>1067.2</ele><time>2026-04-05T12:51:01.000Z</time></trkpt>
      <trkpt lat="50.791444" lon="15.527086"><ele>1061.8</ele><time>2026-04-05T12:51:34.000Z</time></trkpt>
      <trkpt lat="50.791573" lon="15.526594"><ele>1056.0</ele><time>2026-04-05T12:52:17.000Z</time></trkpt>
      <trkpt lat="50.791621" lon="15.526185"><ele>1050.2</ele><time>2026-04-05T12:53:00.000Z</time></trkpt>
      <trkpt lat="50.791742" lon="15.525903"><ele>1047.6</ele><time>2026-04-05T12:54:03.000Z</time></trkpt>
      <trkpt lat="50.791980" lon="15.525821"><ele>1045.4</ele><time>2026-04-05T12:54:42.000Z</time></trkpt>
      <trkpt lat="50.792281" lon="15.525860"><ele>1042.4</ele><time>2026-04-05T12:55:19.000Z</time></trkpt>
      <trkpt lat="50.792529" lon="15.525979"><ele>1037.2</ele><time>2026-04-05T12:55:53.000Z</time></trkpt>
      <trkpt lat="50.792749" lon="15.526102"><ele>1032.4</ele><time>2026-04-05T12:56:21.000Z</time></trkpt>
      <trkpt lat="50.792963" lon="15.526217"><ele>1029.0</ele><time>2026-04-05T12:57:19.000Z</time></trkpt>
      <trkpt lat="50.793247" lon="15.526295"><ele>1022.0</ele><time>2026-04-05T12:57:58.000Z</time></trkpt>
      <trkpt lat="50.793672" lon="15.526380"><ele>1017.2</ele><time>2026-04-05T12:58:46.000Z</time></trkpt>
      <trkpt lat="50.793993" lon="15.526440"><ele>1010.2</ele><time>2026-04-05T12:59:25.000Z</time></trkpt>
      <trkpt lat="50.794109" lon="15.526479"><ele>1007.6</ele><time>2026-04-05T13:00:06.000Z</time></trkpt>
      <trkpt lat="50.794428" lon="15.526555"><ele>1002.0</ele><time>2026-04-05T13:00:35.000Z</time></trkpt>
      <trkpt lat="50.794743" lon="15.526655"><ele>996.6</ele><time>2026-04-05T13:01:09.000Z</time></trkpt>
      <trkpt lat="50.795034" lon="15.526700"><ele>991.0</ele><time>2026-04-05T13:01:40.000Z</time></trkpt>
      <trkpt lat="50.795348" lon="15.526832"><ele>984.6</ele><time>2026-04-05T13:02:20.000Z</time></trkpt>
      <trkpt lat="50.795504" lon="15.526898"><ele>979.2</ele><time>2026-04-05T13:02:47.000Z</time></trkpt>
      <trkpt lat="50.795604" lon="15.526924"><ele>976.0</ele><time>2026-04-05T13:03:12.000Z</time></trkpt>
      <trkpt lat="50.795839" lon="15.527053"><ele>971.0</ele><time>2026-04-05T13:03:39.000Z</time></trkpt>
      <trkpt lat="50.796036" lon="15.527213"><ele>966.8</ele><time>2026-04-05T13:04:03.000Z</time></trkpt>
      <trkpt lat="50.796378" lon="15.527372"><ele>961.2</ele><time>2026-04-05T13:04:40.000Z</time></trkpt>
      <trkpt lat="50.796556" lon="15.527511"><ele>956.8</ele><time>2026-04-05T13:05:12.000Z</time></trkpt>
      <trkpt lat="50.796617" lon="15.527544"><ele>957.2</ele><time>2026-04-05T13:06:58.000Z</time></trkpt>
      <trkpt lat="50.796940" lon="15.527650"><ele>950.8</ele><time>2026-04-05T13:07:29.000Z</time></trkpt>
      <trkpt lat="50.797207" lon="15.527820"><ele>946.8</ele><time>2026-04-05T13:08:01.000Z</time></trkpt>
      <trkpt lat="50.797453" lon="15.527995"><ele>940.0</ele><time>2026-04-05T13:08:39.000Z</time></trkpt>
      <trkpt lat="50.797673" lon="15.528107"><ele>934.0</ele><time>2026-04-05T13:09:17.000Z</time></trkpt>
      <trkpt lat="50.797859" lon="15.528254"><ele>929.8</ele><time>2026-04-05T13:09:46.000Z</time></trkpt>
      <trkpt lat="50.798061" lon="15.528448"><ele>925.8</ele><time>2026-04-05T13:10:24.000Z</time></trkpt>
      <trkpt lat="50.798327" lon="15.528705"><ele>920.8</ele><time>2026-04-05T13:11:02.000Z</time></trkpt>
      <trkpt lat="50.798433" lon="15.528816"><ele>918.4</ele><time>2026-04-05T13:11:43.000Z</time></trkpt>
      <trkpt lat="50.798633" lon="15.529112"><ele>910.8</ele><time>2026-04-05T13:13:15.000Z</time></trkpt>
      <trkpt lat="50.798856" lon="15.529151"><ele>907.2</ele><time>2026-04-05T13:14:06.000Z</time></trkpt>
      <trkpt lat="50.799173" lon="15.529290"><ele>903.4</ele><time>2026-04-05T13:14:42.000Z</time></trkpt>
      <trkpt lat="50.799550" lon="15.529419"><ele>900.4</ele><time>2026-04-05T13:15:18.000Z</time></trkpt>
      <trkpt lat="50.799917" lon="15.529548"><ele>897.2</ele><time>2026-04-05T13:16:10.000Z</time></trkpt>
      <trkpt lat="50.800136" lon="15.529681"><ele>891.8</ele><time>2026-04-05T13:16:37.000Z</time></trkpt>
      <trkpt lat="50.800338" lon="15.529827"><ele>886.6</ele><time>2026-04-05T13:17:10.000Z</time></trkpt>
      <trkpt lat="50.800764" lon="15.530028"><ele>880.8</ele><time>2026-04-05T13:17:54.000Z</time></trkpt>
      <trkpt lat="50.801150" lon="15.530205"><ele>878.6</ele><time>2026-04-05T13:18:35.000Z</time></trkpt>
      <trkpt lat="50.801591" lon="15.530304"><ele>876.2</ele><time>2026-04-05T13:19:25.000Z</time></trkpt>
      <trkpt lat="50.801921" lon="15.530397"><ele>871.0</ele><time>2026-04-05T13:20:06.000Z</time></trkpt>
      <trkpt lat="50.802313" lon="15.530331"><ele>867.0</ele><time>2026-04-05T13:20:51.000Z</time></trkpt>
      <trkpt lat="50.802571" lon="15.530194"><ele>861.4</ele><time>2026-04-05T13:21:27.000Z</time></trkpt>
      <trkpt lat="50.802978" lon="15.529923"><ele>858.6</ele><time>2026-04-05T13:22:03.000Z</time></trkpt>
      <trkpt lat="50.803363" lon="15.529512"><ele>857.2</ele><time>2026-04-05T13:22:51.000Z</time></trkpt>
      <trkpt lat="50.803598" lon="15.529382"><ele>852.6</ele><time>2026-04-05T13:23:30.000Z</time></trkpt>
      <trkpt lat="50.803774" lon="15.529305"><ele>848.6</ele><time>2026-04-05T13:24:01.000Z</time></trkpt>
      <trkpt lat="50.804088" lon="15.529017"><ele>844.8</ele><time>2026-04-05T13:24:34.000Z</time></trkpt>
      <trkpt lat="50.804337" lon="15.528825"><ele>841.4</ele><time>2026-04-05T13:25:15.000Z</time></trkpt>
      <trkpt lat="50.804558" lon="15.528702"><ele>840.2</ele><time>2026-04-05T13:25:53.000Z</time></trkpt>
      <trkpt lat="50.804821" lon="15.528531"><ele>838.8</ele><time>2026-04-05T13:26:48.000Z</time></trkpt>
      <trkpt lat="50.805152" lon="15.528326"><ele>835.8</ele><time>2026-04-05T13:27:18.000Z</time></trkpt>
      <trkpt lat="50.805584" lon="15.528108"><ele>831.8</ele><time>2026-04-05T13:27:59.000Z</time></trkpt>
      <trkpt lat="50.806073" lon="15.528079"><ele>825.0</ele><time>2026-04-05T13:28:49.000Z</time></trkpt>
      <trkpt lat="50.806568" lon="15.528095"><ele>820.6</ele><time>2026-04-05T13:29:31.000Z</time></trkpt>
      <trkpt lat="50.806898" lon="15.527965"><ele>817.2</ele><time>2026-04-05T13:30:18.000Z</time></trkpt>
      <trkpt lat="50.807366" lon="15.527995"><ele>812.0</ele><time>2026-04-05T13:30:54.000Z</time></trkpt>
      <trkpt lat="50.808001" lon="15.528374"><ele>807.0</ele><time>2026-04-05T13:31:48.000Z</time></trkpt>
      <trkpt lat="50.808423" lon="15.528579"><ele>800.4</ele><time>2026-04-05T13:32:28.000Z</time></trkpt>
      <trkpt lat="50.808738" lon="15.528848"><ele>795.6</ele><time>2026-04-05T13:33:01.000Z</time></trkpt>
      <trkpt lat="50.809185" lon="15.529320"><ele>790.0</ele><time>2026-04-05T13:33:47.000Z</time></trkpt>
      <trkpt lat="50.809572" lon="15.529602"><ele>785.0</ele><time>2026-04-05T13:34:28.000Z</time></trkpt>
      <trkpt lat="50.809928" lon="15.530065"><ele>781.8</ele><time>2026-04-05T13:35:01.000Z</time></trkpt>
      <trkpt lat="50.810117" lon="15.530564"><ele>777.6</ele><time>2026-04-05T13:35:33.000Z</time></trkpt>
      <trkpt lat="50.810396" lon="15.531046"><ele>772.6</ele><time>2026-04-05T13:36:12.000Z</time></trkpt>
      <trkpt lat="50.810733" lon="15.531305"><ele>767.2</ele><time>2026-04-05T13:36:58.000Z</time></trkpt>
      <trkpt lat="50.811064" lon="15.531476"><ele>764.6</ele><time>2026-04-05T13:37:38.000Z</time></trkpt>
      <trkpt lat="50.811449" lon="15.531374"><ele>760.2</ele><time>2026-04-05T13:38:14.000Z</time></trkpt>
      <trkpt lat="50.811815" lon="15.531037"><ele>756.8</ele><time>2026-04-05T13:38:52.000Z</time></trkpt>
      <trkpt lat="50.812015" lon="15.530627"><ele>754.2</ele><time>2026-04-05T13:39:19.000Z</time></trkpt>
      <trkpt lat="50.812212" lon="15.530148"><ele>751.4</ele><time>2026-04-05T13:39:52.000Z</time></trkpt>
      <trkpt lat="50.812297" lon="15.529755"><ele>751.0</ele><time>2026-04-05T13:40:15.000Z</time></trkpt>
      <trkpt lat="50.812616" lon="15.529240"><ele>747.6</ele><time>2026-04-05T13:40:54.000Z</time></trkpt>
      <trkpt lat="50.813040" lon="15.528779"><ele>743.6</ele><time>2026-04-05T13:41:39.000Z</time></trkpt>
      <trkpt lat="50.813176" lon="15.528281"><ele>741.6</ele><time>2026-04-05T13:42:10.000Z</time></trkpt>
      <trkpt lat="50.813223" lon="15.527769"><ele>737.0</ele><time>2026-04-05T13:42:42.000Z</time></trkpt>
      <trkpt lat="50.813013" lon="15.527286"><ele>735.0</ele><time>2026-04-05T13:43:14.000Z</time></trkpt>
      <trkpt lat="50.812987" lon="15.526792"><ele>732.6</ele><time>2026-04-05T13:43:42.000Z</time></trkpt>
      <trkpt lat="50.813588" lon="15.526713"><ele>727.0</ele><time>2026-04-05T13:44:30.000Z</time></trkpt>
      <trkpt lat="50.813923" lon="15.526593"><ele>725.2</ele><time>2026-04-05T13:45:14.000Z</time></trkpt>
      <trkpt lat="50.814441" lon="15.526523"><ele>720.8</ele><time>2026-04-05T13:46:04.000Z</time></trkpt>
      <trkpt lat="50.814994" lon="15.526535"><ele>716.6</ele><time>2026-04-05T13:46:52.000Z</time></trkpt>
      <trkpt lat="50.815463" lon="15.526468"><ele>711.2</ele><time>2026-04-05T13:47:33.000Z</time></trkpt>
      <trkpt lat="50.815906" lon="15.526532"><ele>704.8</ele><time>2026-04-05T13:48:08.000Z</time></trkpt>
      <trkpt lat="50.816243" lon="15.526417"><ele>702.8</ele><time>2026-04-05T13:48:45.000Z</time></trkpt>
      <trkpt lat="50.816573" lon="15.526188"><ele>700.0</ele><time>2026-04-05T13:49:15.000Z</time></trkpt>
      <trkpt lat="50.816676" lon="15.525918"><ele>704.4</ele><time>2026-04-05T13:50:10.000Z</time></trkpt>
      <trkpt lat="50.816762" lon="15.525490"><ele>703.8</ele><time>2026-04-05T13:50:47.000Z</time></trkpt>
      <trkpt lat="50.816730" lon="15.524878"><ele>706.2</ele><time>2026-04-05T13:51:27.000Z</time></trkpt>
      <trkpt lat="50.816708" lon="15.524396"><ele>707.8</ele><time>2026-04-05T13:52:01.000Z</time></trkpt>
      <trkpt lat="50.816797" lon="15.523566"><ele>708.0</ele><time>2026-04-05T13:52:58.000Z</time></trkpt>
      <trkpt lat="50.817254" lon="15.522811"><ele>707.4</ele><time>2026-04-05T13:54:03.000Z</time></trkpt>
      <trkpt lat="50.817474" lon="15.522282"><ele>706.2</ele><time>2026-04-05T13:54:40.000Z</time></trkpt>
      <trkpt lat="50.817657" lon="15.521509"><ele>706.6</ele><time>2026-04-05T13:55:28.000Z</time></trkpt>
      <trkpt lat="50.817730" lon="15.520899"><ele>706.4</ele><time>2026-04-05T13:56:08.000Z</time></trkpt>
      <trkpt lat="50.817914" lon="15.520129"><ele>704.4</ele><time>2026-04-05T13:56:54.000Z</time></trkpt>
      <trkpt lat="50.818252" lon="15.519449"><ele>702.4</ele><time>2026-04-05T13:57:57.000Z</time></trkpt>
      <trkpt lat="50.818524" lon="15.519228"><ele>704.4</ele><time>2026-04-05T13:58:29.000Z</time></trkpt>
      <trkpt lat="50.818848" lon="15.519107"><ele>703.6</ele><time>2026-04-05T13:59:15.000Z</time></trkpt>
      <trkpt lat="50.819068" lon="15.519410"><ele>698.0</ele><time>2026-04-05T13:59:53.000Z</time></trkpt>
      <trkpt lat="50.819222" lon="15.519782"><ele>692.8</ele><time>2026-04-05T14:00:32.000Z</time></trkpt>
      <trkpt lat="50.819482" lon="15.520182"><ele>687.0</ele><time>2026-04-05T14:01:15.000Z</time></trkpt>
      <trkpt lat="50.819844" lon="15.520740"><ele>682.6</ele><time>2026-04-05T14:02:07.000Z</time></trkpt>
      <trkpt lat="50.820264" lon="15.521367"><ele>680.2</ele><time>2026-04-05T14:03:02.000Z</time></trkpt>
      <trkpt lat="50.820676" lon="15.521809"><ele>678.4</ele><time>2026-04-05T14:03:52.000Z</time></trkpt>
      <trkpt lat="50.820929" lon="15.522346"><ele>674.2</ele><time>2026-04-05T14:04:35.000Z</time></trkpt>
      <trkpt lat="50.821226" lon="15.522596"><ele>668.6</ele><time>2026-04-05T14:05:13.000Z</time></trkpt>
      <trkpt lat="50.821387" lon="15.522811"><ele>663.2</ele><time>2026-04-05T14:05:41.000Z</time></trkpt>
      <trkpt lat="50.821623" lon="15.523280"><ele>657.4</ele><time>2026-04-05T14:06:18.000Z</time></trkpt>
      <trkpt lat="50.821752" lon="15.523797"><ele>654.2</ele><time>2026-04-05T14:07:09.000Z</time></trkpt>
      <trkpt lat="50.821788" lon="15.524713"><ele>651.0</ele><time>2026-04-05T14:08:04.000Z</time></trkpt>
      <trkpt lat="50.821938" lon="15.524746"><ele>651.0</ele><time>2026-04-05T14:08:35.000Z</time></trkpt>
      <trkpt lat="50.822166" lon="15.524939"><ele>650.2</ele><time>2026-04-05T14:09:25.000Z</time></trkpt>
      <trkpt lat="50.822097" lon="15.525096"><ele>649.2</ele><time>2026-04-05T14:10:15.000Z</time></trkpt>
      <trkpt lat="50.822080" lon="15.525222"><ele>648.6</ele><time>2026-04-05T14:10:44.000Z</time></trkpt>
      <trkpt lat="50.822100" lon="15.525142"><ele>648.0</ele><time>2026-04-05T14:11:37.000Z</time></trkpt>
      <trkpt lat="50.821990" lon="15.524960"><ele>647.0</ele><time>2026-04-05T14:12:21.000Z</time></trkpt>
      <trkpt lat="50.821975" lon="15.524944"><ele>646.4</ele><time>2026-04-05T14:12:28.000Z</time></trkpt>
    </trkseg>
  </trk>
</gpx>
