<?xml version="1.0" encoding="UTF-8"?>
<gpx version="1.1" creator="wdobrymkierunku.eu — 04-sniezka" xmlns="http://www.topografix.com/GPX/1/1">
  <metadata>
    <name>Karpacz → Samotnia → Śnieżka</name>
    <desc>9.1 km, suma podejść ok. 794 m (liczby jak w odcinku; z samej geometrii OSM/DEM wychodzi 9.0 km i +770 m). Geometria: OpenStreetMap (ODbL). Wysokości: GUGiK / ČÚZK.</desc>
    <copyright author="OpenStreetMap contributors"><license>https://opendatacommons.org/licenses/odbl/</license></copyright>
  </metadata>
  <trk>
    <name>Karpacz → Samotnia → Śnieżka</name>
    <desc>9.1 km, suma podejść ok. 794 m (liczby jak w odcinku; z samej geometrii OSM/DEM wychodzi 9.0 km i +770 m). Geometria: OpenStreetMap (ODbL). Wysokości: GUGiK / ČÚZK.</desc>
    <trkseg>
        <trkpt lat="50.7771211" lon="15.7238307"><ele>883.8</ele></trkpt>
        <trkpt lat="50.7771378" lon="15.7236739"><ele>883.8</ele></trkpt>
        <trkpt lat="50.7771614" lon="15.7234391"><ele>890.1</ele></trkpt>
        <trkpt lat="50.7771953" lon="15.7230019"><ele>890.1</ele></trkpt>
        <trkpt lat="50.7772089" lon="15.7225728"><ele>899.5</ele></trkpt>
        <trkpt lat="50.7772038" lon="15.7224038"><ele>899.5</ele></trkpt>
        <trkpt lat="50.7771851" lon="15.7221973"><ele>902.1</ele></trkpt>
        <trkpt lat="50.7770732" lon="15.7217869"><ele>905.7</ele></trkpt>
        <trkpt lat="50.7769796" lon="15.7214529"><ele>907.2</ele></trkpt>
        <trkpt lat="50.7769629" lon="15.7212961"><ele>907.2</ele></trkpt>
        <trkpt lat="50.7769579" lon="15.7211324"><ele>907.7</ele></trkpt>
        <trkpt lat="50.7769765" lon="15.7207784"><ele>908.5</ele></trkpt>
        <trkpt lat="50.7769612" lon="15.7206389"><ele>908.5</ele></trkpt>
        <trkpt lat="50.7769053" lon="15.7204834"><ele>910.3</ele></trkpt>
        <trkpt lat="50.7767153" lon="15.7201374"><ele>912.4</ele></trkpt>
        <trkpt lat="50.7765316" lon="15.7197679"><ele>915.4</ele></trkpt>
        <trkpt lat="50.7764830" lon="15.7196277"><ele>919.2</ele></trkpt>
        <trkpt lat="50.7764490" lon="15.7194668"><ele>919.2</ele></trkpt>
        <trkpt lat="50.7764338" lon="15.7193059"><ele>923.9</ele></trkpt>
        <trkpt lat="50.7764496" lon="15.7186845"><ele>929.7</ele></trkpt>
        <trkpt lat="50.7764299" lon="15.7183816"><ele>934.9</ele></trkpt>
        <trkpt lat="50.7764049" lon="15.7182464"><ele>938.6</ele></trkpt>
        <trkpt lat="50.7763591" lon="15.7181042"><ele>938.6</ele></trkpt>
        <trkpt lat="50.7762438" lon="15.7178441"><ele>941.1</ele></trkpt>
        <trkpt lat="50.7760793" lon="15.7175115"><ele>943.1</ele></trkpt>
        <trkpt lat="50.7757892" lon="15.7169241"><ele>949.1</ele></trkpt>
        <trkpt lat="50.7755016" lon="15.7162419"><ele>955.1</ele></trkpt>
        <trkpt lat="50.7753432" lon="15.7159075"><ele>956.4</ele></trkpt>
        <trkpt lat="50.7752277" lon="15.7156405"><ele>957.6</ele></trkpt>
        <trkpt lat="50.7750243" lon="15.7154219"><ele>957.9</ele></trkpt>
        <trkpt lat="50.7747675" lon="15.7152060"><ele>958.1</ele></trkpt>
        <trkpt lat="50.7745257" lon="15.7149767"><ele>958.6</ele></trkpt>
        <trkpt lat="50.7743151" lon="15.7147913"><ele>959.5</ele></trkpt>
        <trkpt lat="50.7741658" lon="15.7146944"><ele>960.8</ele></trkpt>
        <trkpt lat="50.7740354" lon="15.7146557"><ele>962.7</ele></trkpt>
        <trkpt lat="50.7738754" lon="15.7146552"><ele>962.7</ele></trkpt>
        <trkpt lat="50.7736121" lon="15.7146980"><ele>965.9</ele></trkpt>
        <trkpt lat="50.7733355" lon="15.7147145"><ele>968.2</ele></trkpt>
        <trkpt lat="50.7731249" lon="15.7147145"><ele>970.4</ele></trkpt>
        <trkpt lat="50.7728352" lon="15.7147178"><ele>972.2</ele></trkpt>
        <trkpt lat="50.7726225" lon="15.7147300"><ele>974.4</ele></trkpt>
        <trkpt lat="50.7722408" lon="15.7147300"><ele>980.7</ele></trkpt>
        <trkpt lat="50.7717913" lon="15.7147488"><ele>988.8</ele></trkpt>
        <trkpt lat="50.7713266" lon="15.7147568"><ele>989.5</ele></trkpt>
        <trkpt lat="50.7709349" lon="15.7147748"><ele>988.3</ele></trkpt>
        <trkpt lat="50.7708214" lon="15.7147649"><ele>988.3</ele></trkpt>
        <trkpt lat="50.7707282" lon="15.7147457"><ele>988.3</ele></trkpt>
        <trkpt lat="50.7706818" lon="15.7147287"><ele>987.1</ele></trkpt>
        <trkpt lat="50.7706264" lon="15.7146981"><ele>987.1</ele></trkpt>
        <trkpt lat="50.7703922" lon="15.7145133"><ele>987.1</ele></trkpt>
        <trkpt lat="50.7702206" lon="15.7143623"><ele>987.1</ele></trkpt>
        <trkpt lat="50.7701146" lon="15.7142472"><ele>988.4</ele></trkpt>
        <trkpt lat="50.7699582" lon="15.7140295"><ele>988.4</ele></trkpt>
        <trkpt lat="50.7698057" lon="15.7137773"><ele>990.5</ele></trkpt>
        <trkpt lat="50.7695841" lon="15.7133251"><ele>994.6</ele></trkpt>
        <trkpt lat="50.7694074" lon="15.7129637"><ele>996.9</ele></trkpt>
        <trkpt lat="50.7692112" lon="15.7125951"><ele>1000.9</ele></trkpt>
        <trkpt lat="50.7691042" lon="15.7123573"><ele>1004.2</ele></trkpt>
        <trkpt lat="50.7689763" lon="15.7119917"><ele>1010.1</ele></trkpt>
        <trkpt lat="50.7688931" lon="15.7117153"><ele>1017.3</ele></trkpt>
        <trkpt lat="50.7688307" lon="15.7114180"><ele>1017.3</ele></trkpt>
        <trkpt lat="50.7687445" lon="15.7111356"><ele>1023.3</ele></trkpt>
        <trkpt lat="50.7686791" lon="15.7108532"><ele>1027.8</ele></trkpt>
        <trkpt lat="50.7686137" lon="15.7105798"><ele>1031.3</ele></trkpt>
        <trkpt lat="50.7685275" lon="15.7103033"><ele>1035.2</ele></trkpt>
        <trkpt lat="50.7684704" lon="15.7101929"><ele>1035.2</ele></trkpt>
        <trkpt lat="50.7682349" lon="15.7099816"><ele>1038.1</ele></trkpt>
        <trkpt lat="50.7680679" lon="15.7098241"><ele>1040.4</ele></trkpt>
        <trkpt lat="50.7669153" lon="15.7089202"><ele>1050.8</ele></trkpt>
        <trkpt lat="50.7668655" lon="15.7088669"><ele>1050.8</ele></trkpt>
        <trkpt lat="50.7668337" lon="15.7088219"><ele>1050.8</ele></trkpt>
        <trkpt lat="50.7668037" lon="15.7087684"><ele>1051.8</ele></trkpt>
        <trkpt lat="50.7667713" lon="15.7086920"><ele>1051.8</ele></trkpt>
        <trkpt lat="50.7664776" lon="15.7078312"><ele>1052.1</ele></trkpt>
        <trkpt lat="50.7662893" lon="15.7073357"><ele>1052.8</ele></trkpt>
        <trkpt lat="50.7661013" lon="15.7068781"><ele>1054.0</ele></trkpt>
        <trkpt lat="50.7660303" lon="15.7067160"><ele>1054.0</ele></trkpt>
        <trkpt lat="50.7653136" lon="15.7052355"><ele>1065.4</ele></trkpt>
        <trkpt lat="50.7651092" lon="15.7047734"><ele>1067.5</ele></trkpt>
        <trkpt lat="50.7650743" lon="15.7047219"><ele>1070.9</ele></trkpt>
        <trkpt lat="50.7650244" lon="15.7046823"><ele>1070.9</ele></trkpt>
        <trkpt lat="50.7649389" lon="15.7046749"><ele>1070.9</ele></trkpt>
        <trkpt lat="50.7648465" lon="15.7047064"><ele>1074.5</ele></trkpt>
        <trkpt lat="50.7644602" lon="15.7048008"><ele>1077.7</ele></trkpt>
        <trkpt lat="50.7640860" lon="15.7048922"><ele>1079.0</ele></trkpt>
        <trkpt lat="50.7639903" lon="15.7049048"><ele>1079.0</ele></trkpt>
        <trkpt lat="50.7637525" lon="15.7048282"><ele>1079.3</ele></trkpt>
        <trkpt lat="50.7633185" lon="15.7046944"><ele>1080.5</ele></trkpt>
        <trkpt lat="50.7629235" lon="15.7045222"><ele>1080.9</ele></trkpt>
        <trkpt lat="50.7622995" lon="15.7041642"><ele>1084.3</ele></trkpt>
        <trkpt lat="50.7621498" lon="15.7041207"><ele>1084.3</ele></trkpt>
        <trkpt lat="50.7620465" lon="15.7041132"><ele>1084.3</ele></trkpt>
        <trkpt lat="50.7616477" lon="15.7042004"><ele>1083.9</ele></trkpt>
        <trkpt lat="50.7614294" lon="15.7042211"><ele>1083.7</ele></trkpt>
        <trkpt lat="50.7610603" lon="15.7042909"><ele>1082.6</ele></trkpt>
        <trkpt lat="50.7607716" lon="15.7043361"><ele>1082.6</ele></trkpt>
        <trkpt lat="50.7602925" lon="15.7043323"><ele>1083.3</ele></trkpt>
        <trkpt lat="50.7599292" lon="15.7043323"><ele>1086.3</ele></trkpt>
        <trkpt lat="50.7597335" lon="15.7042909"><ele>1087.5</ele></trkpt>
        <trkpt lat="50.7595489" lon="15.7042122"><ele>1090.0</ele></trkpt>
        <trkpt lat="50.7592495" lon="15.7039868"><ele>1093.2</ele></trkpt>
        <trkpt lat="50.7591410" lon="15.7039044"><ele>1093.8</ele></trkpt>
        <trkpt lat="50.7590765" lon="15.7038964"><ele>1093.8</ele></trkpt>
        <trkpt lat="50.7589714" lon="15.7039397"><ele>1093.8</ele></trkpt>
        <trkpt lat="50.7588739" lon="15.7039971"><ele>1094.3</ele></trkpt>
        <trkpt lat="50.7587807" lon="15.7039333"><ele>1094.3</ele></trkpt>
        <trkpt lat="50.7586842" lon="15.7038456"><ele>1096.0</ele></trkpt>
        <trkpt lat="50.7585756" lon="15.7037651"><ele>1096.0</ele></trkpt>
        <trkpt lat="50.7583839" lon="15.7036096"><ele>1098.0</ele></trkpt>
        <trkpt lat="50.7580165" lon="15.7033042"><ele>1101.9</ele></trkpt>
        <trkpt lat="50.7578630" lon="15.7031670"><ele>1105.5</ele></trkpt>
        <trkpt lat="50.7576780" lon="15.7029873"><ele>1110.1</ele></trkpt>
        <trkpt lat="50.7575881" lon="15.7029337"><ele>1110.1</ele></trkpt>
        <trkpt lat="50.7575118" lon="15.7029095"><ele>1113.0</ele></trkpt>
        <trkpt lat="50.7574422" lon="15.7029256"><ele>1113.0</ele></trkpt>
        <trkpt lat="50.7573217" lon="15.7029095"><ele>1113.0</ele></trkpt>
        <trkpt lat="50.7571979" lon="15.7029015"><ele>1115.6</ele></trkpt>
        <trkpt lat="50.7570825" lon="15.7028344"><ele>1119.2</ele></trkpt>
        <trkpt lat="50.7570214" lon="15.7027808"><ele>1119.2</ele></trkpt>
        <trkpt lat="50.7569705" lon="15.7027432"><ele>1119.2</ele></trkpt>
        <trkpt lat="50.7569264" lon="15.7027110"><ele>1119.2</ele></trkpt>
        <trkpt lat="50.7568519" lon="15.7026908"><ele>1121.1</ele></trkpt>
        <trkpt lat="50.7566805" lon="15.7027986"><ele>1121.1</ele></trkpt>
        <trkpt lat="50.7565955" lon="15.7028747"><ele>1121.1</ele></trkpt>
        <trkpt lat="50.7565022" lon="15.7029283"><ele>1121.1</ele></trkpt>
        <trkpt lat="50.7563511" lon="15.7030222"><ele>1122.2</ele></trkpt>
        <trkpt lat="50.7561916" lon="15.7030624"><ele>1125.9</ele></trkpt>
        <trkpt lat="50.7560627" lon="15.7030209"><ele>1125.9</ele></trkpt>
        <trkpt lat="50.7559764" lon="15.7029798"><ele>1131.0</ele></trkpt>
        <trkpt lat="50.7559096" lon="15.7029441"><ele>1131.0</ele></trkpt>
        <trkpt lat="50.7558290" lon="15.7029079"><ele>1131.0</ele></trkpt>
        <trkpt lat="50.7557080" lon="15.7028104"><ele>1134.8</ele></trkpt>
        <trkpt lat="50.7555825" lon="15.7027298"><ele>1136.7</ele></trkpt>
        <trkpt lat="50.7555197" lon="15.7026520"><ele>1136.7</ele></trkpt>
        <trkpt lat="50.7554926" lon="15.7025903"><ele>1136.7</ele></trkpt>
        <trkpt lat="50.7554729" lon="15.7025041"><ele>1136.7</ele></trkpt>
        <trkpt lat="50.7554853" lon="15.7024180"><ele>1137.2</ele></trkpt>
        <trkpt lat="50.7555575" lon="15.7021014"><ele>1138.6</ele></trkpt>
        <trkpt lat="50.7555632" lon="15.7019688"><ele>1138.6</ele></trkpt>
        <trkpt lat="50.7555141" lon="15.7017632"><ele>1141.6</ele></trkpt>
        <trkpt lat="50.7554675" lon="15.7016052"><ele>1141.6</ele></trkpt>
        <trkpt lat="50.7553828" lon="15.7014505"><ele>1142.6</ele></trkpt>
        <trkpt lat="50.7552728" lon="15.7012772"><ele>1142.6</ele></trkpt>
        <trkpt lat="50.7551203" lon="15.7011799"><ele>1142.6</ele></trkpt>
        <trkpt lat="50.7547771" lon="15.7011350"><ele>1142.6</ele></trkpt>
        <trkpt lat="50.7547164" lon="15.7010752"><ele>1142.6</ele></trkpt>
        <trkpt lat="50.7546232" lon="15.7009182"><ele>1142.6</ele></trkpt>
        <trkpt lat="50.7545027" lon="15.7006632"><ele>1143.8</ele></trkpt>
        <trkpt lat="50.7544188" lon="15.7004995"><ele>1143.8</ele></trkpt>
        <trkpt lat="50.7543250" lon="15.7003844"><ele>1144.9</ele></trkpt>
        <trkpt lat="50.7541766" lon="15.7002182"><ele>1144.9</ele></trkpt>
        <trkpt lat="50.7540062" lon="15.7000629"><ele>1146.2</ele></trkpt>
        <trkpt lat="50.7539458" lon="15.6999599"><ele>1146.8</ele></trkpt>
        <trkpt lat="50.7537892" lon="15.6998280"><ele>1147.3</ele></trkpt>
        <trkpt lat="50.7536202" lon="15.6996796"><ele>1147.3</ele></trkpt>
        <trkpt lat="50.7534345" lon="15.6995314"><ele>1150.2</ele></trkpt>
        <trkpt lat="50.7533461" lon="15.6994242"><ele>1155.8</ele></trkpt>
        <trkpt lat="50.7533172" lon="15.6994069"><ele>1155.8</ele></trkpt>
        <trkpt lat="50.7532717" lon="15.6993749"><ele>1155.8</ele></trkpt>
        <trkpt lat="50.7532270" lon="15.6993690"><ele>1155.8</ele></trkpt>
        <trkpt lat="50.7531628" lon="15.6993822"><ele>1158.8</ele></trkpt>
        <trkpt lat="50.7530208" lon="15.6993569"><ele>1158.8</ele></trkpt>
        <trkpt lat="50.7529388" lon="15.6993817"><ele>1160.7</ele></trkpt>
        <trkpt lat="50.7529057" lon="15.6993819"><ele>1160.7</ele></trkpt>
        <trkpt lat="50.7528247" lon="15.6993320"><ele>1160.7</ele></trkpt>
        <trkpt lat="50.7527179" lon="15.6992645"><ele>1165.8</ele></trkpt>
        <trkpt lat="50.7526849" lon="15.6992511"><ele>1165.8</ele></trkpt>
        <trkpt lat="50.7526434" lon="15.6992101"><ele>1165.8</ele></trkpt>
        <trkpt lat="50.7525011" lon="15.6991982"><ele>1167.5</ele></trkpt>
        <trkpt lat="50.7524220" lon="15.6992246"><ele>1167.5</ele></trkpt>
        <trkpt lat="50.7523917" lon="15.6992498"><ele>1167.5</ele></trkpt>
        <trkpt lat="50.7523185" lon="15.6992787"><ele>1167.9</ele></trkpt>
        <trkpt lat="50.7521348" lon="15.6994198"><ele>1167.9</ele></trkpt>
        <trkpt lat="50.7520665" lon="15.6994699"><ele>1168.2</ele></trkpt>
        <trkpt lat="50.7519192" lon="15.6995298"><ele>1168.2</ele></trkpt>
        <trkpt lat="50.7518330" lon="15.6995858"><ele>1169.4</ele></trkpt>
        <trkpt lat="50.7516842" lon="15.6996578"><ele>1169.8</ele></trkpt>
        <trkpt lat="50.7515748" lon="15.6996843"><ele>1169.8</ele></trkpt>
        <trkpt lat="50.7514906" lon="15.6996741"><ele>1169.8</ele></trkpt>
        <trkpt lat="50.7513397" lon="15.6995623"><ele>1173.4</ele></trkpt>
        <trkpt lat="50.7511306" lon="15.6994625"><ele>1179.4</ele></trkpt>
        <trkpt lat="50.7510469" lon="15.6994581"><ele>1179.4</ele></trkpt>
        <trkpt lat="50.7509743" lon="15.6995078"><ele>1179.4</ele></trkpt>
        <trkpt lat="50.7507297" lon="15.6997648"><ele>1179.7</ele></trkpt>
        <trkpt lat="50.7505267" lon="15.6999514"><ele>1180.2</ele></trkpt>
        <trkpt lat="50.7504259" lon="15.7000407"><ele>1180.2</ele></trkpt>
        <trkpt lat="50.7503910" lon="15.7000898"><ele>1180.2</ele></trkpt>
        <trkpt lat="50.7503152" lon="15.7001157"><ele>1180.2</ele></trkpt>
        <trkpt lat="50.7502251" lon="15.7001318"><ele>1182.0</ele></trkpt>
        <trkpt lat="50.7501633" lon="15.7001083"><ele>1182.0</ele></trkpt>
        <trkpt lat="50.7500590" lon="15.7000297"><ele>1182.0</ele></trkpt>
        <trkpt lat="50.7499889" lon="15.6999558"><ele>1182.9</ele></trkpt>
        <trkpt lat="50.7498844" lon="15.6999338"><ele>1182.9</ele></trkpt>
        <trkpt lat="50.7497989" lon="15.6999547"><ele>1184.2</ele></trkpt>
        <trkpt lat="50.7497606" lon="15.6999819"><ele>1184.2</ele></trkpt>
        <trkpt lat="50.7497156" lon="15.7000372"><ele>1184.2</ele></trkpt>
        <trkpt lat="50.7496893" lon="15.7000902"><ele>1184.2</ele></trkpt>
        <trkpt lat="50.7496607" lon="15.7001732"><ele>1184.3</ele></trkpt>
        <trkpt lat="50.7496464" lon="15.7002565"><ele>1184.3</ele></trkpt>
        <trkpt lat="50.7496549" lon="15.7003393"><ele>1184.3</ele></trkpt>
        <trkpt lat="50.7496698" lon="15.7004302"><ele>1184.3</ele></trkpt>
        <trkpt lat="50.7497169" lon="15.7005656"><ele>1184.3</ele></trkpt>
        <trkpt lat="50.7497182" lon="15.7005956"><ele>1184.3</ele></trkpt>
        <trkpt lat="50.7497249" lon="15.7007259"><ele>1184.3</ele></trkpt>
        <trkpt lat="50.7497425" lon="15.7008845"><ele>1187.1</ele></trkpt>
        <trkpt lat="50.7497535" lon="15.7009701"><ele>1187.1</ele></trkpt>
        <trkpt lat="50.7497521" lon="15.7010567"><ele>1187.1</ele></trkpt>
        <trkpt lat="50.7497127" lon="15.7011978"><ele>1189.7</ele></trkpt>
        <trkpt lat="50.7496430" lon="15.7012876"><ele>1189.7</ele></trkpt>
        <trkpt lat="50.7495049" lon="15.7014065"><ele>1190.4</ele></trkpt>
        <trkpt lat="50.7494104" lon="15.7015674"><ele>1190.4</ele></trkpt>
        <trkpt lat="50.7493463" lon="15.7016947"><ele>1192.3</ele></trkpt>
        <trkpt lat="50.7492834" lon="15.7018413"><ele>1192.3</ele></trkpt>
        <trkpt lat="50.7491516" lon="15.7020237"><ele>1193.8</ele></trkpt>
        <trkpt lat="50.7490441" lon="15.7022390"><ele>1196.2</ele></trkpt>
        <trkpt lat="50.7489734" lon="15.7024027"><ele>1196.2</ele></trkpt>
        <trkpt lat="50.7488314" lon="15.7025514"><ele>1197.5</ele></trkpt>
        <trkpt lat="50.7488239" lon="15.7026258"><ele>1197.5</ele></trkpt>
        <trkpt lat="50.7488781" lon="15.7028646"><ele>1204.2</ele></trkpt>
        <trkpt lat="50.7488699" lon="15.7029595"><ele>1204.2</ele></trkpt>
        <trkpt lat="50.7487998" lon="15.7031867"><ele>1210.4</ele></trkpt>
        <trkpt lat="50.7487041" lon="15.7035426"><ele>1214.3</ele></trkpt>
        <trkpt lat="50.7486810" lon="15.7038036"><ele>1219.6</ele></trkpt>
        <trkpt lat="50.7486596" lon="15.7038602"><ele>1219.6</ele></trkpt>
        <trkpt lat="50.7486190" lon="15.7039093"><ele>1219.6</ele></trkpt>
        <trkpt lat="50.7485046" lon="15.7039934"><ele>1223.1</ele></trkpt>
        <trkpt lat="50.7483092" lon="15.7041487"><ele>1230.5</ele></trkpt>
        <trkpt lat="50.7482714" lon="15.7041830"><ele>1230.5</ele></trkpt>
        <trkpt lat="50.7482838" lon="15.7042670"><ele>1230.5</ele></trkpt>
        <trkpt lat="50.7483386" lon="15.7043854"><ele>1235.2</ele></trkpt>
        <trkpt lat="50.7485180" lon="15.7046503"><ele>1239.1</ele></trkpt>
        <trkpt lat="50.7487407" lon="15.7052946"><ele>1246.2</ele></trkpt>
        <trkpt lat="50.7488387" lon="15.7054523"><ele>1248.0</ele></trkpt>
        <trkpt lat="50.7490500" lon="15.7056071"><ele>1248.0</ele></trkpt>
        <trkpt lat="50.7491567" lon="15.7057605"><ele>1249.5</ele></trkpt>
        <trkpt lat="50.7493175" lon="15.7059000"><ele>1250.3</ele></trkpt>
        <trkpt lat="50.7495202" lon="15.7061166"><ele>1252.9</ele></trkpt>
        <trkpt lat="50.7498590" lon="15.7064858"><ele>1255.7</ele></trkpt>
        <trkpt lat="50.7499659" lon="15.7067641"><ele>1258.4</ele></trkpt>
        <trkpt lat="50.7501719" lon="15.7071043"><ele>1259.2</ele></trkpt>
        <trkpt lat="50.7503195" lon="15.7074108"><ele>1261.4</ele></trkpt>
        <trkpt lat="50.7506673" lon="15.7078873"><ele>1262.5</ele></trkpt>
        <trkpt lat="50.7506570" lon="15.7079879"><ele>1266.8</ele></trkpt>
        <trkpt lat="50.7505761" lon="15.7080638"><ele>1266.8</ele></trkpt>
        <trkpt lat="50.7505343" lon="15.7081478"><ele>1266.8</ele></trkpt>
        <trkpt lat="50.7506456" lon="15.7085537"><ele>1268.4</ele></trkpt>
        <trkpt lat="50.7507196" lon="15.7087225"><ele>1268.4</ele></trkpt>
        <trkpt lat="50.7507595" lon="15.7087896"><ele>1268.4</ele></trkpt>
        <trkpt lat="50.7508524" lon="15.7088502"><ele>1269.2</ele></trkpt>
        <trkpt lat="50.7508412" lon="15.7091665"><ele>1269.7</ele></trkpt>
        <trkpt lat="50.7508072" lon="15.7096369"><ele>1273.5</ele></trkpt>
        <trkpt lat="50.7507574" lon="15.7099752"><ele>1277.1</ele></trkpt>
        <trkpt lat="50.7506885" lon="15.7102711"><ele>1280.1</ele></trkpt>
        <trkpt lat="50.7505936" lon="15.7105527"><ele>1282.8</ele></trkpt>
        <trkpt lat="50.7504663" lon="15.7108114"><ele>1285.3</ele></trkpt>
        <trkpt lat="50.7503144" lon="15.7110045"><ele>1287.6</ele></trkpt>
        <trkpt lat="50.7502281" lon="15.7110722"><ele>1287.6</ele></trkpt>
        <trkpt lat="50.7500493" lon="15.7111824"><ele>1290.5</ele></trkpt>
        <trkpt lat="50.7499057" lon="15.7112242"><ele>1293.8</ele></trkpt>
        <trkpt lat="50.7498421" lon="15.7112427"><ele>1293.8</ele></trkpt>
        <trkpt lat="50.7497538" lon="15.7112406"><ele>1293.8</ele></trkpt>
        <trkpt lat="50.7496490" lon="15.7112201"><ele>1298.0</ele></trkpt>
        <trkpt lat="50.7495566" lon="15.7111934"><ele>1298.0</ele></trkpt>
        <trkpt lat="50.7494683" lon="15.7111503"><ele>1298.0</ele></trkpt>
        <trkpt lat="50.7492979" lon="15.7110271"><ele>1303.5</ele></trkpt>
        <trkpt lat="50.7492178" lon="15.7109408"><ele>1309.4</ele></trkpt>
        <trkpt lat="50.7491542" lon="15.7108381"><ele>1309.4</ele></trkpt>
        <trkpt lat="50.7490474" lon="15.7106636"><ele>1315.2</ele></trkpt>
        <trkpt lat="50.7489160" lon="15.7104254"><ele>1320.5</ele></trkpt>
        <trkpt lat="50.7487676" lon="15.7100441"><ele>1325.5</ele></trkpt>
        <trkpt lat="50.7486663" lon="15.7097625"><ele>1329.4</ele></trkpt>
        <trkpt lat="50.7485221" lon="15.7093751"><ele>1331.7</ele></trkpt>
        <trkpt lat="50.7483586" lon="15.7090167"><ele>1333.0</ele></trkpt>
        <trkpt lat="50.7482950" lon="15.7088863"><ele>1334.6</ele></trkpt>
        <trkpt lat="50.7481747" lon="15.7086577"><ele>1336.9</ele></trkpt>
        <trkpt lat="50.7480371" lon="15.7084500"><ele>1340.3</ele></trkpt>
        <trkpt lat="50.7478711" lon="15.7082700"><ele>1340.3</ele></trkpt>
        <trkpt lat="50.7475700" lon="15.7079966"><ele>1346.5</ele></trkpt>
        <trkpt lat="50.7472381" lon="15.7076629"><ele>1351.7</ele></trkpt>
        <trkpt lat="50.7467511" lon="15.7071806"><ele>1357.4</ele></trkpt>
        <trkpt lat="50.7462925" lon="15.7067967"><ele>1363.5</ele></trkpt>
        <trkpt lat="50.7459242" lon="15.7065536"><ele>1367.2</ele></trkpt>
        <trkpt lat="50.7456120" lon="15.7063698"><ele>1374.8</ele></trkpt>
        <trkpt lat="50.7452280" lon="15.7062015"><ele>1383.5</ele></trkpt>
        <trkpt lat="50.7448625" lon="15.7059879"><ele>1386.1</ele></trkpt>
        <trkpt lat="50.7444342" lon="15.7057263"><ele>1390.2</ele></trkpt>
        <trkpt lat="50.7442298" lon="15.7055927"><ele>1392.2</ele></trkpt>
        <trkpt lat="50.7440596" lon="15.7055074"><ele>1394.7</ele></trkpt>
        <trkpt lat="50.7439293" lon="15.7054301"><ele>1397.2</ele></trkpt>
        <trkpt lat="50.7437043" lon="15.7052979"><ele>1398.4</ele></trkpt>
        <trkpt lat="50.7435232" lon="15.7051966"><ele>1400.1</ele></trkpt>
        <trkpt lat="50.7432639" lon="15.7051473"><ele>1401.8</ele></trkpt>
        <trkpt lat="50.7429630" lon="15.7051049"><ele>1404.4</ele></trkpt>
        <trkpt lat="50.7427782" lon="15.7050823"><ele>1407.4</ele></trkpt>
        <trkpt lat="50.7425880" lon="15.7050759"><ele>1410.6</ele></trkpt>
        <trkpt lat="50.7424130" lon="15.7050862"><ele>1412.9</ele></trkpt>
        <trkpt lat="50.7422971" lon="15.7051228"><ele>1412.9</ele></trkpt>
        <trkpt lat="50.7421478" lon="15.7051941"><ele>1416.1</ele></trkpt>
        <trkpt lat="50.7419655" lon="15.7053227"><ele>1418.5</ele></trkpt>
        <trkpt lat="50.7417855" lon="15.7054535"><ele>1420.8</ele></trkpt>
        <trkpt lat="50.7415679" lon="15.7057014"><ele>1423.3</ele></trkpt>
        <trkpt lat="50.7413288" lon="15.7060610"><ele>1425.8</ele></trkpt>
        <trkpt lat="50.7411545" lon="15.7064425"><ele>1428.9</ele></trkpt>
        <trkpt lat="50.7411512" lon="15.7064579"><ele>1428.9</ele></trkpt>
        <trkpt lat="50.7411340" lon="15.7066090"><ele>1428.9</ele></trkpt>
        <trkpt lat="50.7411352" lon="15.7067149"><ele>1428.9</ele></trkpt>
        <trkpt lat="50.7413446" lon="15.7088561"><ele>1433.1</ele></trkpt>
        <trkpt lat="50.7414825" lon="15.7099121"><ele>1436.4</ele></trkpt>
        <trkpt lat="50.7415659" lon="15.7103858"><ele>1437.7</ele></trkpt>
        <trkpt lat="50.7416695" lon="15.7109206"><ele>1437.7</ele></trkpt>
        <trkpt lat="50.7418482" lon="15.7116191"><ele>1437.0</ele></trkpt>
        <trkpt lat="50.7419627" lon="15.7121927"><ele>1436.8</ele></trkpt>
        <trkpt lat="50.7420311" lon="15.7127616"><ele>1435.9</ele></trkpt>
        <trkpt lat="50.7419847" lon="15.7135119"><ele>1433.9</ele></trkpt>
        <trkpt lat="50.7418483" lon="15.7143860"><ele>1431.3</ele></trkpt>
        <trkpt lat="50.7416735" lon="15.7154312"><ele>1427.5</ele></trkpt>
        <trkpt lat="50.7414988" lon="15.7164781"><ele>1426.5</ele></trkpt>
        <trkpt lat="50.7413784" lon="15.7173467"><ele>1424.7</ele></trkpt>
        <trkpt lat="50.7413472" lon="15.7179902"><ele>1422.4</ele></trkpt>
        <trkpt lat="50.7413058" lon="15.7182677"><ele>1421.3</ele></trkpt>
        <trkpt lat="50.7412216" lon="15.7185689"><ele>1420.3</ele></trkpt>
        <trkpt lat="50.7411906" lon="15.7188064"><ele>1420.3</ele></trkpt>
        <trkpt lat="50.7411690" lon="15.7192361"><ele>1413.1</ele></trkpt>
        <trkpt lat="50.7411793" lon="15.7195482"><ele>1411.0</ele></trkpt>
        <trkpt lat="50.7411745" lon="15.7196389"><ele>1411.0</ele></trkpt>
        <trkpt lat="50.7411517" lon="15.7197822"><ele>1411.0</ele></trkpt>
        <trkpt lat="50.7410454" lon="15.7202363"><ele>1408.0</ele></trkpt>
        <trkpt lat="50.7409285" lon="15.7215593"><ele>1400.2</ele></trkpt>
        <trkpt lat="50.7407423" lon="15.7223056"><ele>1392.4</ele></trkpt>
        <trkpt lat="50.7405854" lon="15.7233979"><ele>1385.7</ele></trkpt>
        <trkpt lat="50.7404524" lon="15.7242483"><ele>1385.3</ele></trkpt>
        <trkpt lat="50.7403942" lon="15.7244830"><ele>1385.3</ele></trkpt>
        <trkpt lat="50.7403228" lon="15.7246410"><ele>1385.3</ele></trkpt>
        <trkpt lat="50.7402509" lon="15.7247930"><ele>1387.3</ele></trkpt>
        <trkpt lat="50.7401799" lon="15.7249510"><ele>1389.5</ele></trkpt>
        <trkpt lat="50.7401132" lon="15.7251380"><ele>1389.5</ele></trkpt>
        <trkpt lat="50.7400061" lon="15.7254530"><ele>1391.0</ele></trkpt>
        <trkpt lat="50.7399538" lon="15.7256095"><ele>1392.4</ele></trkpt>
        <trkpt lat="50.7399165" lon="15.7257711"><ele>1392.4</ele></trkpt>
        <trkpt lat="50.7398828" lon="15.7258944"><ele>1393.4</ele></trkpt>
        <trkpt lat="50.7398495" lon="15.7260243"><ele>1393.4</ele></trkpt>
        <trkpt lat="50.7398277" lon="15.7261631"><ele>1393.4</ele></trkpt>
        <trkpt lat="50.7398169" lon="15.7263108"><ele>1394.4</ele></trkpt>
        <trkpt lat="50.7397912" lon="15.7266681"><ele>1394.4</ele></trkpt>
        <trkpt lat="50.7397856" lon="15.7268556"><ele>1394.4</ele></trkpt>
        <trkpt lat="50.7397800" lon="15.7270422"><ele>1394.4</ele></trkpt>
        <trkpt lat="50.7397669" lon="15.7272926"><ele>1394.4</ele></trkpt>
        <trkpt lat="50.7397476" lon="15.7275104"><ele>1393.3</ele></trkpt>
        <trkpt lat="50.7397090" lon="15.7276823"><ele>1392.0</ele></trkpt>
        <trkpt lat="50.7396557" lon="15.7278433"><ele>1392.0</ele></trkpt>
        <trkpt lat="50.7394794" lon="15.7283379"><ele>1392.0</ele></trkpt>
        <trkpt lat="50.7393864" lon="15.7286167"><ele>1392.2</ele></trkpt>
        <trkpt lat="50.7392841" lon="15.7289070"><ele>1392.2</ele></trkpt>
        <trkpt lat="50.7394032" lon="15.7290070"><ele>1392.2</ele></trkpt>
        <trkpt lat="50.7392841" lon="15.7289070"><ele>1392.2</ele></trkpt>
        <trkpt lat="50.7392217" lon="15.7290843"><ele>1392.2</ele></trkpt>
        <trkpt lat="50.7391727" lon="15.7292098"><ele>1391.9</ele></trkpt>
        <trkpt lat="50.7389049" lon="15.7299665"><ele>1391.9</ele></trkpt>
        <trkpt lat="50.7387953" lon="15.7302762"><ele>1393.2</ele></trkpt>
        <trkpt lat="50.7387355" lon="15.7304504"><ele>1395.4</ele></trkpt>
        <trkpt lat="50.7387075" lon="15.7305360"><ele>1395.4</ele></trkpt>
        <trkpt lat="50.7386828" lon="15.7305892"><ele>1395.4</ele></trkpt>
        <trkpt lat="50.7386458" lon="15.7306571"><ele>1395.4</ele></trkpt>
        <trkpt lat="50.7385982" lon="15.7307279"><ele>1398.8</ele></trkpt>
        <trkpt lat="50.7385141" lon="15.7308121"><ele>1398.8</ele></trkpt>
        <trkpt lat="50.7384112" lon="15.7309158"><ele>1402.7</ele></trkpt>
        <trkpt lat="50.7382646" lon="15.7310454"><ele>1402.7</ele></trkpt>
        <trkpt lat="50.7381908" lon="15.7311177"><ele>1406.2</ele></trkpt>
        <trkpt lat="50.7381511" lon="15.7311659"><ele>1406.2</ele></trkpt>
        <trkpt lat="50.7381187" lon="15.7312145"><ele>1406.2</ele></trkpt>
        <trkpt lat="50.7380848" lon="15.7312836"><ele>1409.7</ele></trkpt>
        <trkpt lat="50.7380430" lon="15.7313902"><ele>1409.7</ele></trkpt>
        <trkpt lat="50.7380130" lon="15.7314040"><ele>1409.7</ele></trkpt>
        <trkpt lat="50.7379404" lon="15.7314451"><ele>1409.7</ele></trkpt>
        <trkpt lat="50.7377574" lon="15.7316347"><ele>1410.6</ele></trkpt>
        <trkpt lat="50.7376835" lon="15.7317784"><ele>1413.0</ele></trkpt>
        <trkpt lat="50.7374383" lon="15.7320790"><ele>1416.4</ele></trkpt>
        <trkpt lat="50.7373093" lon="15.7322293"><ele>1419.7</ele></trkpt>
        <trkpt lat="50.7371915" lon="15.7323772"><ele>1425.0</ele></trkpt>
        <trkpt lat="50.7371275" lon="15.7324492"><ele>1425.0</ele></trkpt>
        <trkpt lat="50.7370635" lon="15.7325238"><ele>1425.0</ele></trkpt>
        <trkpt lat="50.7370182" lon="15.7325747"><ele>1430.9</ele></trkpt>
        <trkpt lat="50.7369807" lon="15.7326175"><ele>1430.9</ele></trkpt>
        <trkpt lat="50.7369524" lon="15.7326532"><ele>1430.9</ele></trkpt>
        <trkpt lat="50.7368926" lon="15.7327639"><ele>1430.9</ele></trkpt>
        <trkpt lat="50.7368877" lon="15.7327993"><ele>1430.9</ele></trkpt>
        <trkpt lat="50.7368480" lon="15.7328852"><ele>1438.2</ele></trkpt>
        <trkpt lat="50.7368280" lon="15.7329301"><ele>1438.2</ele></trkpt>
        <trkpt lat="50.7368208" lon="15.7329559"><ele>1438.2</ele></trkpt>
        <trkpt lat="50.7368196" lon="15.7329979"><ele>1438.2</ele></trkpt>
        <trkpt lat="50.7368163" lon="15.7330709"><ele>1438.2</ele></trkpt>
        <trkpt lat="50.7368151" lon="15.7332003"><ele>1446.1</ele></trkpt>
        <trkpt lat="50.7368176" lon="15.7334644"><ele>1453.2</ele></trkpt>
        <trkpt lat="50.7368148" lon="15.7335011"><ele>1453.2</ele></trkpt>
        <trkpt lat="50.7368107" lon="15.7335176"><ele>1453.2</ele></trkpt>
        <trkpt lat="50.7368000" lon="15.7335324"><ele>1453.2</ele></trkpt>
        <trkpt lat="50.7367884" lon="15.7335370"><ele>1453.2</ele></trkpt>
        <trkpt lat="50.7367644" lon="15.7335195"><ele>1453.2</ele></trkpt>
        <trkpt lat="50.7367409" lon="15.7335047"><ele>1453.2</ele></trkpt>
        <trkpt lat="50.7367232" lon="15.7334971"><ele>1453.2</ele></trkpt>
        <trkpt lat="50.7367095" lon="15.7335016"><ele>1453.2</ele></trkpt>
        <trkpt lat="50.7367044" lon="15.7335171"><ele>1453.2</ele></trkpt>
        <trkpt lat="50.7367051" lon="15.7335325"><ele>1453.2</ele></trkpt>
        <trkpt lat="50.7367042" lon="15.7335891"><ele>1453.2</ele></trkpt>
        <trkpt lat="50.7367080" lon="15.7337037"><ele>1461.4</ele></trkpt>
        <trkpt lat="50.7367164" lon="15.7338851"><ele>1461.4</ele></trkpt>
        <trkpt lat="50.7367275" lon="15.7340710"><ele>1466.8</ele></trkpt>
        <trkpt lat="50.7367377" lon="15.7342662"><ele>1466.8</ele></trkpt>
        <trkpt lat="50.7367435" lon="15.7344771"><ele>1473.2</ele></trkpt>
        <trkpt lat="50.7367544" lon="15.7346342"><ele>1473.2</ele></trkpt>
        <trkpt lat="50.7367619" lon="15.7347166"><ele>1480.3</ele></trkpt>
        <trkpt lat="50.7367656" lon="15.7347988"><ele>1480.3</ele></trkpt>
        <trkpt lat="50.7367640" lon="15.7348145"><ele>1480.3</ele></trkpt>
        <trkpt lat="50.7367598" lon="15.7348226"><ele>1480.3</ele></trkpt>
        <trkpt lat="50.7367513" lon="15.7348202"><ele>1480.3</ele></trkpt>
        <trkpt lat="50.7367447" lon="15.7348121"><ele>1480.3</ele></trkpt>
        <trkpt lat="50.7367252" lon="15.7347891"><ele>1480.3</ele></trkpt>
        <trkpt lat="50.7367044" lon="15.7347566"><ele>1480.3</ele></trkpt>
        <trkpt lat="50.7366512" lon="15.7346797"><ele>1480.3</ele></trkpt>
        <trkpt lat="50.7365998" lon="15.7346184"><ele>1480.3</ele></trkpt>
        <trkpt lat="50.7365457" lon="15.7345843"><ele>1480.3</ele></trkpt>
        <trkpt lat="50.7364913" lon="15.7345413"><ele>1480.3</ele></trkpt>
        <trkpt lat="50.7363911" lon="15.7344968"><ele>1482.7</ele></trkpt>
        <trkpt lat="50.7362906" lon="15.7344439"><ele>1482.7</ele></trkpt>
        <trkpt lat="50.7361805" lon="15.7344038"><ele>1483.1</ele></trkpt>
        <trkpt lat="50.7361488" lon="15.7343992"><ele>1483.1</ele></trkpt>
        <trkpt lat="50.7361305" lon="15.7344095"><ele>1483.1</ele></trkpt>
        <trkpt lat="50.7361227" lon="15.7344378"><ele>1483.1</ele></trkpt>
        <trkpt lat="50.7361229" lon="15.7344986"><ele>1483.1</ele></trkpt>
        <trkpt lat="50.7361313" lon="15.7345474"><ele>1483.1</ele></trkpt>
        <trkpt lat="50.7361522" lon="15.7345803"><ele>1483.1</ele></trkpt>
        <trkpt lat="50.7361757" lon="15.7346267"><ele>1488.4</ele></trkpt>
        <trkpt lat="50.7362114" lon="15.7346952"><ele>1488.4</ele></trkpt>
        <trkpt lat="50.7362417" lon="15.7347786"><ele>1488.4</ele></trkpt>
        <trkpt lat="50.7362856" lon="15.7348692"><ele>1488.4</ele></trkpt>
        <trkpt lat="50.7363162" lon="15.7349609"><ele>1496.6</ele></trkpt>
        <trkpt lat="50.7363279" lon="15.7350245"><ele>1496.6</ele></trkpt>
        <trkpt lat="50.7363362" lon="15.7350877"><ele>1496.6</ele></trkpt>
        <trkpt lat="50.7363402" lon="15.7352910"><ele>1503.8</ele></trkpt>
        <trkpt lat="50.7363406" lon="15.7354691"><ele>1503.8</ele></trkpt>
        <trkpt lat="50.7363399" lon="15.7357889"><ele>1509.3</ele></trkpt>
        <trkpt lat="50.7363341" lon="15.7358002"><ele>1509.3</ele></trkpt>
        <trkpt lat="50.7363267" lon="15.7358004"><ele>1509.3</ele></trkpt>
        <trkpt lat="50.7363111" lon="15.7357876"><ele>1509.3</ele></trkpt>
        <trkpt lat="50.7362874" lon="15.7357674"><ele>1509.3</ele></trkpt>
        <trkpt lat="50.7362642" lon="15.7357684"><ele>1509.3</ele></trkpt>
        <trkpt lat="50.7362300" lon="15.7357737"><ele>1509.3</ele></trkpt>
        <trkpt lat="50.7362269" lon="15.7357906"><ele>1509.7</ele></trkpt>
        <trkpt lat="50.7362250" lon="15.7358080"><ele>1509.7</ele></trkpt>
        <trkpt lat="50.7362293" lon="15.7358294"><ele>1509.7</ele></trkpt>
        <trkpt lat="50.7362622" lon="15.7360678"><ele>1509.7</ele></trkpt>
        <trkpt lat="50.7362971" lon="15.7362771"><ele>1518.1</ele></trkpt>
        <trkpt lat="50.7363505" lon="15.7365666"><ele>1529.6</ele></trkpt>
        <trkpt lat="50.7364196" lon="15.7368757"><ele>1543.4</ele></trkpt>
        <trkpt lat="50.7364378" lon="15.7369829"><ele>1543.4</ele></trkpt>
        <trkpt lat="50.7364602" lon="15.7371414"><ele>1554.1</ele></trkpt>
        <trkpt lat="50.7364673" lon="15.7373034"><ele>1554.1</ele></trkpt>
        <trkpt lat="50.7364724" lon="15.7374595"><ele>1564.4</ele></trkpt>
        <trkpt lat="50.7364594" lon="15.7375610"><ele>1564.4</ele></trkpt>
        <trkpt lat="50.7364481" lon="15.7376616"><ele>1564.4</ele></trkpt>
        <trkpt lat="50.7364359" lon="15.7377872"><ele>1564.4</ele></trkpt>
        <trkpt lat="50.7364249" lon="15.7379169"><ele>1572.1</ele></trkpt>
        <trkpt lat="50.7364293" lon="15.7380616"><ele>1572.1</ele></trkpt>
        <trkpt lat="50.7364266" lon="15.7381949"><ele>1579.6</ele></trkpt>
        <trkpt lat="50.7364258" lon="15.7384455"><ele>1579.6</ele></trkpt>
        <trkpt lat="50.7364140" lon="15.7386182"><ele>1586.0</ele></trkpt>
        <trkpt lat="50.7364043" lon="15.7387088"><ele>1586.0</ele></trkpt>
        <trkpt lat="50.7363872" lon="15.7388606"><ele>1586.0</ele></trkpt>
        <trkpt lat="50.7363636" lon="15.7390260"><ele>1591.3</ele></trkpt>
        <trkpt lat="50.7363008" lon="15.7393596"><ele>1594.2</ele></trkpt>
        <trkpt lat="50.7362857" lon="15.7394372"><ele>1594.2</ele></trkpt>
        <trkpt lat="50.7362246" lon="15.7394732"><ele>1594.2</ele></trkpt>
        <trkpt lat="50.7361148" lon="15.7395311"><ele>1594.2</ele></trkpt>
    </trkseg>
  </trk>
</gpx>
