<?xml version="1.0" encoding="UTF-8"?>
<gpx version="1.1" creator="wdobrymkierunku.eu — 04-sniezka" xmlns="http://www.topografix.com/GPX/1/1">
  <metadata>
    <name>Pec → Růžová hora → Śnieżka</name>
    <desc>7.7 km, suma podejść ok. 854 m (liczby jak w odcinku; z samej geometrii OSM/DEM wychodzi 7.7 km i +852 m). Geometria: OpenStreetMap (ODbL). Wysokości: GUGiK / ČÚZK.</desc>
    <copyright author="OpenStreetMap contributors"><license>https://opendatacommons.org/licenses/odbl/</license></copyright>
  </metadata>
  <trk>
    <name>Pec → Růžová hora → Śnieżka</name>
    <desc>7.7 km, suma podejść ok. 854 m (liczby jak w odcinku; z samej geometrii OSM/DEM wychodzi 7.7 km i +852 m). Geometria: OpenStreetMap (ODbL). Wysokości: GUGiK / ČÚZK.</desc>
    <trkseg>
        <trkpt lat="50.6970494" lon="15.7375853"><ele>772.1</ele></trkpt>
        <trkpt lat="50.6967720" lon="15.7379580"><ele>770.6</ele></trkpt>
        <trkpt lat="50.6967113" lon="15.7380449"><ele>770.6</ele></trkpt>
        <trkpt lat="50.6965682" lon="15.7382214"><ele>768.6</ele></trkpt>
        <trkpt lat="50.6964089" lon="15.7383893"><ele>768.6</ele></trkpt>
        <trkpt lat="50.6961910" lon="15.7385526"><ele>767.6</ele></trkpt>
        <trkpt lat="50.6960026" lon="15.7386938"><ele>767.5</ele></trkpt>
        <trkpt lat="50.6958312" lon="15.7388085"><ele>767.5</ele></trkpt>
        <trkpt lat="50.6957392" lon="15.7388700"><ele>766.7</ele></trkpt>
        <trkpt lat="50.6956357" lon="15.7389553"><ele>766.7</ele></trkpt>
        <trkpt lat="50.6955883" lon="15.7389943"><ele>766.6</ele></trkpt>
        <trkpt lat="50.6954702" lon="15.7391610"><ele>766.6</ele></trkpt>
        <trkpt lat="50.6954444" lon="15.7393353"><ele>766.5</ele></trkpt>
        <trkpt lat="50.6954196" lon="15.7398197"><ele>764.7</ele></trkpt>
        <trkpt lat="50.6954103" lon="15.7400015"><ele>764.7</ele></trkpt>
        <trkpt lat="50.6953982" lon="15.7402103"><ele>764.7</ele></trkpt>
        <trkpt lat="50.6955405" lon="15.7403300"><ele>764.7</ele></trkpt>
        <trkpt lat="50.6956075" lon="15.7404861"><ele>767.6</ele></trkpt>
        <trkpt lat="50.6957474" lon="15.7420174"><ele>781.1</ele></trkpt>
        <trkpt lat="50.6959757" lon="15.7436832"><ele>814.6</ele></trkpt>
        <trkpt lat="50.6959672" lon="15.7439862"><ele>814.6</ele></trkpt>
        <trkpt lat="50.6958573" lon="15.7443408"><ele>814.6</ele></trkpt>
        <trkpt lat="50.6955467" lon="15.7448462"><ele>812.1</ele></trkpt>
        <trkpt lat="50.6950402" lon="15.7458419"><ele>811.9</ele></trkpt>
        <trkpt lat="50.6948114" lon="15.7464136"><ele>812.0</ele></trkpt>
        <trkpt lat="50.6945987" lon="15.7470169"><ele>811.9</ele></trkpt>
        <trkpt lat="50.6942612" lon="15.7484253"><ele>816.3</ele></trkpt>
        <trkpt lat="50.6940850" lon="15.7488619"><ele>816.3</ele></trkpt>
        <trkpt lat="50.6939126" lon="15.7492892"><ele>815.5</ele></trkpt>
        <trkpt lat="50.6937330" lon="15.7503427"><ele>816.5</ele></trkpt>
        <trkpt lat="50.6937115" lon="15.7507452"><ele>822.4</ele></trkpt>
        <trkpt lat="50.6936880" lon="15.7511826"><ele>824.6</ele></trkpt>
        <trkpt lat="50.6937166" lon="15.7522084"><ele>834.2</ele></trkpt>
        <trkpt lat="50.6938409" lon="15.7538604"><ele>852.9</ele></trkpt>
        <trkpt lat="50.6939651" lon="15.7548260"><ele>864.6</ele></trkpt>
        <trkpt lat="50.6942231" lon="15.7561536"><ele>881.1</ele></trkpt>
        <trkpt lat="50.6943283" lon="15.7564780"><ele>882.8</ele></trkpt>
        <trkpt lat="50.6946389" lon="15.7567646"><ele>892.5</ele></trkpt>
        <trkpt lat="50.6952744" lon="15.7571644"><ele>901.4</ele></trkpt>
        <trkpt lat="50.6955228" lon="15.7571644"><ele>906.2</ele></trkpt>
        <trkpt lat="50.6956853" lon="15.7572097"><ele>906.2</ele></trkpt>
        <trkpt lat="50.6959338" lon="15.7575416"><ele>913.5</ele></trkpt>
        <trkpt lat="50.6965597" lon="15.7585674"><ele>916.3</ele></trkpt>
        <trkpt lat="50.6970614" lon="15.7589220"><ele>919.3</ele></trkpt>
        <trkpt lat="50.6974676" lon="15.7592388"><ele>921.5</ele></trkpt>
        <trkpt lat="50.6982225" lon="15.7601214"><ele>921.9</ele></trkpt>
        <trkpt lat="50.6984469" lon="15.7604305"><ele>925.6</ele></trkpt>
        <trkpt lat="50.6985370" lon="15.7606349"><ele>930.7</ele></trkpt>
        <trkpt lat="50.6985385" lon="15.7608148"><ele>930.7</ele></trkpt>
        <trkpt lat="50.6988166" lon="15.7608757"><ele>935.8</ele></trkpt>
        <trkpt lat="50.6990380" lon="15.7609136"><ele>941.3</ele></trkpt>
        <trkpt lat="50.6992789" lon="15.7608647"><ele>945.8</ele></trkpt>
        <trkpt lat="50.6995264" lon="15.7607675"><ele>954.4</ele></trkpt>
        <trkpt lat="50.6996418" lon="15.7606764"><ele>954.4</ele></trkpt>
        <trkpt lat="50.6997485" lon="15.7605449"><ele>958.6</ele></trkpt>
        <trkpt lat="50.7001022" lon="15.7598618"><ele>964.6</ele></trkpt>
        <trkpt lat="50.7001465" lon="15.7595948"><ele>966.3</ele></trkpt>
        <trkpt lat="50.7001610" lon="15.7592931"><ele>967.8</ele></trkpt>
        <trkpt lat="50.7001754" lon="15.7588633"><ele>972.0</ele></trkpt>
        <trkpt lat="50.7001934" lon="15.7584848"><ele>977.2</ele></trkpt>
        <trkpt lat="50.7003070" lon="15.7573861"><ele>993.5</ele></trkpt>
        <trkpt lat="50.7004999" lon="15.7561963"><ele>1012.4</ele></trkpt>
        <trkpt lat="50.7005612" lon="15.7559060"><ele>1015.4</ele></trkpt>
        <trkpt lat="50.7008839" lon="15.7552855"><ele>1021.9</ele></trkpt>
        <trkpt lat="50.7009614" lon="15.7551346"><ele>1021.9</ele></trkpt>
        <trkpt lat="50.7010317" lon="15.7550435"><ele>1025.1</ele></trkpt>
        <trkpt lat="50.7012625" lon="15.7548357"><ele>1028.0</ele></trkpt>
        <trkpt lat="50.7014193" lon="15.7546792"><ele>1031.7</ele></trkpt>
        <trkpt lat="50.7016572" lon="15.7544453"><ele>1035.1</ele></trkpt>
        <trkpt lat="50.7019367" lon="15.7541498"><ele>1044.1</ele></trkpt>
        <trkpt lat="50.7020377" lon="15.7540644"><ele>1044.1</ele></trkpt>
        <trkpt lat="50.7022125" lon="15.7539847"><ele>1047.0</ele></trkpt>
        <trkpt lat="50.7024072" lon="15.7539818"><ele>1050.3</ele></trkpt>
        <trkpt lat="50.7025677" lon="15.7539989"><ele>1050.3</ele></trkpt>
        <trkpt lat="50.7026668" lon="15.7540729"><ele>1052.8</ele></trkpt>
        <trkpt lat="50.7027299" lon="15.7541697"><ele>1052.8</ele></trkpt>
        <trkpt lat="50.7027407" lon="15.7542892"><ele>1054.2</ele></trkpt>
        <trkpt lat="50.7027263" lon="15.7544287"><ele>1054.2</ele></trkpt>
        <trkpt lat="50.7026925" lon="15.7548722"><ele>1054.2</ele></trkpt>
        <trkpt lat="50.7027011" lon="15.7552314"><ele>1054.4</ele></trkpt>
        <trkpt lat="50.7027344" lon="15.7553959"><ele>1058.1</ele></trkpt>
        <trkpt lat="50.7028723" lon="15.7557210"><ele>1062.0</ele></trkpt>
        <trkpt lat="50.7032599" lon="15.7565265"><ele>1071.8</ele></trkpt>
        <trkpt lat="50.7035718" lon="15.7571242"><ele>1081.5</ele></trkpt>
        <trkpt lat="50.7037719" lon="15.7574771"><ele>1085.2</ele></trkpt>
        <trkpt lat="50.7043758" lon="15.7586698"><ele>1105.5</ele></trkpt>
        <trkpt lat="50.7048012" lon="15.7595407"><ele>1120.2</ele></trkpt>
        <trkpt lat="50.7048571" lon="15.7596466"><ele>1120.2</ele></trkpt>
        <trkpt lat="50.7049793" lon="15.7600096"><ele>1125.4</ele></trkpt>
        <trkpt lat="50.7054069" lon="15.7608600"><ele>1141.9</ele></trkpt>
        <trkpt lat="50.7055394" lon="15.7611105"><ele>1146.3</ele></trkpt>
        <trkpt lat="50.7056931" lon="15.7613419"><ele>1151.6</ele></trkpt>
        <trkpt lat="50.7060654" lon="15.7603357"><ele>1160.1</ele></trkpt>
        <trkpt lat="50.7062159" lon="15.7598682"><ele>1166.2</ele></trkpt>
        <trkpt lat="50.7062258" lon="15.7598373"><ele>1166.2</ele></trkpt>
        <trkpt lat="50.7064663" lon="15.7590847"><ele>1175.1</ele></trkpt>
        <trkpt lat="50.7067899" lon="15.7582903"><ele>1191.7</ele></trkpt>
        <trkpt lat="50.7069202" lon="15.7579037"><ele>1196.4</ele></trkpt>
        <trkpt lat="50.7069589" lon="15.7577129"><ele>1199.7</ele></trkpt>
        <trkpt lat="50.7070111" lon="15.7574242"><ele>1201.5</ele></trkpt>
        <trkpt lat="50.7070382" lon="15.7568440"><ele>1202.3</ele></trkpt>
        <trkpt lat="50.7070734" lon="15.7565992"><ele>1203.8</ele></trkpt>
        <trkpt lat="50.7071676" lon="15.7562966"><ele>1205.8</ele></trkpt>
        <trkpt lat="50.7073056" lon="15.7559746"><ele>1206.9</ele></trkpt>
        <trkpt lat="50.7076746" lon="15.7553586"><ele>1214.7</ele></trkpt>
        <trkpt lat="50.7077920" lon="15.7551227"><ele>1214.7</ele></trkpt>
        <trkpt lat="50.7079048" lon="15.7548394"><ele>1217.1</ele></trkpt>
        <trkpt lat="50.7081639" lon="15.7538276"><ele>1223.0</ele></trkpt>
        <trkpt lat="50.7083287" lon="15.7534508"><ele>1229.0</ele></trkpt>
        <trkpt lat="50.7086561" lon="15.7525325"><ele>1234.8</ele></trkpt>
        <trkpt lat="50.7088441" lon="15.7521566"><ele>1237.8</ele></trkpt>
        <trkpt lat="50.7091597" lon="15.7516065"><ele>1242.7</ele></trkpt>
        <trkpt lat="50.7093036" lon="15.7514293"><ele>1244.1</ele></trkpt>
        <trkpt lat="50.7095005" lon="15.7511292"><ele>1245.4</ele></trkpt>
        <trkpt lat="50.7095323" lon="15.7510808"><ele>1245.4</ele></trkpt>
        <trkpt lat="50.7097669" lon="15.7508084"><ele>1247.7</ele></trkpt>
        <trkpt lat="50.7099842" lon="15.7505688"><ele>1248.8</ele></trkpt>
        <trkpt lat="50.7100756" lon="15.7504934"><ele>1248.8</ele></trkpt>
        <trkpt lat="50.7101682" lon="15.7503785"><ele>1250.4</ele></trkpt>
        <trkpt lat="50.7103311" lon="15.7499207"><ele>1252.5</ele></trkpt>
        <trkpt lat="50.7103793" lon="15.7498627"><ele>1254.6</ele></trkpt>
        <trkpt lat="50.7105818" lon="15.7501296"><ele>1256.6</ele></trkpt>
        <trkpt lat="50.7107689" lon="15.7503812"><ele>1259.9</ele></trkpt>
        <trkpt lat="50.7108607" lon="15.7504421"><ele>1259.9</ele></trkpt>
        <trkpt lat="50.7110085" lon="15.7504184"><ele>1262.6</ele></trkpt>
        <trkpt lat="50.7111524" lon="15.7503449"><ele>1264.8</ele></trkpt>
        <trkpt lat="50.7115494" lon="15.7500325"><ele>1267.6</ele></trkpt>
        <trkpt lat="50.7116719" lon="15.7499392"><ele>1267.6</ele></trkpt>
        <trkpt lat="50.7121740" lon="15.7495884"><ele>1271.1</ele></trkpt>
        <trkpt lat="50.7123864" lon="15.7494638"><ele>1273.2</ele></trkpt>
        <trkpt lat="50.7125397" lon="15.7493739"><ele>1273.2</ele></trkpt>
        <trkpt lat="50.7128928" lon="15.7491898"><ele>1277.1</ele></trkpt>
        <trkpt lat="50.7142371" lon="15.7483869"><ele>1291.5</ele></trkpt>
        <trkpt lat="50.7149711" lon="15.7479819"><ele>1301.4</ele></trkpt>
        <trkpt lat="50.7152647" lon="15.7478589"><ele>1303.7</ele></trkpt>
        <trkpt lat="50.7154044" lon="15.7478003"><ele>1306.8</ele></trkpt>
        <trkpt lat="50.7156816" lon="15.7475779"><ele>1308.9</ele></trkpt>
        <trkpt lat="50.7159616" lon="15.7473534"><ele>1311.4</ele></trkpt>
        <trkpt lat="50.7164905" lon="15.7467009"><ele>1316.9</ele></trkpt>
        <trkpt lat="50.7171064" lon="15.7459074"><ele>1321.5</ele></trkpt>
        <trkpt lat="50.7172153" lon="15.7457966"><ele>1325.3</ele></trkpt>
        <trkpt lat="50.7172615" lon="15.7457464"><ele>1325.3</ele></trkpt>
        <trkpt lat="50.7176877" lon="15.7452836"><ele>1333.8</ele></trkpt>
        <trkpt lat="50.7177213" lon="15.7452463"><ele>1333.8</ele></trkpt>
        <trkpt lat="50.7177502" lon="15.7452142"><ele>1337.1</ele></trkpt>
        <trkpt lat="50.7177717" lon="15.7451903"><ele>1337.1</ele></trkpt>
        <trkpt lat="50.7179402" lon="15.7449789"><ele>1340.8</ele></trkpt>
        <trkpt lat="50.7180102" lon="15.7448723"><ele>1340.8</ele></trkpt>
        <trkpt lat="50.7181050" lon="15.7448096"><ele>1345.7</ele></trkpt>
        <trkpt lat="50.7182930" lon="15.7447660"><ele>1345.7</ele></trkpt>
        <trkpt lat="50.7184017" lon="15.7447687"><ele>1348.2</ele></trkpt>
        <trkpt lat="50.7186893" lon="15.7448153"><ele>1350.8</ele></trkpt>
        <trkpt lat="50.7191847" lon="15.7448314"><ele>1357.7</ele></trkpt>
        <trkpt lat="50.7192984" lon="15.7449019"><ele>1359.2</ele></trkpt>
        <trkpt lat="50.7194537" lon="15.7449295"><ele>1359.4</ele></trkpt>
        <trkpt lat="50.7197979" lon="15.7449885"><ele>1360.0</ele></trkpt>
        <trkpt lat="50.7202973" lon="15.7450558"><ele>1361.4</ele></trkpt>
        <trkpt lat="50.7205287" lon="15.7449981"><ele>1361.4</ele></trkpt>
        <trkpt lat="50.7211865" lon="15.7448249"><ele>1360.7</ele></trkpt>
        <trkpt lat="50.7215337" lon="15.7448249"><ele>1360.4</ele></trkpt>
        <trkpt lat="50.7216819" lon="15.7447578"><ele>1360.4</ele></trkpt>
        <trkpt lat="50.7218440" lon="15.7447224"><ele>1360.4</ele></trkpt>
        <trkpt lat="50.7219905" lon="15.7446710"><ele>1360.4</ele></trkpt>
        <trkpt lat="50.7226117" lon="15.7443247"><ele>1365.6</ele></trkpt>
        <trkpt lat="50.7227252" lon="15.7442512"><ele>1365.6</ele></trkpt>
        <trkpt lat="50.7229770" lon="15.7440605"><ele>1370.5</ele></trkpt>
        <trkpt lat="50.7232633" lon="15.7439014"><ele>1372.8</ele></trkpt>
        <trkpt lat="50.7235313" lon="15.7436994"><ele>1375.0</ele></trkpt>
        <trkpt lat="50.7237384" lon="15.7435070"><ele>1375.4</ele></trkpt>
        <trkpt lat="50.7238358" lon="15.7433915"><ele>1375.4</ele></trkpt>
        <trkpt lat="50.7239272" lon="15.7432376"><ele>1376.5</ele></trkpt>
        <trkpt lat="50.7240124" lon="15.7430933"><ele>1376.5</ele></trkpt>
        <trkpt lat="50.7244936" lon="15.7429009"><ele>1377.1</ele></trkpt>
        <trkpt lat="50.7246463" lon="15.7428156"><ele>1377.5</ele></trkpt>
        <trkpt lat="50.7248584" lon="15.7427366"><ele>1377.5</ele></trkpt>
        <trkpt lat="50.7250498" lon="15.7427039"><ele>1377.5</ele></trkpt>
        <trkpt lat="50.7254361" lon="15.7427884"><ele>1377.0</ele></trkpt>
        <trkpt lat="50.7257240" lon="15.7428565"><ele>1375.7</ele></trkpt>
        <trkpt lat="50.7260172" lon="15.7428674"><ele>1373.0</ele></trkpt>
        <trkpt lat="50.7262051" lon="15.7428483"><ele>1369.2</ele></trkpt>
        <trkpt lat="50.7263431" lon="15.7428047"><ele>1366.6</ele></trkpt>
        <trkpt lat="50.7264552" lon="15.7427584"><ele>1366.6</ele></trkpt>
        <trkpt lat="50.7265586" lon="15.7427012"><ele>1364.6</ele></trkpt>
        <trkpt lat="50.7266673" lon="15.7426004"><ele>1364.6</ele></trkpt>
        <trkpt lat="50.7268587" lon="15.7424806"><ele>1363.3</ele></trkpt>
        <trkpt lat="50.7269277" lon="15.7423961"><ele>1362.0</ele></trkpt>
        <trkpt lat="50.7270311" lon="15.7423335"><ele>1362.0</ele></trkpt>
        <trkpt lat="50.7271984" lon="15.7422517"><ele>1360.7</ele></trkpt>
        <trkpt lat="50.7273622" lon="15.7421836"><ele>1360.7</ele></trkpt>
        <trkpt lat="50.7275484" lon="15.7420883"><ele>1360.7</ele></trkpt>
        <trkpt lat="50.7277778" lon="15.7419957"><ele>1362.4</ele></trkpt>
        <trkpt lat="50.7283363" lon="15.7417464"><ele>1368.0</ele></trkpt>
        <trkpt lat="50.7288270" lon="15.7415122"><ele>1372.5</ele></trkpt>
        <trkpt lat="50.7290494" lon="15.7414155"><ele>1375.7</ele></trkpt>
        <trkpt lat="50.7291027" lon="15.7413580"><ele>1380.6</ele></trkpt>
        <trkpt lat="50.7291415" lon="15.7413388"><ele>1380.6</ele></trkpt>
        <trkpt lat="50.7292989" lon="15.7414149"><ele>1385.0</ele></trkpt>
        <trkpt lat="50.7293321" lon="15.7413464"><ele>1385.0</ele></trkpt>
        <trkpt lat="50.7293785" lon="15.7413000"><ele>1385.0</ele></trkpt>
        <trkpt lat="50.7294080" lon="15.7412366"><ele>1385.0</ele></trkpt>
        <trkpt lat="50.7294214" lon="15.7411768"><ele>1389.9</ele></trkpt>
        <trkpt lat="50.7294418" lon="15.7411215"><ele>1389.9</ele></trkpt>
        <trkpt lat="50.7294750" lon="15.7410730"><ele>1389.9</ele></trkpt>
        <trkpt lat="50.7295542" lon="15.7410345"><ele>1389.9</ele></trkpt>
        <trkpt lat="50.7296136" lon="15.7410286"><ele>1395.8</ele></trkpt>
        <trkpt lat="50.7296949" lon="15.7410411"><ele>1395.8</ele></trkpt>
        <trkpt lat="50.7297424" lon="15.7410304"><ele>1395.8</ele></trkpt>
        <trkpt lat="50.7297887" lon="15.7409858"><ele>1395.8</ele></trkpt>
        <trkpt lat="50.7298282" lon="15.7409576"><ele>1401.9</ele></trkpt>
        <trkpt lat="50.7298882" lon="15.7409661"><ele>1401.9</ele></trkpt>
        <trkpt lat="50.7299391" lon="15.7409804"><ele>1401.9</ele></trkpt>
        <trkpt lat="50.7299707" lon="15.7409608"><ele>1401.9</ele></trkpt>
        <trkpt lat="50.7300385" lon="15.7408804"><ele>1409.4</ele></trkpt>
        <trkpt lat="50.7300900" lon="15.7408518"><ele>1409.4</ele></trkpt>
        <trkpt lat="50.7303331" lon="15.7408222"><ele>1415.6</ele></trkpt>
        <trkpt lat="50.7303823" lon="15.7408037"><ele>1415.6</ele></trkpt>
        <trkpt lat="50.7304657" lon="15.7406983"><ele>1423.0</ele></trkpt>
        <trkpt lat="50.7304906" lon="15.7406662"><ele>1423.0</ele></trkpt>
        <trkpt lat="50.7305256" lon="15.7406483"><ele>1423.0</ele></trkpt>
        <trkpt lat="50.7305900" lon="15.7406697"><ele>1423.0</ele></trkpt>
        <trkpt lat="50.7307964" lon="15.7408037"><ele>1428.1</ele></trkpt>
        <trkpt lat="50.7310659" lon="15.7409741"><ele>1432.6</ele></trkpt>
        <trkpt lat="50.7312765" lon="15.7410768"><ele>1437.3</ele></trkpt>
        <trkpt lat="50.7313936" lon="15.7410268"><ele>1444.3</ele></trkpt>
        <trkpt lat="50.7315179" lon="15.7409840"><ele>1451.1</ele></trkpt>
        <trkpt lat="50.7315608" lon="15.7409840"><ele>1451.1</ele></trkpt>
        <trkpt lat="50.7316769" lon="15.7410382"><ele>1451.1</ele></trkpt>
        <trkpt lat="50.7317196" lon="15.7410005"><ele>1451.1</ele></trkpt>
        <trkpt lat="50.7317683" lon="15.7408501"><ele>1458.0</ele></trkpt>
        <trkpt lat="50.7318112" lon="15.7407443"><ele>1458.0</ele></trkpt>
        <trkpt lat="50.7318694" lon="15.7407303"><ele>1465.6</ele></trkpt>
        <trkpt lat="50.7321110" lon="15.7407921"><ele>1473.4</ele></trkpt>
        <trkpt lat="50.7321667" lon="15.7407367"><ele>1473.4</ele></trkpt>
        <trkpt lat="50.7322208" lon="15.7406082"><ele>1473.4</ele></trkpt>
        <trkpt lat="50.7322554" lon="15.7405852"><ele>1480.2</ele></trkpt>
        <trkpt lat="50.7322894" lon="15.7405913"><ele>1480.2</ele></trkpt>
        <trkpt lat="50.7323298" lon="15.7406215"><ele>1480.2</ele></trkpt>
        <trkpt lat="50.7323840" lon="15.7406714"><ele>1480.2</ele></trkpt>
        <trkpt lat="50.7325408" lon="15.7408461"><ele>1485.1</ele></trkpt>
        <trkpt lat="50.7330220" lon="15.7411593"><ele>1498.6</ele></trkpt>
        <trkpt lat="50.7331293" lon="15.7412760"><ele>1504.9</ele></trkpt>
        <trkpt lat="50.7332361" lon="15.7413567"><ele>1504.9</ele></trkpt>
        <trkpt lat="50.7340053" lon="15.7416103"><ele>1535.9</ele></trkpt>
        <trkpt lat="50.7341375" lon="15.7415875"><ele>1541.9</ele></trkpt>
        <trkpt lat="50.7342850" lon="15.7416392"><ele>1541.9</ele></trkpt>
        <trkpt lat="50.7344314" lon="15.7416560"><ele>1546.7</ele></trkpt>
        <trkpt lat="50.7346121" lon="15.7416482"><ele>1551.9</ele></trkpt>
        <trkpt lat="50.7347210" lon="15.7415909"><ele>1551.9</ele></trkpt>
        <trkpt lat="50.7348419" lon="15.7414990"><ele>1558.0</ele></trkpt>
        <trkpt lat="50.7350987" lon="15.7412768"><ele>1564.3</ele></trkpt>
        <trkpt lat="50.7350424" lon="15.7411459"><ele>1564.3</ele></trkpt>
        <trkpt lat="50.7349844" lon="15.7409940"><ele>1566.0</ele></trkpt>
        <trkpt lat="50.7349579" lon="15.7408239"><ele>1569.6</ele></trkpt>
        <trkpt lat="50.7353079" lon="15.7407677"><ele>1574.5</ele></trkpt>
        <trkpt lat="50.7353439" lon="15.7407473"><ele>1574.5</ele></trkpt>
        <trkpt lat="50.7353624" lon="15.7407268"><ele>1574.5</ele></trkpt>
        <trkpt lat="50.7355717" lon="15.7404165"><ele>1589.0</ele></trkpt>
        <trkpt lat="50.7356724" lon="15.7402739"><ele>1589.0</ele></trkpt>
        <trkpt lat="50.7357206" lon="15.7401683"><ele>1592.2</ele></trkpt>
        <trkpt lat="50.7357503" lon="15.7400628"><ele>1592.2</ele></trkpt>
        <trkpt lat="50.7358105" lon="15.7398317"><ele>1594.1</ele></trkpt>
        <trkpt lat="50.7358776" lon="15.7399105"><ele>1594.1</ele></trkpt>
        <trkpt lat="50.7359311" lon="15.7399733"><ele>1594.1</ele></trkpt>
        <trkpt lat="50.7361447" lon="15.7401536"><ele>1595.0</ele></trkpt>
        <trkpt lat="50.7361391" lon="15.7399054"><ele>1595.0</ele></trkpt>
        <trkpt lat="50.7361148" lon="15.7395311"><ele>1595.0</ele></trkpt>
    </trkseg>
  </trk>
</gpx>
