<?xml version="1.0" encoding="UTF-8"?>
<gpx version="1.1" creator="wdobrymkierunku.eu — 04-sniezka" xmlns="http://www.topografix.com/GPX/1/1">
  <metadata>
    <name>Karpacz → Sowia Przełęcz → Śnieżka</name>
    <desc>8.0 km, suma podejść ok. 1010 m (liczby jak w odcinku; z samej geometrii OSM/DEM wychodzi 8.0 km i +1010 m). Geometria: OpenStreetMap (ODbL). Wysokości: GUGiK / ČÚZK.</desc>
    <copyright author="OpenStreetMap contributors"><license>https://opendatacommons.org/licenses/odbl/</license></copyright>
  </metadata>
  <trk>
    <name>Karpacz → Sowia Przełęcz → Śnieżka</name>
    <desc>8.0 km, suma podejść ok. 1010 m (liczby jak w odcinku; z samej geometrii OSM/DEM wychodzi 8.0 km i +1010 m). Geometria: OpenStreetMap (ODbL). Wysokości: GUGiK / ČÚZK.</desc>
    <trkseg>
        <trkpt lat="50.7708158" lon="15.7673723"><ele>626.9</ele></trkpt>
        <trkpt lat="50.7707109" lon="15.7672917"><ele>626.9</ele></trkpt>
        <trkpt lat="50.7705917" lon="15.7672024"><ele>626.9</ele></trkpt>
        <trkpt lat="50.7705146" lon="15.7671482"><ele>626.9</ele></trkpt>
        <trkpt lat="50.7704450" lon="15.7670941"><ele>626.9</ele></trkpt>
        <trkpt lat="50.7702877" lon="15.7669704"><ele>626.9</ele></trkpt>
        <trkpt lat="50.7702691" lon="15.7669550"><ele>626.9</ele></trkpt>
        <trkpt lat="50.7702551" lon="15.7669424"><ele>626.9</ele></trkpt>
        <trkpt lat="50.7702385" lon="15.7669214"><ele>626.9</ele></trkpt>
        <trkpt lat="50.7702240" lon="15.7668912"><ele>626.9</ele></trkpt>
        <trkpt lat="50.7702117" lon="15.7668463"><ele>626.9</ele></trkpt>
        <trkpt lat="50.7702059" lon="15.7667965"><ele>626.9</ele></trkpt>
        <trkpt lat="50.7701171" lon="15.7668246"><ele>628.7</ele></trkpt>
        <trkpt lat="50.7700765" lon="15.7668390"><ele>628.7</ele></trkpt>
        <trkpt lat="50.7700533" lon="15.7668436"><ele>628.7</ele></trkpt>
        <trkpt lat="50.7700326" lon="15.7668445"><ele>628.7</ele></trkpt>
        <trkpt lat="50.7700081" lon="15.7668355"><ele>628.7</ele></trkpt>
        <trkpt lat="50.7699836" lon="15.7668218"><ele>628.7</ele></trkpt>
        <trkpt lat="50.7699581" lon="15.7668028"><ele>628.7</ele></trkpt>
        <trkpt lat="50.7699324" lon="15.7667718"><ele>628.7</ele></trkpt>
        <trkpt lat="50.7698520" lon="15.7666399"><ele>632.3</ele></trkpt>
        <trkpt lat="50.7697814" lon="15.7666664"><ele>632.3</ele></trkpt>
        <trkpt lat="50.7697636" lon="15.7666776"><ele>632.3</ele></trkpt>
        <trkpt lat="50.7697083" lon="15.7667085"><ele>635.7</ele></trkpt>
        <trkpt lat="50.7696472" lon="15.7667783"><ele>635.7</ele></trkpt>
        <trkpt lat="50.7695862" lon="15.7668695"><ele>635.7</ele></trkpt>
        <trkpt lat="50.7694301" lon="15.7672074"><ele>636.2</ele></trkpt>
        <trkpt lat="50.7692774" lon="15.7674810"><ele>638.5</ele></trkpt>
        <trkpt lat="50.7691468" lon="15.7676312"><ele>638.5</ele></trkpt>
        <trkpt lat="50.7690338" lon="15.7677479"><ele>643.4</ele></trkpt>
        <trkpt lat="50.7689679" lon="15.7678222"><ele>643.4</ele></trkpt>
        <trkpt lat="50.7688313" lon="15.7679263"><ele>645.0</ele></trkpt>
        <trkpt lat="50.7687651" lon="15.7679692"><ele>645.0</ele></trkpt>
        <trkpt lat="50.7686311" lon="15.7680711"><ele>645.8</ele></trkpt>
        <trkpt lat="50.7684564" lon="15.7682884"><ele>646.1</ele></trkpt>
        <trkpt lat="50.7683393" lon="15.7684788"><ele>646.2</ele></trkpt>
        <trkpt lat="50.7682443" lon="15.7685807"><ele>646.2</ele></trkpt>
        <trkpt lat="50.7681137" lon="15.7686612"><ele>646.9</ele></trkpt>
        <trkpt lat="50.7677550" lon="15.7687965"><ele>648.3</ele></trkpt>
        <trkpt lat="50.7674038" lon="15.7689374"><ele>653.7</ele></trkpt>
        <trkpt lat="50.7671535" lon="15.7689911"><ele>656.5</ele></trkpt>
        <trkpt lat="50.7669669" lon="15.7690045"><ele>661.0</ele></trkpt>
        <trkpt lat="50.7668283" lon="15.7690006"><ele>666.3</ele></trkpt>
        <trkpt lat="50.7665595" lon="15.7690033"><ele>670.1</ele></trkpt>
        <trkpt lat="50.7664077" lon="15.7690258"><ele>672.8</ele></trkpt>
        <trkpt lat="50.7660272" lon="15.7691368"><ele>675.2</ele></trkpt>
        <trkpt lat="50.7658393" lon="15.7691697"><ele>676.5</ele></trkpt>
        <trkpt lat="50.7656956" lon="15.7691755"><ele>677.3</ele></trkpt>
        <trkpt lat="50.7655920" lon="15.7691636"><ele>677.3</ele></trkpt>
        <trkpt lat="50.7653701" lon="15.7691323"><ele>677.8</ele></trkpt>
        <trkpt lat="50.7651589" lon="15.7690916"><ele>679.8</ele></trkpt>
        <trkpt lat="50.7650139" lon="15.7690483"><ele>682.8</ele></trkpt>
        <trkpt lat="50.7647809" lon="15.7689844"><ele>684.3</ele></trkpt>
        <trkpt lat="50.7645325" lon="15.7688194"><ele>685.4</ele></trkpt>
        <trkpt lat="50.7644154" lon="15.7687417"><ele>687.7</ele></trkpt>
        <trkpt lat="50.7642509" lon="15.7687175"><ele>687.7</ele></trkpt>
        <trkpt lat="50.7641220" lon="15.7687425"><ele>691.4</ele></trkpt>
        <trkpt lat="50.7639505" lon="15.7687862"><ele>694.5</ele></trkpt>
        <trkpt lat="50.7637385" lon="15.7688409"><ele>697.2</ele></trkpt>
        <trkpt lat="50.7635324" lon="15.7688575"><ele>699.1</ele></trkpt>
        <trkpt lat="50.7632933" lon="15.7688550"><ele>700.7</ele></trkpt>
        <trkpt lat="50.7630378" lon="15.7688436"><ele>702.9</ele></trkpt>
        <trkpt lat="50.7627203" lon="15.7687316"><ele>705.0</ele></trkpt>
        <trkpt lat="50.7625057" lon="15.7686453"><ele>707.0</ele></trkpt>
        <trkpt lat="50.7623304" lon="15.7685888"><ele>708.6</ele></trkpt>
        <trkpt lat="50.7621285" lon="15.7685754"><ele>710.5</ele></trkpt>
        <trkpt lat="50.7619198" lon="15.7685941"><ele>713.3</ele></trkpt>
        <trkpt lat="50.7617060" lon="15.7686371"><ele>716.4</ele></trkpt>
        <trkpt lat="50.7615750" lon="15.7686841"><ele>716.4</ele></trkpt>
        <trkpt lat="50.7614151" lon="15.7687891"><ele>719.6</ele></trkpt>
        <trkpt lat="50.7611817" lon="15.7690010"><ele>722.9</ele></trkpt>
        <trkpt lat="50.7609646" lon="15.7691735"><ele>724.6</ele></trkpt>
        <trkpt lat="50.7607695" lon="15.7692996"><ele>726.5</ele></trkpt>
        <trkpt lat="50.7606252" lon="15.7693639"><ele>729.5</ele></trkpt>
        <trkpt lat="50.7602581" lon="15.7695041"><ele>735.6</ele></trkpt>
        <trkpt lat="50.7602196" lon="15.7693858"><ele>735.6</ele></trkpt>
        <trkpt lat="50.7601683" lon="15.7691775"><ele>735.7</ele></trkpt>
        <trkpt lat="50.7600682" lon="15.7687500"><ele>737.2</ele></trkpt>
        <trkpt lat="50.7600244" lon="15.7685392"><ele>739.6</ele></trkpt>
        <trkpt lat="50.7596036" lon="15.7688140"><ele>747.9</ele></trkpt>
        <trkpt lat="50.7594206" lon="15.7689106"><ele>747.9</ele></trkpt>
        <trkpt lat="50.7592982" lon="15.7689858"><ele>750.9</ele></trkpt>
        <trkpt lat="50.7591695" lon="15.7690528"><ele>754.0</ele></trkpt>
        <trkpt lat="50.7590337" lon="15.7691199"><ele>754.0</ele></trkpt>
        <trkpt lat="50.7588420" lon="15.7692352"><ele>757.8</ele></trkpt>
        <trkpt lat="50.7587249" lon="15.7693398"><ele>761.2</ele></trkpt>
        <trkpt lat="50.7585841" lon="15.7695383"><ele>762.4</ele></trkpt>
        <trkpt lat="50.7585213" lon="15.7696053"><ele>762.4</ele></trkpt>
        <trkpt lat="50.7584429" lon="15.7696705"><ele>762.4</ele></trkpt>
        <trkpt lat="50.7582367" lon="15.7697354"><ele>764.7</ele></trkpt>
        <trkpt lat="50.7580944" lon="15.7697903"><ele>769.7</ele></trkpt>
        <trkpt lat="50.7579601" lon="15.7698722"><ele>775.1</ele></trkpt>
        <trkpt lat="50.7578392" lon="15.7699849"><ele>775.1</ele></trkpt>
        <trkpt lat="50.7576851" lon="15.7700814"><ele>778.4</ele></trkpt>
        <trkpt lat="50.7574688" lon="15.7702220"><ele>780.9</ele></trkpt>
        <trkpt lat="50.7572884" lon="15.7703162"><ele>784.6</ele></trkpt>
        <trkpt lat="50.7572006" lon="15.7703685"><ele>784.6</ele></trkpt>
        <trkpt lat="50.7570282" lon="15.7704532"><ele>787.9</ele></trkpt>
        <trkpt lat="50.7566821" lon="15.7706377"><ele>792.1</ele></trkpt>
        <trkpt lat="50.7564564" lon="15.7707131"><ele>793.0</ele></trkpt>
        <trkpt lat="50.7563499" lon="15.7707348"><ele>793.0</ele></trkpt>
        <trkpt lat="50.7562626" lon="15.7707645"><ele>794.6</ele></trkpt>
        <trkpt lat="50.7561385" lon="15.7708200"><ele>794.6</ele></trkpt>
        <trkpt lat="50.7560570" lon="15.7709168"><ele>796.9</ele></trkpt>
        <trkpt lat="50.7560139" lon="15.7710004"><ele>796.9</ele></trkpt>
        <trkpt lat="50.7559573" lon="15.7711315"><ele>796.9</ele></trkpt>
        <trkpt lat="50.7557638" lon="15.7715209"><ele>802.0</ele></trkpt>
        <trkpt lat="50.7557052" lon="15.7716158"><ele>802.0</ele></trkpt>
        <trkpt lat="50.7556418" lon="15.7717183"><ele>807.9</ele></trkpt>
        <trkpt lat="50.7555284" lon="15.7719297"><ele>807.9</ele></trkpt>
        <trkpt lat="50.7553955" lon="15.7721081"><ele>812.9</ele></trkpt>
        <trkpt lat="50.7552016" lon="15.7723661"><ele>817.3</ele></trkpt>
        <trkpt lat="50.7551068" lon="15.7725270"><ele>823.7</ele></trkpt>
        <trkpt lat="50.7550466" lon="15.7727525"><ele>831.4</ele></trkpt>
        <trkpt lat="50.7550056" lon="15.7729661"><ele>831.4</ele></trkpt>
        <trkpt lat="50.7549934" lon="15.7730688"><ele>831.4</ele></trkpt>
        <trkpt lat="50.7550276" lon="15.7732961"><ele>835.0</ele></trkpt>
        <trkpt lat="50.7550796" lon="15.7734686"><ele>835.4</ele></trkpt>
        <trkpt lat="50.7551416" lon="15.7737832"><ele>837.1</ele></trkpt>
        <trkpt lat="50.7552165" lon="15.7740541"><ele>837.1</ele></trkpt>
        <trkpt lat="50.7553077" lon="15.7742864"><ele>838.6</ele></trkpt>
        <trkpt lat="50.7553617" lon="15.7744455"><ele>839.8</ele></trkpt>
        <trkpt lat="50.7554121" lon="15.7746087"><ele>839.8</ele></trkpt>
        <trkpt lat="50.7554565" lon="15.7747110"><ele>841.3</ele></trkpt>
        <trkpt lat="50.7555585" lon="15.7748977"><ele>841.3</ele></trkpt>
        <trkpt lat="50.7556475" lon="15.7750614"><ele>842.5</ele></trkpt>
        <trkpt lat="50.7556741" lon="15.7751575"><ele>842.5</ele></trkpt>
        <trkpt lat="50.7556826" lon="15.7752487"><ele>842.5</ele></trkpt>
        <trkpt lat="50.7556764" lon="15.7754236"><ele>844.4</ele></trkpt>
        <trkpt lat="50.7556406" lon="15.7755537"><ele>844.4</ele></trkpt>
        <trkpt lat="50.7556287" lon="15.7756425"><ele>847.5</ele></trkpt>
        <trkpt lat="50.7555611" lon="15.7759639"><ele>851.9</ele></trkpt>
        <trkpt lat="50.7555358" lon="15.7760474"><ele>851.9</ele></trkpt>
        <trkpt lat="50.7554444" lon="15.7762418"><ele>851.9</ele></trkpt>
        <trkpt lat="50.7553609" lon="15.7763626"><ele>855.2</ele></trkpt>
        <trkpt lat="50.7553287" lon="15.7764093"><ele>855.2</ele></trkpt>
        <trkpt lat="50.7552328" lon="15.7765336"><ele>860.4</ele></trkpt>
        <trkpt lat="50.7552158" lon="15.7765493"><ele>860.4</ele></trkpt>
        <trkpt lat="50.7551376" lon="15.7766213"><ele>860.4</ele></trkpt>
        <trkpt lat="50.7550513" lon="15.7767010"><ele>865.2</ele></trkpt>
        <trkpt lat="50.7549944" lon="15.7767716"><ele>865.2</ele></trkpt>
        <trkpt lat="50.7549454" lon="15.7768324"><ele>865.2</ele></trkpt>
        <trkpt lat="50.7548201" lon="15.7770694"><ele>868.4</ele></trkpt>
        <trkpt lat="50.7547143" lon="15.7772562"><ele>871.8</ele></trkpt>
        <trkpt lat="50.7546152" lon="15.7773848"><ele>871.8</ele></trkpt>
        <trkpt lat="50.7544047" lon="15.7776784"><ele>875.8</ele></trkpt>
        <trkpt lat="50.7542485" lon="15.7779064"><ele>876.2</ele></trkpt>
        <trkpt lat="50.7540480" lon="15.7781861"><ele>877.3</ele></trkpt>
        <trkpt lat="50.7538866" lon="15.7783730"><ele>879.6</ele></trkpt>
        <trkpt lat="50.7537547" lon="15.7784652"><ele>879.6</ele></trkpt>
        <trkpt lat="50.7536574" lon="15.7785172"><ele>883.6</ele></trkpt>
        <trkpt lat="50.7535850" lon="15.7785763"><ele>883.6</ele></trkpt>
        <trkpt lat="50.7534362" lon="15.7787565"><ele>885.9</ele></trkpt>
        <trkpt lat="50.7532516" lon="15.7789609"><ele>888.2</ele></trkpt>
        <trkpt lat="50.7531307" lon="15.7790921"><ele>888.7</ele></trkpt>
        <trkpt lat="50.7530444" lon="15.7791578"><ele>888.7</ele></trkpt>
        <trkpt lat="50.7529764" lon="15.7792017"><ele>888.7</ele></trkpt>
        <trkpt lat="50.7528911" lon="15.7792761"><ele>891.9</ele></trkpt>
        <trkpt lat="50.7528510" lon="15.7793111"><ele>891.9</ele></trkpt>
        <trkpt lat="50.7527323" lon="15.7793724"><ele>895.9</ele></trkpt>
        <trkpt lat="50.7526841" lon="15.7794187"><ele>895.9</ele></trkpt>
        <trkpt lat="50.7525408" lon="15.7795153"><ele>901.2</ele></trkpt>
        <trkpt lat="50.7524293" lon="15.7795347"><ele>901.2</ele></trkpt>
        <trkpt lat="50.7523657" lon="15.7795538"><ele>901.2</ele></trkpt>
        <trkpt lat="50.7523016" lon="15.7796188"><ele>905.2</ele></trkpt>
        <trkpt lat="50.7522496" lon="15.7797200"><ele>905.2</ele></trkpt>
        <trkpt lat="50.7521674" lon="15.7800184"><ele>907.9</ele></trkpt>
        <trkpt lat="50.7520425" lon="15.7803334"><ele>911.5</ele></trkpt>
        <trkpt lat="50.7519500" lon="15.7805897"><ele>916.7</ele></trkpt>
        <trkpt lat="50.7518474" lon="15.7808078"><ele>922.8</ele></trkpt>
        <trkpt lat="50.7516794" lon="15.7810763"><ele>928.7</ele></trkpt>
        <trkpt lat="50.7515499" lon="15.7812999"><ele>928.7</ele></trkpt>
        <trkpt lat="50.7514875" lon="15.7814390"><ele>933.7</ele></trkpt>
        <trkpt lat="50.7514056" lon="15.7816201"><ele>940.2</ele></trkpt>
        <trkpt lat="50.7513505" lon="15.7816989"><ele>940.2</ele></trkpt>
        <trkpt lat="50.7513111" lon="15.7818362"><ele>940.2</ele></trkpt>
        <trkpt lat="50.7513222" lon="15.7819093"><ele>945.2</ele></trkpt>
        <trkpt lat="50.7513597" lon="15.7820150"><ele>945.2</ele></trkpt>
        <trkpt lat="50.7514508" lon="15.7821004"><ele>945.2</ele></trkpt>
        <trkpt lat="50.7515172" lon="15.7821496"><ele>949.9</ele></trkpt>
        <trkpt lat="50.7515486" lon="15.7822043"><ele>949.9</ele></trkpt>
        <trkpt lat="50.7515340" lon="15.7822623"><ele>949.9</ele></trkpt>
        <trkpt lat="50.7515042" lon="15.7823205"><ele>949.9</ele></trkpt>
        <trkpt lat="50.7514358" lon="15.7823781"><ele>953.9</ele></trkpt>
        <trkpt lat="50.7512604" lon="15.7825947"><ele>961.0</ele></trkpt>
        <trkpt lat="50.7510709" lon="15.7827848"><ele>969.0</ele></trkpt>
        <trkpt lat="50.7509416" lon="15.7829369"><ele>969.0</ele></trkpt>
        <trkpt lat="50.7507546" lon="15.7831398"><ele>978.2</ele></trkpt>
        <trkpt lat="50.7505566" lon="15.7833077"><ele>984.7</ele></trkpt>
        <trkpt lat="50.7504032" lon="15.7834123"><ele>990.6</ele></trkpt>
        <trkpt lat="50.7503220" lon="15.7834836"><ele>990.6</ele></trkpt>
        <trkpt lat="50.7502264" lon="15.7835532"><ele>996.0</ele></trkpt>
        <trkpt lat="50.7501175" lon="15.7836500"><ele>1003.1</ele></trkpt>
        <trkpt lat="50.7500273" lon="15.7837165"><ele>1003.1</ele></trkpt>
        <trkpt lat="50.7499491" lon="15.7837783"><ele>1003.1</ele></trkpt>
        <trkpt lat="50.7498421" lon="15.7838698"><ele>1010.1</ele></trkpt>
        <trkpt lat="50.7497172" lon="15.7840190"><ele>1018.0</ele></trkpt>
        <trkpt lat="50.7496500" lon="15.7840566"><ele>1018.0</ele></trkpt>
        <trkpt lat="50.7496122" lon="15.7841085"><ele>1018.0</ele></trkpt>
        <trkpt lat="50.7495369" lon="15.7842195"><ele>1025.9</ele></trkpt>
        <trkpt lat="50.7494668" lon="15.7842964"><ele>1025.9</ele></trkpt>
        <trkpt lat="50.7493861" lon="15.7843582"><ele>1025.9</ele></trkpt>
        <trkpt lat="50.7493203" lon="15.7844392"><ele>1034.5</ele></trkpt>
        <trkpt lat="50.7492648" lon="15.7844974"><ele>1034.5</ele></trkpt>
        <trkpt lat="50.7491990" lon="15.7845194"><ele>1034.5</ele></trkpt>
        <trkpt lat="50.7491593" lon="15.7844930"><ele>1034.5</ele></trkpt>
        <trkpt lat="50.7491346" lon="15.7844438"><ele>1036.9</ele></trkpt>
        <trkpt lat="50.7491035" lon="15.7843441"><ele>1036.9</ele></trkpt>
        <trkpt lat="50.7490763" lon="15.7841858"><ele>1036.9</ele></trkpt>
        <trkpt lat="50.7490220" lon="15.7839820"><ele>1038.3</ele></trkpt>
        <trkpt lat="50.7490017" lon="15.7838935"><ele>1038.3</ele></trkpt>
        <trkpt lat="50.7489660" lon="15.7837164"><ele>1043.0</ele></trkpt>
        <trkpt lat="50.7489507" lon="15.7836091"><ele>1043.0</ele></trkpt>
        <trkpt lat="50.7489117" lon="15.7835555"><ele>1043.0</ele></trkpt>
        <trkpt lat="50.7488846" lon="15.7835931"><ele>1043.0</ele></trkpt>
        <trkpt lat="50.7488201" lon="15.7838559"><ele>1051.5</ele></trkpt>
        <trkpt lat="50.7487844" lon="15.7839632"><ele>1057.5</ele></trkpt>
        <trkpt lat="50.7487352" lon="15.7841188"><ele>1057.5</ele></trkpt>
        <trkpt lat="50.7487115" lon="15.7841402"><ele>1057.5</ele></trkpt>
        <trkpt lat="50.7486894" lon="15.7840946"><ele>1057.5</ele></trkpt>
        <trkpt lat="50.7486527" lon="15.7838561"><ele>1064.4</ele></trkpt>
        <trkpt lat="50.7486188" lon="15.7836845"><ele>1069.0</ele></trkpt>
        <trkpt lat="50.7485983" lon="15.7835296"><ele>1069.0</ele></trkpt>
        <trkpt lat="50.7485468" lon="15.7832438"><ele>1072.1</ele></trkpt>
        <trkpt lat="50.7484520" lon="15.7829783"><ele>1076.4</ele></trkpt>
        <trkpt lat="50.7483701" lon="15.7827545"><ele>1081.7</ele></trkpt>
        <trkpt lat="50.7483150" lon="15.7826686"><ele>1081.7</ele></trkpt>
        <trkpt lat="50.7482787" lon="15.7826784"><ele>1081.7</ele></trkpt>
        <trkpt lat="50.7482648" lon="15.7827273"><ele>1081.7</ele></trkpt>
        <trkpt lat="50.7482534" lon="15.7830513"><ele>1086.0</ele></trkpt>
        <trkpt lat="50.7482467" lon="15.7832637"><ele>1088.2</ele></trkpt>
        <trkpt lat="50.7482499" lon="15.7833515"><ele>1088.2</ele></trkpt>
        <trkpt lat="50.7482450" lon="15.7833735"><ele>1088.2</ele></trkpt>
        <trkpt lat="50.7482315" lon="15.7833848"><ele>1088.2</ele></trkpt>
        <trkpt lat="50.7482138" lon="15.7833866"><ele>1088.2</ele></trkpt>
        <trkpt lat="50.7481988" lon="15.7833753"><ele>1088.2</ele></trkpt>
        <trkpt lat="50.7481379" lon="15.7832907"><ele>1097.6</ele></trkpt>
        <trkpt lat="50.7480744" lon="15.7832121"><ele>1097.6</ele></trkpt>
        <trkpt lat="50.7480506" lon="15.7832021"><ele>1097.6</ele></trkpt>
        <trkpt lat="50.7480122" lon="15.7832229"><ele>1097.6</ele></trkpt>
        <trkpt lat="50.7479953" lon="15.7832739"><ele>1097.6</ele></trkpt>
        <trkpt lat="50.7479241" lon="15.7835240"><ele>1104.5</ele></trkpt>
        <trkpt lat="50.7478692" lon="15.7836927"><ele>1109.7</ele></trkpt>
        <trkpt lat="50.7477768" lon="15.7838686"><ele>1109.7</ele></trkpt>
        <trkpt lat="50.7476976" lon="15.7841125"><ele>1116.1</ele></trkpt>
        <trkpt lat="50.7476191" lon="15.7842894"><ele>1122.9</ele></trkpt>
        <trkpt lat="50.7475681" lon="15.7845340"><ele>1122.9</ele></trkpt>
        <trkpt lat="50.7475404" lon="15.7846409"><ele>1129.7</ele></trkpt>
        <trkpt lat="50.7473493" lon="15.7849359"><ele>1138.5</ele></trkpt>
        <trkpt lat="50.7473073" lon="15.7850106"><ele>1138.5</ele></trkpt>
        <trkpt lat="50.7472546" lon="15.7851523"><ele>1143.5</ele></trkpt>
        <trkpt lat="50.7471867" lon="15.7852871"><ele>1143.5</ele></trkpt>
        <trkpt lat="50.7470712" lon="15.7854568"><ele>1150.1</ele></trkpt>
        <trkpt lat="50.7470109" lon="15.7855232"><ele>1150.1</ele></trkpt>
        <trkpt lat="50.7469461" lon="15.7856001"><ele>1155.3</ele></trkpt>
        <trkpt lat="50.7468605" lon="15.7857012"><ele>1155.3</ele></trkpt>
        <trkpt lat="50.7467366" lon="15.7858168"><ele>1158.8</ele></trkpt>
        <trkpt lat="50.7466463" lon="15.7859201"><ele>1158.8</ele></trkpt>
        <trkpt lat="50.7465043" lon="15.7860933"><ele>1160.4</ele></trkpt>
        <trkpt lat="50.7464404" lon="15.7861394"><ele>1160.4</ele></trkpt>
        <trkpt lat="50.7463674" lon="15.7861678"><ele>1162.8</ele></trkpt>
        <trkpt lat="50.7463246" lon="15.7861811"><ele>1162.8</ele></trkpt>
        <trkpt lat="50.7462730" lon="15.7861821"><ele>1162.8</ele></trkpt>
        <trkpt lat="50.7462286" lon="15.7861868"><ele>1162.8</ele></trkpt>
        <trkpt lat="50.7461746" lon="15.7862005"><ele>1165.7</ele></trkpt>
        <trkpt lat="50.7460688" lon="15.7862437"><ele>1165.7</ele></trkpt>
        <trkpt lat="50.7459093" lon="15.7863199"><ele>1166.9</ele></trkpt>
        <trkpt lat="50.7458839" lon="15.7863370"><ele>1166.9</ele></trkpt>
        <trkpt lat="50.7457468" lon="15.7864542"><ele>1166.9</ele></trkpt>
        <trkpt lat="50.7456890" lon="15.7865042"><ele>1166.9</ele></trkpt>
        <trkpt lat="50.7454968" lon="15.7860752"><ele>1169.0</ele></trkpt>
        <trkpt lat="50.7449650" lon="15.7850209"><ele>1180.1</ele></trkpt>
        <trkpt lat="50.7446179" lon="15.7842267"><ele>1188.7</ele></trkpt>
        <trkpt lat="50.7444774" lon="15.7839093"><ele>1191.4</ele></trkpt>
        <trkpt lat="50.7443600" lon="15.7836501"><ele>1193.9</ele></trkpt>
        <trkpt lat="50.7442679" lon="15.7834576"><ele>1196.7</ele></trkpt>
        <trkpt lat="50.7440636" lon="15.7830735"><ele>1200.9</ele></trkpt>
        <trkpt lat="50.7439271" lon="15.7827888"><ele>1205.9</ele></trkpt>
        <trkpt lat="50.7438622" lon="15.7826465"><ele>1205.9</ele></trkpt>
        <trkpt lat="50.7434030" lon="15.7816404"><ele>1218.5</ele></trkpt>
        <trkpt lat="50.7432489" lon="15.7813264"><ele>1221.7</ele></trkpt>
        <trkpt lat="50.7429517" lon="15.7806978"><ele>1229.6</ele></trkpt>
        <trkpt lat="50.7427898" lon="15.7803105"><ele>1232.7</ele></trkpt>
        <trkpt lat="50.7426300" lon="15.7799944"><ele>1234.5</ele></trkpt>
        <trkpt lat="50.7424178" lon="15.7795439"><ele>1237.4</ele></trkpt>
        <trkpt lat="50.7423954" lon="15.7795108"><ele>1237.4</ele></trkpt>
        <trkpt lat="50.7423697" lon="15.7794836"><ele>1240.5</ele></trkpt>
        <trkpt lat="50.7423161" lon="15.7794520"><ele>1240.5</ele></trkpt>
        <trkpt lat="50.7422879" lon="15.7794273"><ele>1240.5</ele></trkpt>
        <trkpt lat="50.7422555" lon="15.7793847"><ele>1240.5</ele></trkpt>
        <trkpt lat="50.7422345" lon="15.7793496"><ele>1240.5</ele></trkpt>
        <trkpt lat="50.7422177" lon="15.7793088"><ele>1240.5</ele></trkpt>
        <trkpt lat="50.7422029" lon="15.7792542"><ele>1244.0</ele></trkpt>
        <trkpt lat="50.7421805" lon="15.7791343"><ele>1244.0</ele></trkpt>
        <trkpt lat="50.7421626" lon="15.7790565"><ele>1244.0</ele></trkpt>
        <trkpt lat="50.7421415" lon="15.7789826"><ele>1244.0</ele></trkpt>
        <trkpt lat="50.7421241" lon="15.7788944"><ele>1248.0</ele></trkpt>
        <trkpt lat="50.7420998" lon="15.7787409"><ele>1248.0</ele></trkpt>
        <trkpt lat="50.7420785" lon="15.7786459"><ele>1248.0</ele></trkpt>
        <trkpt lat="50.7420550" lon="15.7785585"><ele>1251.7</ele></trkpt>
        <trkpt lat="50.7420913" lon="15.7782841"><ele>1251.7</ele></trkpt>
        <trkpt lat="50.7420996" lon="15.7780606"><ele>1256.0</ele></trkpt>
        <trkpt lat="50.7421003" lon="15.7777854"><ele>1259.3</ele></trkpt>
        <trkpt lat="50.7420819" lon="15.7775935"><ele>1259.3</ele></trkpt>
        <trkpt lat="50.7420175" lon="15.7772436"><ele>1264.2</ele></trkpt>
        <trkpt lat="50.7420022" lon="15.7770960"><ele>1270.3</ele></trkpt>
        <trkpt lat="50.7420013" lon="15.7769374"><ele>1270.3</ele></trkpt>
        <trkpt lat="50.7420009" lon="15.7769154"><ele>1270.3</ele></trkpt>
        <trkpt lat="50.7419947" lon="15.7768265"><ele>1276.8</ele></trkpt>
        <trkpt lat="50.7420094" lon="15.7767137"><ele>1276.8</ele></trkpt>
        <trkpt lat="50.7420302" lon="15.7766452"><ele>1276.8</ele></trkpt>
        <trkpt lat="50.7420730" lon="15.7765547"><ele>1276.8</ele></trkpt>
        <trkpt lat="50.7421102" lon="15.7763972"><ele>1281.5</ele></trkpt>
        <trkpt lat="50.7421758" lon="15.7761979"><ele>1285.8</ele></trkpt>
        <trkpt lat="50.7422490" lon="15.7760107"><ele>1285.8</ele></trkpt>
        <trkpt lat="50.7422837" lon="15.7758923"><ele>1291.7</ele></trkpt>
        <trkpt lat="50.7423508" lon="15.7756256"><ele>1291.7</ele></trkpt>
        <trkpt lat="50.7424005" lon="15.7754013"><ele>1298.5</ele></trkpt>
        <trkpt lat="50.7424353" lon="15.7752563"><ele>1298.5</ele></trkpt>
        <trkpt lat="50.7424380" lon="15.7751998"><ele>1305.3</ele></trkpt>
        <trkpt lat="50.7424355" lon="15.7751520"><ele>1305.3</ele></trkpt>
        <trkpt lat="50.7424150" lon="15.7750475"><ele>1305.3</ele></trkpt>
        <trkpt lat="50.7423815" lon="15.7747947"><ele>1311.6</ele></trkpt>
        <trkpt lat="50.7423793" lon="15.7746686"><ele>1311.6</ele></trkpt>
        <trkpt lat="50.7422947" lon="15.7739402"><ele>1323.2</ele></trkpt>
        <trkpt lat="50.7422199" lon="15.7732761"><ele>1338.2</ele></trkpt>
        <trkpt lat="50.7422210" lon="15.7731408"><ele>1345.9</ele></trkpt>
        <trkpt lat="50.7422314" lon="15.7730458"><ele>1345.9</ele></trkpt>
        <trkpt lat="50.7422495" lon="15.7729300"><ele>1345.9</ele></trkpt>
        <trkpt lat="50.7422585" lon="15.7728250"><ele>1345.9</ele></trkpt>
        <trkpt lat="50.7422989" lon="15.7725520"><ele>1354.4</ele></trkpt>
        <trkpt lat="50.7423052" lon="15.7724323"><ele>1362.0</ele></trkpt>
        <trkpt lat="50.7423128" lon="15.7723280"><ele>1362.0</ele></trkpt>
        <trkpt lat="50.7423114" lon="15.7722563"><ele>1362.0</ele></trkpt>
        <trkpt lat="50.7423218" lon="15.7721456"><ele>1362.0</ele></trkpt>
        <trkpt lat="50.7423550" lon="15.7719302"><ele>1369.1</ele></trkpt>
        <trkpt lat="50.7423729" lon="15.7717891"><ele>1369.1</ele></trkpt>
        <trkpt lat="50.7424301" lon="15.7716209"><ele>1377.1</ele></trkpt>
        <trkpt lat="50.7424977" lon="15.7713597"><ele>1386.2</ele></trkpt>
        <trkpt lat="50.7425004" lon="15.7713032"><ele>1386.2</ele></trkpt>
        <trkpt lat="50.7425126" lon="15.7712254"><ele>1386.2</ele></trkpt>
        <trkpt lat="50.7425705" lon="15.7710239"><ele>1393.6</ele></trkpt>
        <trkpt lat="50.7426122" lon="15.7708016"><ele>1393.6</ele></trkpt>
        <trkpt lat="50.7426329" lon="15.7706667"><ele>1399.5</ele></trkpt>
        <trkpt lat="50.7426383" lon="15.7705945"><ele>1399.5</ele></trkpt>
        <trkpt lat="50.7426329" lon="15.7705095"><ele>1399.5</ele></trkpt>
        <trkpt lat="50.7426550" lon="15.7704595"><ele>1399.5</ele></trkpt>
        <trkpt lat="50.7426663" lon="15.7704037"><ele>1403.7</ele></trkpt>
        <trkpt lat="50.7426673" lon="15.7703507"><ele>1403.7</ele></trkpt>
        <trkpt lat="50.7426515" lon="15.7701693"><ele>1403.7</ele></trkpt>
        <trkpt lat="50.7426501" lon="15.7699972"><ele>1406.6</ele></trkpt>
        <trkpt lat="50.7426921" lon="15.7698129"><ele>1406.6</ele></trkpt>
        <trkpt lat="50.7427134" lon="15.7696267"><ele>1406.6</ele></trkpt>
        <trkpt lat="50.7427233" lon="15.7695543"><ele>1406.6</ele></trkpt>
        <trkpt lat="50.7427753" lon="15.7694042"><ele>1406.6</ele></trkpt>
        <trkpt lat="50.7428675" lon="15.7692099"><ele>1406.6</ele></trkpt>
        <trkpt lat="50.7429322" lon="15.7690417"><ele>1405.9</ele></trkpt>
        <trkpt lat="50.7430230" lon="15.7688755"><ele>1405.9</ele></trkpt>
        <trkpt lat="50.7431248" lon="15.7687055"><ele>1405.3</ele></trkpt>
        <trkpt lat="50.7431813" lon="15.7685862"><ele>1405.3</ele></trkpt>
        <trkpt lat="50.7432309" lon="15.7684962"><ele>1404.3</ele></trkpt>
        <trkpt lat="50.7432839" lon="15.7683547"><ele>1404.3</ele></trkpt>
        <trkpt lat="50.7433391" lon="15.7682132"><ele>1403.1</ele></trkpt>
        <trkpt lat="50.7433617" lon="15.7681089"><ele>1403.1</ele></trkpt>
        <trkpt lat="50.7434114" lon="15.7679289"><ele>1402.2</ele></trkpt>
        <trkpt lat="50.7434381" lon="15.7678110"><ele>1402.2</ele></trkpt>
        <trkpt lat="50.7434616" lon="15.7677210"><ele>1402.2</ele></trkpt>
        <trkpt lat="50.7434881" lon="15.7676460"><ele>1402.2</ele></trkpt>
        <trkpt lat="50.7435864" lon="15.7674409"><ele>1401.6</ele></trkpt>
        <trkpt lat="50.7436252" lon="15.7673794"><ele>1401.6</ele></trkpt>
        <trkpt lat="50.7436781" lon="15.7672666"><ele>1400.7</ele></trkpt>
        <trkpt lat="50.7436970" lon="15.7671977"><ele>1400.7</ele></trkpt>
        <trkpt lat="50.7437179" lon="15.7669494"><ele>1398.0</ele></trkpt>
        <trkpt lat="50.7437441" lon="15.7666643"><ele>1398.0</ele></trkpt>
        <trkpt lat="50.7437604" lon="15.7664336"><ele>1394.7</ele></trkpt>
        <trkpt lat="50.7437760" lon="15.7663822"><ele>1394.7</ele></trkpt>
        <trkpt lat="50.7437839" lon="15.7661378"><ele>1392.3</ele></trkpt>
        <trkpt lat="50.7437899" lon="15.7660855"><ele>1392.3</ele></trkpt>
        <trkpt lat="50.7438007" lon="15.7658763"><ele>1389.9</ele></trkpt>
        <trkpt lat="50.7438219" lon="15.7656441"><ele>1389.9</ele></trkpt>
        <trkpt lat="50.7438389" lon="15.7653179"><ele>1386.8</ele></trkpt>
        <trkpt lat="50.7438391" lon="15.7650940"><ele>1384.2</ele></trkpt>
        <trkpt lat="50.7438481" lon="15.7648425"><ele>1381.8</ele></trkpt>
        <trkpt lat="50.7438445" lon="15.7641523"><ele>1376.0</ele></trkpt>
        <trkpt lat="50.7438473" lon="15.7640593"><ele>1376.0</ele></trkpt>
        <trkpt lat="50.7438432" lon="15.7639266"><ele>1376.0</ele></trkpt>
        <trkpt lat="50.7438341" lon="15.7637865"><ele>1373.5</ele></trkpt>
        <trkpt lat="50.7438351" lon="15.7634280"><ele>1371.8</ele></trkpt>
        <trkpt lat="50.7438309" lon="15.7632421"><ele>1371.8</ele></trkpt>
        <trkpt lat="50.7438364" lon="15.7631064"><ele>1369.4</ele></trkpt>
        <trkpt lat="50.7438242" lon="15.7629849"><ele>1369.4</ele></trkpt>
        <trkpt lat="50.7438346" lon="15.7628577"><ele>1369.4</ele></trkpt>
        <trkpt lat="50.7438314" lon="15.7627634"><ele>1367.8</ele></trkpt>
        <trkpt lat="50.7438382" lon="15.7626691"><ele>1367.8</ele></trkpt>
        <trkpt lat="50.7438322" lon="15.7626072"><ele>1367.8</ele></trkpt>
        <trkpt lat="50.7438337" lon="15.7623226"><ele>1367.0</ele></trkpt>
        <trkpt lat="50.7438436" lon="15.7620268"><ele>1367.0</ele></trkpt>
        <trkpt lat="50.7438526" lon="15.7619540"><ele>1367.0</ele></trkpt>
        <trkpt lat="50.7438529" lon="15.7617932"><ele>1367.0</ele></trkpt>
        <trkpt lat="50.7438570" lon="15.7616701"><ele>1367.0</ele></trkpt>
        <trkpt lat="50.7438454" lon="15.7615503"><ele>1367.0</ele></trkpt>
        <trkpt lat="50.7437903" lon="15.7612335"><ele>1368.1</ele></trkpt>
        <trkpt lat="50.7436515" lon="15.7603479"><ele>1372.7</ele></trkpt>
        <trkpt lat="50.7436133" lon="15.7601590"><ele>1375.1</ele></trkpt>
        <trkpt lat="50.7435479" lon="15.7597027"><ele>1378.5</ele></trkpt>
        <trkpt lat="50.7434955" lon="15.7594883"><ele>1381.2</ele></trkpt>
        <trkpt lat="50.7433765" lon="15.7588315"><ele>1386.9</ele></trkpt>
        <trkpt lat="50.7433508" lon="15.7587797"><ele>1386.9</ele></trkpt>
        <trkpt lat="50.7432007" lon="15.7586239"><ele>1389.4</ele></trkpt>
        <trkpt lat="50.7431375" lon="15.7585344"><ele>1389.4</ele></trkpt>
        <trkpt lat="50.7430782" lon="15.7583417"><ele>1392.3</ele></trkpt>
        <trkpt lat="50.7430103" lon="15.7581438"><ele>1392.3</ele></trkpt>
        <trkpt lat="50.7429265" lon="15.7579418"><ele>1395.9</ele></trkpt>
        <trkpt lat="50.7429296" lon="15.7578630"><ele>1395.9</ele></trkpt>
        <trkpt lat="50.7429674" lon="15.7578137"><ele>1399.7</ele></trkpt>
        <trkpt lat="50.7429489" lon="15.7577053"><ele>1399.7</ele></trkpt>
        <trkpt lat="50.7429512" lon="15.7575280"><ele>1399.7</ele></trkpt>
        <trkpt lat="50.7429418" lon="15.7574187"><ele>1402.7</ele></trkpt>
        <trkpt lat="50.7429177" lon="15.7573200"><ele>1402.7</ele></trkpt>
        <trkpt lat="50.7428948" lon="15.7572774"><ele>1402.7</ele></trkpt>
        <trkpt lat="50.7428422" lon="15.7572022"><ele>1402.7</ele></trkpt>
        <trkpt lat="50.7427981" lon="15.7571204"><ele>1405.5</ele></trkpt>
        <trkpt lat="50.7427633" lon="15.7570014"><ele>1405.5</ele></trkpt>
        <trkpt lat="50.7426870" lon="15.7567498"><ele>1408.8</ele></trkpt>
        <trkpt lat="50.7425628" lon="15.7564170"><ele>1412.8</ele></trkpt>
        <trkpt lat="50.7424787" lon="15.7561312"><ele>1413.4</ele></trkpt>
        <trkpt lat="50.7424217" lon="15.7559601"><ele>1413.4</ele></trkpt>
        <trkpt lat="50.7423335" lon="15.7557648"><ele>1414.3</ele></trkpt>
        <trkpt lat="50.7422712" lon="15.7555911"><ele>1414.4</ele></trkpt>
        <trkpt lat="50.7422257" lon="15.7554223"><ele>1414.4</ele></trkpt>
        <trkpt lat="50.7421853" lon="15.7553032"><ele>1414.4</ele></trkpt>
        <trkpt lat="50.7420885" lon="15.7550874"><ele>1414.4</ele></trkpt>
        <trkpt lat="50.7419757" lon="15.7547607"><ele>1414.4</ele></trkpt>
        <trkpt lat="50.7417885" lon="15.7540497"><ele>1414.5</ele></trkpt>
        <trkpt lat="50.7416755" lon="15.7537264"><ele>1415.4</ele></trkpt>
        <trkpt lat="50.7416364" lon="15.7535992"><ele>1415.4</ele></trkpt>
        <trkpt lat="50.7415326" lon="15.7531734"><ele>1416.4</ele></trkpt>
        <trkpt lat="50.7412717" lon="15.7523677"><ele>1421.9</ele></trkpt>
        <trkpt lat="50.7410957" lon="15.7518359"><ele>1424.5</ele></trkpt>
        <trkpt lat="50.7408903" lon="15.7512472"><ele>1426.0</ele></trkpt>
        <trkpt lat="50.7407052" lon="15.7507807"><ele>1428.7</ele></trkpt>
        <trkpt lat="50.7406077" lon="15.7504098"><ele>1430.4</ele></trkpt>
        <trkpt lat="50.7404679" lon="15.7500438"><ele>1431.2</ele></trkpt>
        <trkpt lat="50.7403860" lon="15.7496811"><ele>1431.3</ele></trkpt>
        <trkpt lat="50.7403437" lon="15.7494075"><ele>1431.4</ele></trkpt>
        <trkpt lat="50.7402771" lon="15.7485888"><ele>1432.3</ele></trkpt>
        <trkpt lat="50.7402391" lon="15.7484281"><ele>1432.3</ele></trkpt>
        <trkpt lat="50.7401952" lon="15.7483123"><ele>1432.3</ele></trkpt>
        <trkpt lat="50.7398294" lon="15.7472337"><ele>1441.9</ele></trkpt>
        <trkpt lat="50.7398044" lon="15.7471842"><ele>1441.9</ele></trkpt>
        <trkpt lat="50.7396303" lon="15.7468670"><ele>1445.5</ele></trkpt>
        <trkpt lat="50.7395201" lon="15.7465118"><ele>1449.2</ele></trkpt>
        <trkpt lat="50.7394843" lon="15.7464497"><ele>1453.3</ele></trkpt>
        <trkpt lat="50.7394071" lon="15.7463589"><ele>1453.3</ele></trkpt>
        <trkpt lat="50.7393183" lon="15.7461850"><ele>1457.8</ele></trkpt>
        <trkpt lat="50.7389705" lon="15.7453114"><ele>1468.0</ele></trkpt>
        <trkpt lat="50.7389607" lon="15.7452473"><ele>1474.3</ele></trkpt>
        <trkpt lat="50.7389609" lon="15.7451620"><ele>1474.3</ele></trkpt>
        <trkpt lat="50.7389494" lon="15.7450937"><ele>1474.3</ele></trkpt>
        <trkpt lat="50.7389380" lon="15.7450470"><ele>1474.3</ele></trkpt>
        <trkpt lat="50.7388962" lon="15.7449718"><ele>1481.0</ele></trkpt>
        <trkpt lat="50.7387036" lon="15.7447327"><ele>1486.9</ele></trkpt>
        <trkpt lat="50.7386818" lon="15.7446893"><ele>1486.9</ele></trkpt>
        <trkpt lat="50.7386705" lon="15.7446343"><ele>1486.9</ele></trkpt>
        <trkpt lat="50.7386673" lon="15.7445372"><ele>1486.9</ele></trkpt>
        <trkpt lat="50.7386529" lon="15.7444981"><ele>1486.9</ele></trkpt>
        <trkpt lat="50.7386320" lon="15.7444814"><ele>1486.9</ele></trkpt>
        <trkpt lat="50.7385787" lon="15.7444507"><ele>1491.5</ele></trkpt>
        <trkpt lat="50.7385564" lon="15.7444167"><ele>1491.5</ele></trkpt>
        <trkpt lat="50.7385411" lon="15.7443678"><ele>1491.5</ele></trkpt>
        <trkpt lat="50.7385277" lon="15.7442701"><ele>1491.5</ele></trkpt>
        <trkpt lat="50.7384042" lon="15.7438713"><ele>1502.8</ele></trkpt>
        <trkpt lat="50.7383553" lon="15.7437711"><ele>1502.8</ele></trkpt>
        <trkpt lat="50.7383150" lon="15.7436688"><ele>1502.8</ele></trkpt>
        <trkpt lat="50.7382972" lon="15.7435961"><ele>1502.8</ele></trkpt>
        <trkpt lat="50.7382857" lon="15.7435562"><ele>1510.0</ele></trkpt>
        <trkpt lat="50.7382644" lon="15.7435289"><ele>1510.0</ele></trkpt>
        <trkpt lat="50.7382115" lon="15.7435044"><ele>1510.0</ele></trkpt>
        <trkpt lat="50.7381466" lon="15.7434713"><ele>1510.0</ele></trkpt>
        <trkpt lat="50.7381233" lon="15.7434478"><ele>1510.0</ele></trkpt>
        <trkpt lat="50.7381057" lon="15.7434137"><ele>1515.9</ele></trkpt>
        <trkpt lat="50.7380968" lon="15.7433492"><ele>1515.9</ele></trkpt>
        <trkpt lat="50.7380170" lon="15.7433529"><ele>1515.9</ele></trkpt>
        <trkpt lat="50.7379392" lon="15.7433587"><ele>1515.9</ele></trkpt>
        <trkpt lat="50.7378219" lon="15.7433582"><ele>1519.1</ele></trkpt>
        <trkpt lat="50.7377098" lon="15.7433646"><ele>1519.1</ele></trkpt>
        <trkpt lat="50.7374803" lon="15.7433657"><ele>1522.2</ele></trkpt>
        <trkpt lat="50.7370406" lon="15.7433468"><ele>1527.7</ele></trkpt>
        <trkpt lat="50.7363657" lon="15.7429995"><ele>1539.1</ele></trkpt>
        <trkpt lat="50.7359822" lon="15.7427732"><ele>1541.7</ele></trkpt>
        <trkpt lat="50.7358171" lon="15.7426234"><ele>1545.4</ele></trkpt>
        <trkpt lat="50.7356617" lon="15.7425172"><ele>1547.5</ele></trkpt>
        <trkpt lat="50.7354428" lon="15.7424218"><ele>1547.9</ele></trkpt>
        <trkpt lat="50.7353412" lon="15.7423229"><ele>1547.9</ele></trkpt>
        <trkpt lat="50.7352449" lon="15.7421559"><ele>1551.2</ele></trkpt>
        <trkpt lat="50.7352190" lon="15.7420388"><ele>1551.2</ele></trkpt>
        <trkpt lat="50.7352395" lon="15.7419274"><ele>1556.5</ele></trkpt>
        <trkpt lat="50.7353082" lon="15.7418546"><ele>1556.5</ele></trkpt>
        <trkpt lat="50.7357310" lon="15.7415559"><ele>1564.3</ele></trkpt>
        <trkpt lat="50.7358630" lon="15.7414583"><ele>1568.9</ele></trkpt>
        <trkpt lat="50.7359930" lon="15.7413579"><ele>1573.7</ele></trkpt>
        <trkpt lat="50.7360903" lon="15.7412787"><ele>1573.7</ele></trkpt>
        <trkpt lat="50.7361832" lon="15.7411908"><ele>1573.7</ele></trkpt>
        <trkpt lat="50.7362686" lon="15.7411027"><ele>1577.3</ele></trkpt>
        <trkpt lat="50.7363151" lon="15.7410504"><ele>1577.3</ele></trkpt>
        <trkpt lat="50.7363590" lon="15.7409979"><ele>1577.3</ele></trkpt>
        <trkpt lat="50.7364070" lon="15.7409362"><ele>1580.7</ele></trkpt>
        <trkpt lat="50.7364367" lon="15.7408872"><ele>1580.7</ele></trkpt>
        <trkpt lat="50.7364495" lon="15.7408541"><ele>1580.7</ele></trkpt>
        <trkpt lat="50.7364591" lon="15.7408270"><ele>1580.7</ele></trkpt>
        <trkpt lat="50.7364743" lon="15.7407640"><ele>1580.7</ele></trkpt>
        <trkpt lat="50.7364927" lon="15.7406621"><ele>1587.7</ele></trkpt>
        <trkpt lat="50.7365008" lon="15.7405555"><ele>1587.7</ele></trkpt>
        <trkpt lat="50.7365039" lon="15.7404776"><ele>1587.7</ele></trkpt>
        <trkpt lat="50.7364611" lon="15.7404167"><ele>1587.7</ele></trkpt>
        <trkpt lat="50.7364430" lon="15.7403933"><ele>1594.5</ele></trkpt>
        <trkpt lat="50.7364168" lon="15.7403705"><ele>1594.5</ele></trkpt>
        <trkpt lat="50.7363126" lon="15.7403664"><ele>1594.5</ele></trkpt>
        <trkpt lat="50.7362697" lon="15.7403767"><ele>1594.5</ele></trkpt>
        <trkpt lat="50.7362410" lon="15.7403752"><ele>1594.5</ele></trkpt>
        <trkpt lat="50.7362062" lon="15.7403580"><ele>1594.5</ele></trkpt>
        <trkpt lat="50.7361813" lon="15.7403201"><ele>1594.5</ele></trkpt>
        <trkpt lat="50.7361656" lon="15.7402734"><ele>1594.5</ele></trkpt>
        <trkpt lat="50.7361447" lon="15.7401536"><ele>1594.5</ele></trkpt>
        <trkpt lat="50.7361391" lon="15.7399054"><ele>1597.7</ele></trkpt>
        <trkpt lat="50.7361148" lon="15.7395311"><ele>1597.7</ele></trkpt>
    </trkseg>
  </trk>
</gpx>
