<?xml version="1.0" encoding="UTF-8"?>
<gpx version="1.1" creator="wdobrymkierunku.eu — 04-sniezka" xmlns="http://www.topografix.com/GPX/1/1">
  <metadata>
    <name>Pec → Obří důl → Śnieżka</name>
    <desc>7.2 km, suma podejść ok. 889 m (liczby jak w odcinku; z samej geometrii OSM/DEM wychodzi 6.9 km i +840 m). Geometria: OpenStreetMap (ODbL). Wysokości: GUGiK / ČÚZK.</desc>
    <copyright author="OpenStreetMap contributors"><license>https://opendatacommons.org/licenses/odbl/</license></copyright>
  </metadata>
  <trk>
    <name>Pec → Obří důl → Śnieżka</name>
    <desc>7.2 km, suma podejść ok. 889 m (liczby jak w odcinku; z samej geometrii OSM/DEM wychodzi 6.9 km i +840 m). Geometria: OpenStreetMap (ODbL). Wysokości: GUGiK / ČÚZK.</desc>
    <trkseg>
        <trkpt lat="50.6970494" lon="15.7375853"><ele>774.3</ele></trkpt>
        <trkpt lat="50.6970908" lon="15.7375311"><ele>774.3</ele></trkpt>
        <trkpt lat="50.6971433" lon="15.7374713"><ele>774.7</ele></trkpt>
        <trkpt lat="50.6972796" lon="15.7373542"><ele>774.7</ele></trkpt>
        <trkpt lat="50.6974321" lon="15.7371725"><ele>774.7</ele></trkpt>
        <trkpt lat="50.6975402" lon="15.7370802"><ele>774.8</ele></trkpt>
        <trkpt lat="50.6976391" lon="15.7370066"><ele>774.8</ele></trkpt>
        <trkpt lat="50.6978774" lon="15.7368535"><ele>775.9</ele></trkpt>
        <trkpt lat="50.6981471" lon="15.7367059"><ele>780.9</ele></trkpt>
        <trkpt lat="50.6982488" lon="15.7366503"><ele>780.9</ele></trkpt>
        <trkpt lat="50.6982536" lon="15.7366477"><ele>780.9</ele></trkpt>
        <trkpt lat="50.6982727" lon="15.7366372"><ele>780.9</ele></trkpt>
        <trkpt lat="50.6984556" lon="15.7365411"><ele>782.0</ele></trkpt>
        <trkpt lat="50.6984916" lon="15.7365223"><ele>782.0</ele></trkpt>
        <trkpt lat="50.6990191" lon="15.7362338"><ele>787.5</ele></trkpt>
        <trkpt lat="50.6990824" lon="15.7362052"><ele>787.5</ele></trkpt>
        <trkpt lat="50.6991009" lon="15.7361857"><ele>787.5</ele></trkpt>
        <trkpt lat="50.6991488" lon="15.7361799"><ele>787.5</ele></trkpt>
        <trkpt lat="50.6992120" lon="15.7361443"><ele>789.0</ele></trkpt>
        <trkpt lat="50.6993811" lon="15.7360491"><ele>789.0</ele></trkpt>
        <trkpt lat="50.6994351" lon="15.7359390"><ele>789.4</ele></trkpt>
        <trkpt lat="50.6995526" lon="15.7358376"><ele>789.4</ele></trkpt>
        <trkpt lat="50.6998546" lon="15.7355912"><ele>796.6</ele></trkpt>
        <trkpt lat="50.7000037" lon="15.7355046"><ele>798.5</ele></trkpt>
        <trkpt lat="50.7003844" lon="15.7353020"><ele>800.1</ele></trkpt>
        <trkpt lat="50.7005666" lon="15.7352050"><ele>801.6</ele></trkpt>
        <trkpt lat="50.7007003" lon="15.7351244"><ele>801.9</ele></trkpt>
        <trkpt lat="50.7008982" lon="15.7350503"><ele>802.2</ele></trkpt>
        <trkpt lat="50.7010136" lon="15.7349841"><ele>802.2</ele></trkpt>
        <trkpt lat="50.7014069" lon="15.7347716"><ele>803.2</ele></trkpt>
        <trkpt lat="50.7016376" lon="15.7346143"><ele>807.3</ele></trkpt>
        <trkpt lat="50.7023526" lon="15.7341156"><ele>814.3</ele></trkpt>
        <trkpt lat="50.7028804" lon="15.7338001"><ele>818.4</ele></trkpt>
        <trkpt lat="50.7030657" lon="15.7337283"><ele>819.4</ele></trkpt>
        <trkpt lat="50.7033772" lon="15.7336428"><ele>819.6</ele></trkpt>
        <trkpt lat="50.7038684" lon="15.7334478"><ele>827.1</ele></trkpt>
        <trkpt lat="50.7045113" lon="15.7331927"><ele>828.5</ele></trkpt>
        <trkpt lat="50.7045574" lon="15.7330741"><ele>828.5</ele></trkpt>
        <trkpt lat="50.7045774" lon="15.7330362"><ele>828.5</ele></trkpt>
        <trkpt lat="50.7046008" lon="15.7330036"><ele>828.5</ele></trkpt>
        <trkpt lat="50.7046271" lon="15.7329770"><ele>828.5</ele></trkpt>
        <trkpt lat="50.7046633" lon="15.7329531"><ele>828.5</ele></trkpt>
        <trkpt lat="50.7047012" lon="15.7329372"><ele>828.5</ele></trkpt>
        <trkpt lat="50.7047402" lon="15.7329296"><ele>828.5</ele></trkpt>
        <trkpt lat="50.7047783" lon="15.7329303"><ele>828.5</ele></trkpt>
        <trkpt lat="50.7048163" lon="15.7329359"><ele>828.5</ele></trkpt>
        <trkpt lat="50.7048538" lon="15.7329462"><ele>828.5</ele></trkpt>
        <trkpt lat="50.7048890" lon="15.7329689"><ele>828.5</ele></trkpt>
        <trkpt lat="50.7049073" lon="15.7329869"><ele>828.5</ele></trkpt>
        <trkpt lat="50.7049241" lon="15.7330083"><ele>828.5</ele></trkpt>
        <trkpt lat="50.7049540" lon="15.7330572"><ele>828.5</ele></trkpt>
        <trkpt lat="50.7049677" lon="15.7330874"><ele>828.5</ele></trkpt>
        <trkpt lat="50.7049781" lon="15.7331206"><ele>828.5</ele></trkpt>
        <trkpt lat="50.7049851" lon="15.7331570"><ele>828.5</ele></trkpt>
        <trkpt lat="50.7049881" lon="15.7331947"><ele>828.5</ele></trkpt>
        <trkpt lat="50.7049911" lon="15.7332537"><ele>829.5</ele></trkpt>
        <trkpt lat="50.7049915" lon="15.7333129"><ele>829.5</ele></trkpt>
        <trkpt lat="50.7049900" lon="15.7333584"><ele>829.5</ele></trkpt>
        <trkpt lat="50.7049819" lon="15.7334022"><ele>829.5</ele></trkpt>
        <trkpt lat="50.7049678" lon="15.7334419"><ele>829.5</ele></trkpt>
        <trkpt lat="50.7051036" lon="15.7334328"><ele>829.5</ele></trkpt>
        <trkpt lat="50.7051578" lon="15.7334130"><ele>829.5</ele></trkpt>
        <trkpt lat="50.7052733" lon="15.7333420"><ele>831.9</ele></trkpt>
        <trkpt lat="50.7053712" lon="15.7332426"><ele>831.9</ele></trkpt>
        <trkpt lat="50.7054935" lon="15.7330494"><ele>834.4</ele></trkpt>
        <trkpt lat="50.7055722" lon="15.7328921"><ele>834.4</ele></trkpt>
        <trkpt lat="50.7056016" lon="15.7328416"><ele>837.8</ele></trkpt>
        <trkpt lat="50.7057402" lon="15.7327191"><ele>837.8</ele></trkpt>
        <trkpt lat="50.7059858" lon="15.7324318"><ele>841.2</ele></trkpt>
        <trkpt lat="50.7060808" lon="15.7323843"><ele>841.2</ele></trkpt>
        <trkpt lat="50.7064845" lon="15.7322573"><ele>842.5</ele></trkpt>
        <trkpt lat="50.7066715" lon="15.7321607"><ele>842.5</ele></trkpt>
        <trkpt lat="50.7068278" lon="15.7320308"><ele>842.5</ele></trkpt>
        <trkpt lat="50.7071009" lon="15.7317033"><ele>846.2</ele></trkpt>
        <trkpt lat="50.7072917" lon="15.7314262"><ele>848.0</ele></trkpt>
        <trkpt lat="50.7074318" lon="15.7311423"><ele>849.7</ele></trkpt>
        <trkpt lat="50.7075384" lon="15.7309008"><ele>850.9</ele></trkpt>
        <trkpt lat="50.7075902" lon="15.7308990"><ele>850.9</ele></trkpt>
        <trkpt lat="50.7077187" lon="15.7308703"><ele>851.8</ele></trkpt>
        <trkpt lat="50.7077559" lon="15.7308620"><ele>851.8</ele></trkpt>
        <trkpt lat="50.7077905" lon="15.7308076"><ele>851.8</ele></trkpt>
        <trkpt lat="50.7078181" lon="15.7307642"><ele>851.8</ele></trkpt>
        <trkpt lat="50.7079404" lon="15.7305103"><ele>852.3</ele></trkpt>
        <trkpt lat="50.7080977" lon="15.7301985"><ele>855.9</ele></trkpt>
        <trkpt lat="50.7081830" lon="15.7299979"><ele>855.9</ele></trkpt>
        <trkpt lat="50.7083686" lon="15.7293733"><ele>864.9</ele></trkpt>
        <trkpt lat="50.7085329" lon="15.7287412"><ele>870.9</ele></trkpt>
        <trkpt lat="50.7086168" lon="15.7285011"><ele>873.3</ele></trkpt>
        <trkpt lat="50.7087213" lon="15.7283278"><ele>878.5</ele></trkpt>
        <trkpt lat="50.7088458" lon="15.7281286"><ele>878.5</ele></trkpt>
        <trkpt lat="50.7089262" lon="15.7279436"><ele>883.7</ele></trkpt>
        <trkpt lat="50.7090537" lon="15.7275766"><ele>887.1</ele></trkpt>
        <trkpt lat="50.7091394" lon="15.7273834"><ele>890.2</ele></trkpt>
        <trkpt lat="50.7094706" lon="15.7269133"><ele>897.1</ele></trkpt>
        <trkpt lat="50.7098414" lon="15.7264388"><ele>899.0</ele></trkpt>
        <trkpt lat="50.7101611" lon="15.7260913"><ele>899.3</ele></trkpt>
        <trkpt lat="50.7106430" lon="15.7255304"><ele>901.7</ele></trkpt>
        <trkpt lat="50.7110258" lon="15.7252259"><ele>905.7</ele></trkpt>
        <trkpt lat="50.7114182" lon="15.7248196"><ele>908.6</ele></trkpt>
        <trkpt lat="50.7118714" lon="15.7244496"><ele>912.1</ele></trkpt>
        <trkpt lat="50.7122484" lon="15.7242767"><ele>912.6</ele></trkpt>
        <trkpt lat="50.7126008" lon="15.7241757"><ele>914.0</ele></trkpt>
        <trkpt lat="50.7129470" lon="15.7241371"><ele>917.0</ele></trkpt>
        <trkpt lat="50.7131226" lon="15.7241538"><ele>917.0</ele></trkpt>
        <trkpt lat="50.7132665" lon="15.7241560"><ele>917.0</ele></trkpt>
        <trkpt lat="50.7136579" lon="15.7240696"><ele>912.2</ele></trkpt>
        <trkpt lat="50.7140447" lon="15.7239854"><ele>910.5</ele></trkpt>
        <trkpt lat="50.7143517" lon="15.7238740"><ele>910.5</ele></trkpt>
        <trkpt lat="50.7144918" lon="15.7238621"><ele>910.5</ele></trkpt>
        <trkpt lat="50.7146797" lon="15.7239472"><ele>910.6</ele></trkpt>
        <trkpt lat="50.7149252" lon="15.7241506"><ele>917.5</ele></trkpt>
        <trkpt lat="50.7150145" lon="15.7241696"><ele>917.5</ele></trkpt>
        <trkpt lat="50.7151044" lon="15.7241539"><ele>917.5</ele></trkpt>
        <trkpt lat="50.7157014" lon="15.7240232"><ele>920.1</ele></trkpt>
        <trkpt lat="50.7159864" lon="15.7239608"><ele>923.4</ele></trkpt>
        <trkpt lat="50.7162571" lon="15.7238599"><ele>925.3</ele></trkpt>
        <trkpt lat="50.7163762" lon="15.7238713"><ele>925.3</ele></trkpt>
        <trkpt lat="50.7164780" lon="15.7240077"><ele>928.0</ele></trkpt>
        <trkpt lat="50.7167800" lon="15.7243927"><ele>931.2</ele></trkpt>
        <trkpt lat="50.7168749" lon="15.7245092"><ele>931.2</ele></trkpt>
        <trkpt lat="50.7170043" lon="15.7246328"><ele>931.2</ele></trkpt>
        <trkpt lat="50.7170676" lon="15.7246447"><ele>931.2</ele></trkpt>
        <trkpt lat="50.7172004" lon="15.7246062"><ele>931.2</ele></trkpt>
        <trkpt lat="50.7177482" lon="15.7244381"><ele>927.2</ele></trkpt>
        <trkpt lat="50.7178963" lon="15.7244205"><ele>927.0</ele></trkpt>
        <trkpt lat="50.7180234" lon="15.7244426"><ele>927.0</ele></trkpt>
        <trkpt lat="50.7181208" lon="15.7244896"><ele>926.4</ele></trkpt>
        <trkpt lat="50.7182312" lon="15.7245686"><ele>926.4</ele></trkpt>
        <trkpt lat="50.7183499" lon="15.7246851"><ele>926.0</ele></trkpt>
        <trkpt lat="50.7186737" lon="15.7250869"><ele>926.0</ele></trkpt>
        <trkpt lat="50.7187516" lon="15.7251439"><ele>926.0</ele></trkpt>
        <trkpt lat="50.7188400" lon="15.7251837"><ele>926.0</ele></trkpt>
        <trkpt lat="50.7189068" lon="15.7252137"><ele>927.4</ele></trkpt>
        <trkpt lat="50.7191918" lon="15.7252319"><ele>929.2</ele></trkpt>
        <trkpt lat="50.7192649" lon="15.7252490"><ele>929.2</ele></trkpt>
        <trkpt lat="50.7193348" lon="15.7252653"><ele>931.7</ele></trkpt>
        <trkpt lat="50.7193515" lon="15.7252756"><ele>931.7</ele></trkpt>
        <trkpt lat="50.7194661" lon="15.7253461"><ele>931.7</ele></trkpt>
        <trkpt lat="50.7195437" lon="15.7254196"><ele>934.3</ele></trkpt>
        <trkpt lat="50.7197809" lon="15.7255568"><ele>936.5</ele></trkpt>
        <trkpt lat="50.7200151" lon="15.7256585"><ele>938.4</ele></trkpt>
        <trkpt lat="50.7203326" lon="15.7257537"><ele>940.7</ele></trkpt>
        <trkpt lat="50.7204063" lon="15.7258358"><ele>942.7</ele></trkpt>
        <trkpt lat="50.7205600" lon="15.7260358"><ele>946.2</ele></trkpt>
        <trkpt lat="50.7206932" lon="15.7261638"><ele>946.2</ele></trkpt>
        <trkpt lat="50.7207736" lon="15.7261972"><ele>947.8</ele></trkpt>
        <trkpt lat="50.7210005" lon="15.7262432"><ele>947.8</ele></trkpt>
        <trkpt lat="50.7211995" lon="15.7263534"><ele>947.8</ele></trkpt>
        <trkpt lat="50.7214705" lon="15.7265967"><ele>946.5</ele></trkpt>
        <trkpt lat="50.7215533" lon="15.7266680"><ele>946.5</ele></trkpt>
        <trkpt lat="50.7216980" lon="15.7267340"><ele>946.2</ele></trkpt>
        <trkpt lat="50.7218368" lon="15.7267995"><ele>946.2</ele></trkpt>
        <trkpt lat="50.7219881" lon="15.7269074"><ele>946.2</ele></trkpt>
        <trkpt lat="50.7221669" lon="15.7270108"><ele>946.2</ele></trkpt>
        <trkpt lat="50.7222023" lon="15.7271002"><ele>947.7</ele></trkpt>
        <trkpt lat="50.7222852" lon="15.7272389"><ele>947.7</ele></trkpt>
        <trkpt lat="50.7225888" lon="15.7280921"><ele>957.5</ele></trkpt>
        <trkpt lat="50.7228141" lon="15.7285338"><ele>959.3</ele></trkpt>
        <trkpt lat="50.7229920" lon="15.7288513"><ele>964.7</ele></trkpt>
        <trkpt lat="50.7233558" lon="15.7291517"><ele>966.7</ele></trkpt>
        <trkpt lat="50.7236908" lon="15.7295205"><ele>970.3</ele></trkpt>
        <trkpt lat="50.7244596" lon="15.7301890"><ele>990.5</ele></trkpt>
        <trkpt lat="50.7246433" lon="15.7302676"><ele>995.4</ele></trkpt>
        <trkpt lat="50.7247788" lon="15.7303056"><ele>998.1</ele></trkpt>
        <trkpt lat="50.7249233" lon="15.7303080"><ele>998.1</ele></trkpt>
        <trkpt lat="50.7250241" lon="15.7303223"><ele>998.6</ele></trkpt>
        <trkpt lat="50.7251009" lon="15.7303556"><ele>998.6</ele></trkpt>
        <trkpt lat="50.7251611" lon="15.7303936"><ele>998.6</ele></trkpt>
        <trkpt lat="50.7252300" lon="15.7304786"><ele>1002.3</ele></trkpt>
        <trkpt lat="50.7253221" lon="15.7306599"><ele>1004.0</ele></trkpt>
        <trkpt lat="50.7253703" lon="15.7306837"><ele>1004.0</ele></trkpt>
        <trkpt lat="50.7254350" lon="15.7307098"><ele>1004.0</ele></trkpt>
        <trkpt lat="50.7255599" lon="15.7307003"><ele>1004.2</ele></trkpt>
        <trkpt lat="50.7256653" lon="15.7307027"><ele>1004.2</ele></trkpt>
        <trkpt lat="50.7257751" lon="15.7307312"><ele>1004.2</ele></trkpt>
        <trkpt lat="50.7259407" lon="15.7307930"><ele>1004.5</ele></trkpt>
        <trkpt lat="50.7260611" lon="15.7308620"><ele>1004.5</ele></trkpt>
        <trkpt lat="50.7263810" lon="15.7310178"><ele>1007.1</ele></trkpt>
        <trkpt lat="50.7265728" lon="15.7311996"><ele>1015.3</ele></trkpt>
        <trkpt lat="50.7267128" lon="15.7312614"><ele>1024.4</ele></trkpt>
        <trkpt lat="50.7271312" lon="15.7313827"><ele>1033.5</ele></trkpt>
        <trkpt lat="50.7274864" lon="15.7314373"><ele>1035.1</ele></trkpt>
        <trkpt lat="50.7275782" lon="15.7314587"><ele>1038.8</ele></trkpt>
        <trkpt lat="50.7276655" lon="15.7314564"><ele>1038.8</ele></trkpt>
        <trkpt lat="50.7277753" lon="15.7314255"><ele>1042.5</ele></trkpt>
        <trkpt lat="50.7278536" lon="15.7314255"><ele>1042.5</ele></trkpt>
        <trkpt lat="50.7278942" lon="15.7314302"><ele>1042.5</ele></trkpt>
        <trkpt lat="50.7279339" lon="15.7314671"><ele>1042.5</ele></trkpt>
        <trkpt lat="50.7279078" lon="15.7315467"><ele>1050.9</ele></trkpt>
        <trkpt lat="50.7278641" lon="15.7316085"><ele>1050.9</ele></trkpt>
        <trkpt lat="50.7276971" lon="15.7317417"><ele>1053.1</ele></trkpt>
        <trkpt lat="50.7276173" lon="15.7317868"><ele>1053.1</ele></trkpt>
        <trkpt lat="50.7275089" lon="15.7318534"><ele>1056.7</ele></trkpt>
        <trkpt lat="50.7273765" lon="15.7319485"><ele>1056.7</ele></trkpt>
        <trkpt lat="50.7272531" lon="15.7320317"><ele>1061.5</ele></trkpt>
        <trkpt lat="50.7270168" lon="15.7322005"><ele>1066.2</ele></trkpt>
        <trkpt lat="50.7267790" lon="15.7324002"><ele>1069.6</ele></trkpt>
        <trkpt lat="50.7267459" lon="15.7324549"><ele>1069.6</ele></trkpt>
        <trkpt lat="50.7267369" lon="15.7325310"><ele>1077.7</ele></trkpt>
        <trkpt lat="50.7267549" lon="15.7326356"><ele>1077.7</ele></trkpt>
        <trkpt lat="50.7268332" lon="15.7326642"><ele>1077.7</ele></trkpt>
        <trkpt lat="50.7272727" lon="15.7327569"><ele>1087.0</ele></trkpt>
        <trkpt lat="50.7276143" lon="15.7328781"><ele>1102.7</ele></trkpt>
        <trkpt lat="50.7280101" lon="15.7330113"><ele>1117.2</ele></trkpt>
        <trkpt lat="50.7284210" lon="15.7331135"><ele>1126.9</ele></trkpt>
        <trkpt lat="50.7286151" lon="15.7331325"><ele>1126.9</ele></trkpt>
        <trkpt lat="50.7288198" lon="15.7331397"><ele>1132.0</ele></trkpt>
        <trkpt lat="50.7290470" lon="15.7331729"><ele>1136.7</ele></trkpt>
        <trkpt lat="50.7292577" lon="15.7332157"><ele>1141.5</ele></trkpt>
        <trkpt lat="50.7294037" lon="15.7332966"><ele>1148.1</ele></trkpt>
        <trkpt lat="50.7295392" lon="15.7334440"><ele>1158.0</ele></trkpt>
        <trkpt lat="50.7296144" lon="15.7334868"><ele>1158.0</ele></trkpt>
        <trkpt lat="50.7297318" lon="15.7334892"><ele>1162.9</ele></trkpt>
        <trkpt lat="50.7299485" lon="15.7334559"><ele>1168.4</ele></trkpt>
        <trkpt lat="50.7302886" lon="15.7334749"><ele>1173.9</ele></trkpt>
        <trkpt lat="50.7304918" lon="15.7335224"><ele>1181.0</ele></trkpt>
        <trkpt lat="50.7305580" lon="15.7335391"><ele>1181.0</ele></trkpt>
        <trkpt lat="50.7306167" lon="15.7335201"><ele>1185.0</ele></trkpt>
        <trkpt lat="50.7307521" lon="15.7334273"><ele>1185.0</ele></trkpt>
        <trkpt lat="50.7308138" lon="15.7333941"><ele>1189.0</ele></trkpt>
        <trkpt lat="50.7308815" lon="15.7333917"><ele>1189.0</ele></trkpt>
        <trkpt lat="50.7309252" lon="15.7333822"><ele>1189.0</ele></trkpt>
        <trkpt lat="50.7309749" lon="15.7333560"><ele>1189.0</ele></trkpt>
        <trkpt lat="50.7310576" lon="15.7333180"><ele>1192.1</ele></trkpt>
        <trkpt lat="50.7313616" lon="15.7331587"><ele>1194.8</ele></trkpt>
        <trkpt lat="50.7315091" lon="15.7330945"><ele>1196.0</ele></trkpt>
        <trkpt lat="50.7316204" lon="15.7330707"><ele>1196.0</ele></trkpt>
        <trkpt lat="50.7317649" lon="15.7330755"><ele>1199.2</ele></trkpt>
        <trkpt lat="50.7318778" lon="15.7331016"><ele>1199.2</ele></trkpt>
        <trkpt lat="50.7320373" lon="15.7331682"><ele>1208.2</ele></trkpt>
        <trkpt lat="50.7321385" lon="15.7332029"><ele>1220.7</ele></trkpt>
        <trkpt lat="50.7322852" lon="15.7332000"><ele>1220.7</ele></trkpt>
        <trkpt lat="50.7324090" lon="15.7331798"><ele>1227.1</ele></trkpt>
        <trkpt lat="50.7325945" lon="15.7331936"><ele>1230.2</ele></trkpt>
        <trkpt lat="50.7327766" lon="15.7333823"><ele>1230.2</ele></trkpt>
        <trkpt lat="50.7328023" lon="15.7333881"><ele>1230.2</ele></trkpt>
        <trkpt lat="50.7328548" lon="15.7332762"><ele>1230.2</ele></trkpt>
        <trkpt lat="50.7328882" lon="15.7330438"><ele>1230.2</ele></trkpt>
        <trkpt lat="50.7328921" lon="15.7329542"><ele>1230.2</ele></trkpt>
        <trkpt lat="50.7329066" lon="15.7326249"><ele>1225.5</ele></trkpt>
        <trkpt lat="50.7328331" lon="15.7321904"><ele>1225.5</ele></trkpt>
        <trkpt lat="50.7327753" lon="15.7319873"><ele>1225.5</ele></trkpt>
        <trkpt lat="50.7327268" lon="15.7317016"><ele>1228.1</ele></trkpt>
        <trkpt lat="50.7327037" lon="15.7315182"><ele>1228.1</ele></trkpt>
        <trkpt lat="50.7327149" lon="15.7314115"><ele>1228.1</ele></trkpt>
        <trkpt lat="50.7327549" lon="15.7312603"><ele>1237.6</ele></trkpt>
        <trkpt lat="50.7328145" lon="15.7311128"><ele>1237.6</ele></trkpt>
        <trkpt lat="50.7328750" lon="15.7309839"><ele>1247.5</ele></trkpt>
        <trkpt lat="50.7329127" lon="15.7309294"><ele>1247.5</ele></trkpt>
        <trkpt lat="50.7329459" lon="15.7309002"><ele>1247.5</ele></trkpt>
        <trkpt lat="50.7330405" lon="15.7308408"><ele>1255.9</ele></trkpt>
        <trkpt lat="50.7330854" lon="15.7308234"><ele>1255.9</ele></trkpt>
        <trkpt lat="50.7331070" lon="15.7308372"><ele>1255.9</ele></trkpt>
        <trkpt lat="50.7331189" lon="15.7308722"><ele>1255.9</ele></trkpt>
        <trkpt lat="50.7331194" lon="15.7309464"><ele>1255.9</ele></trkpt>
        <trkpt lat="50.7331087" lon="15.7309979"><ele>1256.8</ele></trkpt>
        <trkpt lat="50.7330628" lon="15.7311572"><ele>1256.8</ele></trkpt>
        <trkpt lat="50.7330956" lon="15.7314039"><ele>1257.9</ele></trkpt>
        <trkpt lat="50.7331516" lon="15.7315898"><ele>1257.9</ele></trkpt>
        <trkpt lat="50.7331652" lon="15.7316106"><ele>1257.9</ele></trkpt>
        <trkpt lat="50.7331835" lon="15.7316139"><ele>1257.9</ele></trkpt>
        <trkpt lat="50.7332108" lon="15.7315812"><ele>1264.9</ele></trkpt>
        <trkpt lat="50.7332890" lon="15.7313862"><ele>1264.9</ele></trkpt>
        <trkpt lat="50.7333211" lon="15.7313391"><ele>1276.3</ele></trkpt>
        <trkpt lat="50.7333741" lon="15.7313019"><ele>1276.3</ele></trkpt>
        <trkpt lat="50.7335999" lon="15.7311773"><ele>1288.1</ele></trkpt>
        <trkpt lat="50.7339248" lon="15.7309886"><ele>1297.3</ele></trkpt>
        <trkpt lat="50.7339458" lon="15.7309810"><ele>1297.3</ele></trkpt>
        <trkpt lat="50.7339707" lon="15.7309882"><ele>1305.6</ele></trkpt>
        <trkpt lat="50.7340655" lon="15.7310111"><ele>1305.6</ele></trkpt>
        <trkpt lat="50.7341163" lon="15.7310029"><ele>1305.6</ele></trkpt>
        <trkpt lat="50.7341940" lon="15.7309618"><ele>1309.4</ele></trkpt>
        <trkpt lat="50.7343397" lon="15.7308881"><ele>1309.4</ele></trkpt>
        <trkpt lat="50.7344601" lon="15.7308025"><ele>1312.7</ele></trkpt>
        <trkpt lat="50.7346000" lon="15.7307288"><ele>1312.7</ele></trkpt>
        <trkpt lat="50.7349055" lon="15.7305886"><ele>1328.1</ele></trkpt>
        <trkpt lat="50.7351190" lon="15.7305209"><ele>1335.0</ele></trkpt>
        <trkpt lat="50.7353012" lon="15.7304126"><ele>1342.7</ele></trkpt>
        <trkpt lat="50.7354929" lon="15.7302643"><ele>1345.5</ele></trkpt>
        <trkpt lat="50.7363361" lon="15.7298168"><ele>1358.4</ele></trkpt>
        <trkpt lat="50.7367705" lon="15.7296758"><ele>1367.7</ele></trkpt>
        <trkpt lat="50.7371135" lon="15.7295297"><ele>1370.8</ele></trkpt>
        <trkpt lat="50.7374256" lon="15.7293857"><ele>1371.3</ele></trkpt>
        <trkpt lat="50.7376381" lon="15.7292904"><ele>1371.8</ele></trkpt>
        <trkpt lat="50.7378480" lon="15.7292213"><ele>1375.4</ele></trkpt>
        <trkpt lat="50.7379862" lon="15.7293334"><ele>1375.4</ele></trkpt>
        <trkpt lat="50.7381021" lon="15.7293797"><ele>1380.7</ele></trkpt>
        <trkpt lat="50.7381587" lon="15.7293764"><ele>1380.7</ele></trkpt>
        <trkpt lat="50.7383968" lon="15.7292396"><ele>1382.4</ele></trkpt>
        <trkpt lat="50.7386588" lon="15.7291771"><ele>1385.2</ele></trkpt>
        <trkpt lat="50.7389554" lon="15.7290087"><ele>1388.9</ele></trkpt>
        <trkpt lat="50.7391191" lon="15.7289017"><ele>1391.5</ele></trkpt>
        <trkpt lat="50.7391757" lon="15.7288645"><ele>1391.5</ele></trkpt>
        <trkpt lat="50.7392417" lon="15.7288299"><ele>1391.5</ele></trkpt>
        <trkpt lat="50.7392217" lon="15.7290843"><ele>1392.3</ele></trkpt>
        <trkpt lat="50.7392841" lon="15.7289070"><ele>1391.5</ele></trkpt>
        <trkpt lat="50.7394032" lon="15.7290070"><ele>1392.3</ele></trkpt>
        <trkpt lat="50.7392841" lon="15.7289070"><ele>1391.5</ele></trkpt>
        <trkpt lat="50.7392217" lon="15.7290843"><ele>1392.3</ele></trkpt>
        <trkpt lat="50.7391727" lon="15.7292098"><ele>1391.9</ele></trkpt>
        <trkpt lat="50.7389049" lon="15.7299665"><ele>1391.9</ele></trkpt>
        <trkpt lat="50.7387953" lon="15.7302762"><ele>1393.5</ele></trkpt>
        <trkpt lat="50.7387355" lon="15.7304504"><ele>1395.9</ele></trkpt>
        <trkpt lat="50.7387075" lon="15.7305360"><ele>1395.9</ele></trkpt>
        <trkpt lat="50.7386828" lon="15.7305892"><ele>1395.9</ele></trkpt>
        <trkpt lat="50.7386458" lon="15.7306571"><ele>1395.9</ele></trkpt>
        <trkpt lat="50.7385982" lon="15.7307279"><ele>1399.3</ele></trkpt>
        <trkpt lat="50.7385141" lon="15.7308121"><ele>1399.3</ele></trkpt>
        <trkpt lat="50.7384112" lon="15.7309158"><ele>1403.1</ele></trkpt>
        <trkpt lat="50.7382646" lon="15.7310454"><ele>1403.1</ele></trkpt>
        <trkpt lat="50.7381908" lon="15.7311177"><ele>1406.6</ele></trkpt>
        <trkpt lat="50.7381511" lon="15.7311659"><ele>1406.6</ele></trkpt>
        <trkpt lat="50.7381187" lon="15.7312145"><ele>1406.6</ele></trkpt>
        <trkpt lat="50.7380848" lon="15.7312836"><ele>1406.6</ele></trkpt>
        <trkpt lat="50.7380430" lon="15.7313902"><ele>1409.8</ele></trkpt>
        <trkpt lat="50.7380130" lon="15.7314040"><ele>1409.8</ele></trkpt>
        <trkpt lat="50.7379404" lon="15.7314451"><ele>1409.8</ele></trkpt>
        <trkpt lat="50.7377574" lon="15.7316347"><ele>1410.8</ele></trkpt>
        <trkpt lat="50.7376835" lon="15.7317784"><ele>1413.5</ele></trkpt>
        <trkpt lat="50.7374383" lon="15.7320790"><ele>1416.9</ele></trkpt>
        <trkpt lat="50.7373093" lon="15.7322293"><ele>1420.4</ele></trkpt>
        <trkpt lat="50.7371915" lon="15.7323772"><ele>1420.4</ele></trkpt>
        <trkpt lat="50.7371275" lon="15.7324492"><ele>1425.8</ele></trkpt>
        <trkpt lat="50.7370635" lon="15.7325238"><ele>1425.8</ele></trkpt>
        <trkpt lat="50.7370182" lon="15.7325747"><ele>1425.8</ele></trkpt>
        <trkpt lat="50.7369807" lon="15.7326175"><ele>1432.0</ele></trkpt>
        <trkpt lat="50.7369524" lon="15.7326532"><ele>1432.0</ele></trkpt>
        <trkpt lat="50.7368926" lon="15.7327639"><ele>1432.0</ele></trkpt>
        <trkpt lat="50.7368877" lon="15.7327993"><ele>1432.0</ele></trkpt>
        <trkpt lat="50.7368480" lon="15.7328852"><ele>1439.2</ele></trkpt>
        <trkpt lat="50.7368280" lon="15.7329301"><ele>1439.2</ele></trkpt>
        <trkpt lat="50.7368208" lon="15.7329559"><ele>1439.2</ele></trkpt>
        <trkpt lat="50.7368196" lon="15.7329979"><ele>1439.2</ele></trkpt>
        <trkpt lat="50.7368163" lon="15.7330709"><ele>1439.2</ele></trkpt>
        <trkpt lat="50.7368151" lon="15.7332003"><ele>1447.3</ele></trkpt>
        <trkpt lat="50.7368176" lon="15.7334644"><ele>1447.3</ele></trkpt>
        <trkpt lat="50.7368148" lon="15.7335011"><ele>1454.5</ele></trkpt>
        <trkpt lat="50.7368107" lon="15.7335176"><ele>1454.5</ele></trkpt>
        <trkpt lat="50.7368000" lon="15.7335324"><ele>1454.5</ele></trkpt>
        <trkpt lat="50.7367884" lon="15.7335370"><ele>1454.5</ele></trkpt>
        <trkpt lat="50.7367644" lon="15.7335195"><ele>1454.5</ele></trkpt>
        <trkpt lat="50.7367409" lon="15.7335047"><ele>1454.5</ele></trkpt>
        <trkpt lat="50.7367232" lon="15.7334971"><ele>1454.5</ele></trkpt>
        <trkpt lat="50.7367095" lon="15.7335016"><ele>1454.5</ele></trkpt>
        <trkpt lat="50.7367044" lon="15.7335171"><ele>1454.5</ele></trkpt>
        <trkpt lat="50.7367051" lon="15.7335325"><ele>1454.5</ele></trkpt>
        <trkpt lat="50.7367042" lon="15.7335891"><ele>1454.5</ele></trkpt>
        <trkpt lat="50.7367080" lon="15.7337037"><ele>1454.5</ele></trkpt>
        <trkpt lat="50.7367164" lon="15.7338851"><ele>1462.2</ele></trkpt>
        <trkpt lat="50.7367275" lon="15.7340710"><ele>1467.7</ele></trkpt>
        <trkpt lat="50.7367377" lon="15.7342662"><ele>1467.7</ele></trkpt>
        <trkpt lat="50.7367435" lon="15.7344771"><ele>1474.2</ele></trkpt>
        <trkpt lat="50.7367544" lon="15.7346342"><ele>1474.2</ele></trkpt>
        <trkpt lat="50.7367619" lon="15.7347166"><ele>1480.7</ele></trkpt>
        <trkpt lat="50.7367656" lon="15.7347988"><ele>1480.7</ele></trkpt>
        <trkpt lat="50.7367640" lon="15.7348145"><ele>1480.7</ele></trkpt>
        <trkpt lat="50.7367598" lon="15.7348226"><ele>1480.7</ele></trkpt>
        <trkpt lat="50.7367513" lon="15.7348202"><ele>1480.7</ele></trkpt>
        <trkpt lat="50.7367447" lon="15.7348121"><ele>1480.7</ele></trkpt>
        <trkpt lat="50.7367252" lon="15.7347891"><ele>1480.7</ele></trkpt>
        <trkpt lat="50.7367044" lon="15.7347566"><ele>1480.7</ele></trkpt>
        <trkpt lat="50.7366512" lon="15.7346797"><ele>1480.7</ele></trkpt>
        <trkpt lat="50.7365998" lon="15.7346184"><ele>1480.7</ele></trkpt>
        <trkpt lat="50.7365457" lon="15.7345843"><ele>1480.7</ele></trkpt>
        <trkpt lat="50.7364913" lon="15.7345413"><ele>1480.7</ele></trkpt>
        <trkpt lat="50.7363911" lon="15.7344968"><ele>1482.1</ele></trkpt>
        <trkpt lat="50.7362906" lon="15.7344439"><ele>1482.1</ele></trkpt>
        <trkpt lat="50.7361805" lon="15.7344038"><ele>1483.6</ele></trkpt>
        <trkpt lat="50.7361488" lon="15.7343992"><ele>1483.6</ele></trkpt>
        <trkpt lat="50.7361305" lon="15.7344095"><ele>1483.6</ele></trkpt>
        <trkpt lat="50.7361227" lon="15.7344378"><ele>1483.6</ele></trkpt>
        <trkpt lat="50.7361229" lon="15.7344986"><ele>1483.6</ele></trkpt>
        <trkpt lat="50.7361313" lon="15.7345474"><ele>1483.6</ele></trkpt>
        <trkpt lat="50.7361522" lon="15.7345803"><ele>1483.6</ele></trkpt>
        <trkpt lat="50.7361757" lon="15.7346267"><ele>1483.6</ele></trkpt>
        <trkpt lat="50.7362114" lon="15.7346952"><ele>1490.1</ele></trkpt>
        <trkpt lat="50.7362417" lon="15.7347786"><ele>1490.1</ele></trkpt>
        <trkpt lat="50.7362856" lon="15.7348692"><ele>1490.1</ele></trkpt>
        <trkpt lat="50.7363162" lon="15.7349609"><ele>1497.8</ele></trkpt>
        <trkpt lat="50.7363279" lon="15.7350245"><ele>1497.8</ele></trkpt>
        <trkpt lat="50.7363362" lon="15.7350877"><ele>1497.8</ele></trkpt>
        <trkpt lat="50.7363402" lon="15.7352910"><ele>1504.8</ele></trkpt>
        <trkpt lat="50.7363406" lon="15.7354691"><ele>1504.8</ele></trkpt>
        <trkpt lat="50.7363399" lon="15.7357889"><ele>1509.8</ele></trkpt>
        <trkpt lat="50.7363341" lon="15.7358002"><ele>1509.8</ele></trkpt>
        <trkpt lat="50.7363267" lon="15.7358004"><ele>1509.8</ele></trkpt>
        <trkpt lat="50.7363111" lon="15.7357876"><ele>1509.8</ele></trkpt>
        <trkpt lat="50.7362874" lon="15.7357674"><ele>1509.8</ele></trkpt>
        <trkpt lat="50.7362642" lon="15.7357684"><ele>1509.8</ele></trkpt>
        <trkpt lat="50.7362300" lon="15.7357737"><ele>1509.8</ele></trkpt>
        <trkpt lat="50.7362269" lon="15.7357906"><ele>1509.8</ele></trkpt>
        <trkpt lat="50.7362250" lon="15.7358080"><ele>1509.8</ele></trkpt>
        <trkpt lat="50.7362293" lon="15.7358294"><ele>1509.8</ele></trkpt>
        <trkpt lat="50.7362622" lon="15.7360678"><ele>1510.8</ele></trkpt>
        <trkpt lat="50.7362971" lon="15.7362771"><ele>1519.6</ele></trkpt>
        <trkpt lat="50.7363505" lon="15.7365666"><ele>1531.7</ele></trkpt>
        <trkpt lat="50.7364196" lon="15.7368757"><ele>1545.1</ele></trkpt>
        <trkpt lat="50.7364378" lon="15.7369829"><ele>1545.1</ele></trkpt>
        <trkpt lat="50.7364602" lon="15.7371414"><ele>1545.1</ele></trkpt>
        <trkpt lat="50.7364673" lon="15.7373034"><ele>1555.6</ele></trkpt>
        <trkpt lat="50.7364724" lon="15.7374595"><ele>1555.6</ele></trkpt>
        <trkpt lat="50.7364594" lon="15.7375610"><ele>1565.5</ele></trkpt>
        <trkpt lat="50.7364481" lon="15.7376616"><ele>1565.5</ele></trkpt>
        <trkpt lat="50.7364359" lon="15.7377872"><ele>1565.5</ele></trkpt>
        <trkpt lat="50.7364249" lon="15.7379169"><ele>1573.2</ele></trkpt>
        <trkpt lat="50.7364293" lon="15.7380616"><ele>1573.2</ele></trkpt>
        <trkpt lat="50.7364266" lon="15.7381949"><ele>1573.2</ele></trkpt>
        <trkpt lat="50.7364258" lon="15.7384455"><ele>1580.6</ele></trkpt>
        <trkpt lat="50.7364140" lon="15.7386182"><ele>1586.8</ele></trkpt>
        <trkpt lat="50.7364043" lon="15.7387088"><ele>1586.8</ele></trkpt>
        <trkpt lat="50.7363872" lon="15.7388606"><ele>1586.8</ele></trkpt>
        <trkpt lat="50.7363636" lon="15.7390260"><ele>1592.1</ele></trkpt>
        <trkpt lat="50.7363008" lon="15.7393596"><ele>1594.2</ele></trkpt>
        <trkpt lat="50.7362857" lon="15.7394372"><ele>1594.2</ele></trkpt>
        <trkpt lat="50.7362246" lon="15.7394732"><ele>1594.2</ele></trkpt>
        <trkpt lat="50.7361148" lon="15.7395311"><ele>1594.2</ele></trkpt>
    </trkseg>
  </trk>
</gpx>
