<?xml version="1.0" encoding="UTF-8"?>
<gpx version="1.1" creator="wdobrymkierunku.eu — 04-sniezka" xmlns="http://www.topografix.com/GPX/1/1">
  <metadata>
    <name>Szrenica → grań → Śnieżka</name>
    <desc>25.5 km, suma podejść ok. 1495 m (liczby jak w odcinku; z samej geometrii OSM/DEM wychodzi 25.3 km i +1465 m). Geometria: OpenStreetMap (ODbL). Wysokości: GUGiK / ČÚZK.</desc>
    <copyright author="OpenStreetMap contributors"><license>https://opendatacommons.org/licenses/odbl/</license></copyright>
  </metadata>
  <trk>
    <name>Szrenica → grań → Śnieżka</name>
    <desc>25.5 km, suma podejść ok. 1495 m (liczby jak w odcinku; z samej geometrii OSM/DEM wychodzi 25.3 km i +1465 m). Geometria: OpenStreetMap (ODbL). Wysokości: GUGiK / ČÚZK.</desc>
    <trkseg>
        <trkpt lat="50.8191444" lon="15.5176660"><ele>707.5</ele></trkpt>
        <trkpt lat="50.8189370" lon="15.5173978"><ele>708.2</ele></trkpt>
        <trkpt lat="50.8189241" lon="15.5174391"><ele>708.2</ele></trkpt>
        <trkpt lat="50.8188986" lon="15.5174599"><ele>708.2</ele></trkpt>
        <trkpt lat="50.8188685" lon="15.5174611"><ele>708.2</ele></trkpt>
        <trkpt lat="50.8188058" lon="15.5173918"><ele>708.2</ele></trkpt>
        <trkpt lat="50.8187648" lon="15.5173455"><ele>708.2</ele></trkpt>
        <trkpt lat="50.8187487" lon="15.5173214"><ele>708.2</ele></trkpt>
        <trkpt lat="50.8187090" lon="15.5171721"><ele>709.0</ele></trkpt>
        <trkpt lat="50.8186463" lon="15.5169056"><ele>709.9</ele></trkpt>
        <trkpt lat="50.8186427" lon="15.5168656"><ele>709.9</ele></trkpt>
        <trkpt lat="50.8186496" lon="15.5168087"><ele>709.9</ele></trkpt>
        <trkpt lat="50.8186771" lon="15.5167407"><ele>709.9</ele></trkpt>
        <trkpt lat="50.8188336" lon="15.5164217"><ele>711.9</ele></trkpt>
        <trkpt lat="50.8188551" lon="15.5163507"><ele>711.9</ele></trkpt>
        <trkpt lat="50.8188640" lon="15.5162854"><ele>713.6</ele></trkpt>
        <trkpt lat="50.8188716" lon="15.5161772"><ele>713.6</ele></trkpt>
        <trkpt lat="50.8188682" lon="15.5160826"><ele>713.6</ele></trkpt>
        <trkpt lat="50.8188634" lon="15.5160525"><ele>713.6</ele></trkpt>
        <trkpt lat="50.8188281" lon="15.5159483"><ele>715.8</ele></trkpt>
        <trkpt lat="50.8187707" lon="15.5158278"><ele>715.8</ele></trkpt>
        <trkpt lat="50.8187498" lon="15.5157886"><ele>715.8</ele></trkpt>
        <trkpt lat="50.8187030" lon="15.5157293"><ele>715.8</ele></trkpt>
        <trkpt lat="50.8186987" lon="15.5156332"><ele>717.3</ele></trkpt>
        <trkpt lat="50.8187183" lon="15.5155246"><ele>717.3</ele></trkpt>
        <trkpt lat="50.8185219" lon="15.5150959"><ele>718.3</ele></trkpt>
        <trkpt lat="50.8184396" lon="15.5149501"><ele>719.7</ele></trkpt>
        <trkpt lat="50.8183252" lon="15.5144834"><ele>722.1</ele></trkpt>
        <trkpt lat="50.8181495" lon="15.5140886"><ele>729.6</ele></trkpt>
        <trkpt lat="50.8179102" lon="15.5135107"><ele>737.8</ele></trkpt>
        <trkpt lat="50.8176868" lon="15.5128871"><ele>742.8</ele></trkpt>
        <trkpt lat="50.8173740" lon="15.5118933"><ele>746.8</ele></trkpt>
        <trkpt lat="50.8173143" lon="15.5114698"><ele>747.3</ele></trkpt>
        <trkpt lat="50.8172693" lon="15.5111512"><ele>747.7</ele></trkpt>
        <trkpt lat="50.8172472" lon="15.5108944"><ele>747.8</ele></trkpt>
        <trkpt lat="50.8172561" lon="15.5107212"><ele>747.8</ele></trkpt>
        <trkpt lat="50.8173086" lon="15.5106085"><ele>747.9</ele></trkpt>
        <trkpt lat="50.8173764" lon="15.5104664"><ele>747.9</ele></trkpt>
        <trkpt lat="50.8173899" lon="15.5103806"><ele>747.9</ele></trkpt>
        <trkpt lat="50.8174103" lon="15.5102733"><ele>747.9</ele></trkpt>
        <trkpt lat="50.8174272" lon="15.5100158"><ele>747.9</ele></trkpt>
        <trkpt lat="50.8174832" lon="15.5094820"><ele>747.9</ele></trkpt>
        <trkpt lat="50.8175306" lon="15.5091682"><ele>748.4</ele></trkpt>
        <trkpt lat="50.8175662" lon="15.5087954"><ele>750.0</ele></trkpt>
        <trkpt lat="50.8175797" lon="15.5085003"><ele>751.4</ele></trkpt>
        <trkpt lat="50.8175814" lon="15.5082026"><ele>752.1</ele></trkpt>
        <trkpt lat="50.8175600" lon="15.5078047"><ele>752.5</ele></trkpt>
        <trkpt lat="50.8175504" lon="15.5075765"><ele>752.5</ele></trkpt>
        <trkpt lat="50.8175603" lon="15.5073530"><ele>752.8</ele></trkpt>
        <trkpt lat="50.8176126" lon="15.5069209"><ele>753.1</ele></trkpt>
        <trkpt lat="50.8176345" lon="15.5067518"><ele>753.7</ele></trkpt>
        <trkpt lat="50.8177051" lon="15.5064869"><ele>753.7</ele></trkpt>
        <trkpt lat="50.8177433" lon="15.5063331"><ele>755.4</ele></trkpt>
        <trkpt lat="50.8177458" lon="15.5062424"><ele>755.4</ele></trkpt>
        <trkpt lat="50.8177327" lon="15.5060256"><ele>757.9</ele></trkpt>
        <trkpt lat="50.8177060" lon="15.5058754"><ele>757.9</ele></trkpt>
        <trkpt lat="50.8176761" lon="15.5057411"><ele>759.3</ele></trkpt>
        <trkpt lat="50.8176052" lon="15.5055070"><ele>759.3</ele></trkpt>
        <trkpt lat="50.8175831" lon="15.5053970"><ele>760.2</ele></trkpt>
        <trkpt lat="50.8175671" lon="15.5052808"><ele>760.2</ele></trkpt>
        <trkpt lat="50.8175526" lon="15.5050159"><ele>761.0</ele></trkpt>
        <trkpt lat="50.8175716" lon="15.5047908"><ele>761.0</ele></trkpt>
        <trkpt lat="50.8175962" lon="15.5045283"><ele>761.5</ele></trkpt>
        <trkpt lat="50.8175967" lon="15.5042450"><ele>762.7</ele></trkpt>
        <trkpt lat="50.8175229" lon="15.5039457"><ele>764.2</ele></trkpt>
        <trkpt lat="50.8174251" lon="15.5036487"><ele>766.3</ele></trkpt>
        <trkpt lat="50.8172582" lon="15.5030219"><ele>768.9</ele></trkpt>
        <trkpt lat="50.8174594" lon="15.5031520"><ele>768.9</ele></trkpt>
        <trkpt lat="50.8175005" lon="15.5031670"><ele>768.9</ele></trkpt>
        <trkpt lat="50.8176345" lon="15.5032157"><ele>768.9</ele></trkpt>
        <trkpt lat="50.8178119" lon="15.5032298"><ele>768.7</ele></trkpt>
        <trkpt lat="50.8179550" lon="15.5032115"><ele>768.6</ele></trkpt>
        <trkpt lat="50.8180797" lon="15.5031359"><ele>768.6</ele></trkpt>
        <trkpt lat="50.8181604" lon="15.5030687"><ele>768.1</ele></trkpt>
        <trkpt lat="50.8188095" lon="15.5024150"><ele>766.7</ele></trkpt>
        <trkpt lat="50.8154209" lon="15.4982360"><ele>809.8</ele></trkpt>
        <trkpt lat="50.8148658" lon="15.4975230"><ele>828.4</ele></trkpt>
        <trkpt lat="50.8147469" lon="15.4973702"><ele>828.4</ele></trkpt>
        <trkpt lat="50.8142786" lon="15.4967961"><ele>840.4</ele></trkpt>
        <trkpt lat="50.8142239" lon="15.4967207"><ele>840.4</ele></trkpt>
        <trkpt lat="50.8142087" lon="15.4966912"><ele>840.4</ele></trkpt>
        <trkpt lat="50.8141994" lon="15.4965859"><ele>841.5</ele></trkpt>
        <trkpt lat="50.8141856" lon="15.4964875"><ele>841.5</ele></trkpt>
        <trkpt lat="50.8141488" lon="15.4962533"><ele>844.7</ele></trkpt>
        <trkpt lat="50.8139383" lon="15.4962654"><ele>849.4</ele></trkpt>
        <trkpt lat="50.8138360" lon="15.4962657"><ele>849.4</ele></trkpt>
        <trkpt lat="50.8136790" lon="15.4963318"><ele>854.5</ele></trkpt>
        <trkpt lat="50.8136055" lon="15.4963814"><ele>854.5</ele></trkpt>
        <trkpt lat="50.8135370" lon="15.4964222"><ele>854.5</ele></trkpt>
        <trkpt lat="50.8134768" lon="15.4964731"><ele>858.4</ele></trkpt>
        <trkpt lat="50.8133474" lon="15.4965422"><ele>858.4</ele></trkpt>
        <trkpt lat="50.8131905" lon="15.4966075"><ele>862.3</ele></trkpt>
        <trkpt lat="50.8130331" lon="15.4966391"><ele>866.3</ele></trkpt>
        <trkpt lat="50.8122801" lon="15.4967322"><ele>876.9</ele></trkpt>
        <trkpt lat="50.8120709" lon="15.4967490"><ele>880.9</ele></trkpt>
        <trkpt lat="50.8119346" lon="15.4967419"><ele>884.7</ele></trkpt>
        <trkpt lat="50.8115592" lon="15.4966135"><ele>889.4</ele></trkpt>
        <trkpt lat="50.8114037" lon="15.4965838"><ele>893.6</ele></trkpt>
        <trkpt lat="50.8112289" lon="15.4966617"><ele>898.9</ele></trkpt>
        <trkpt lat="50.8110562" lon="15.4967904"><ele>903.0</ele></trkpt>
        <trkpt lat="50.8109356" lon="15.4968866"><ele>903.0</ele></trkpt>
        <trkpt lat="50.8107992" lon="15.4969408"><ele>906.1</ele></trkpt>
        <trkpt lat="50.8101431" lon="15.4970479"><ele>915.2</ele></trkpt>
        <trkpt lat="50.8099383" lon="15.4970615"><ele>918.8</ele></trkpt>
        <trkpt lat="50.8097666" lon="15.4970354"><ele>922.5</ele></trkpt>
        <trkpt lat="50.8096589" lon="15.4969902"><ele>922.5</ele></trkpt>
        <trkpt lat="50.8095870" lon="15.4969650"><ele>922.5</ele></trkpt>
        <trkpt lat="50.8095318" lon="15.4969535"><ele>926.0</ele></trkpt>
        <trkpt lat="50.8094558" lon="15.4969585"><ele>926.0</ele></trkpt>
        <trkpt lat="50.8091035" lon="15.4970517"><ele>931.3</ele></trkpt>
        <trkpt lat="50.8090289" lon="15.4970674"><ele>931.3</ele></trkpt>
        <trkpt lat="50.8089541" lon="15.4970597"><ele>931.3</ele></trkpt>
        <trkpt lat="50.8086649" lon="15.4969387"><ele>936.3</ele></trkpt>
        <trkpt lat="50.8084633" lon="15.4968166"><ele>936.3</ele></trkpt>
        <trkpt lat="50.8082079" lon="15.4966153"><ele>941.7</ele></trkpt>
        <trkpt lat="50.8080314" lon="15.4964948"><ele>943.6</ele></trkpt>
        <trkpt lat="50.8078101" lon="15.4963943"><ele>947.2</ele></trkpt>
        <trkpt lat="50.8075077" lon="15.4963218"><ele>950.6</ele></trkpt>
        <trkpt lat="50.8070776" lon="15.4962589"><ele>955.7</ele></trkpt>
        <trkpt lat="50.8069815" lon="15.4962713"><ele>955.7</ele></trkpt>
        <trkpt lat="50.8068712" lon="15.4962856"><ele>960.4</ele></trkpt>
        <trkpt lat="50.8067102" lon="15.4963218"><ele>965.6</ele></trkpt>
        <trkpt lat="50.8065250" lon="15.4963901"><ele>965.6</ele></trkpt>
        <trkpt lat="50.8062958" lon="15.4964961"><ele>970.8</ele></trkpt>
        <trkpt lat="50.8058668" lon="15.4967155"><ele>981.6</ele></trkpt>
        <trkpt lat="50.8057228" lon="15.4967630"><ele>985.9</ele></trkpt>
        <trkpt lat="50.8051876" lon="15.4969506"><ele>997.4</ele></trkpt>
        <trkpt lat="50.8048999" lon="15.4969896"><ele>1000.2</ele></trkpt>
        <trkpt lat="50.8046389" lon="15.4970111"><ele>1002.3</ele></trkpt>
        <trkpt lat="50.8043952" lon="15.4970793"><ele>1005.5</ele></trkpt>
        <trkpt lat="50.8038346" lon="15.4973998"><ele>1017.4</ele></trkpt>
        <trkpt lat="50.8037620" lon="15.4974387"><ele>1017.4</ele></trkpt>
        <trkpt lat="50.8035183" lon="15.4975692"><ele>1020.9</ele></trkpt>
        <trkpt lat="50.8031807" lon="15.4977225"><ele>1027.6</ele></trkpt>
        <trkpt lat="50.8030113" lon="15.4978122"><ele>1029.6</ele></trkpt>
        <trkpt lat="50.8017621" lon="15.4984777"><ele>1044.3</ele></trkpt>
        <trkpt lat="50.8013825" lon="15.4986799"><ele>1052.6</ele></trkpt>
        <trkpt lat="50.8012927" lon="15.4987612"><ele>1057.0</ele></trkpt>
        <trkpt lat="50.8007036" lon="15.4995042"><ele>1072.8</ele></trkpt>
        <trkpt lat="50.8006205" lon="15.4995914"><ele>1078.3</ele></trkpt>
        <trkpt lat="50.8005213" lon="15.4996520"><ele>1078.3</ele></trkpt>
        <trkpt lat="50.8000764" lon="15.4997636"><ele>1086.2</ele></trkpt>
        <trkpt lat="50.7996623" lon="15.4999113"><ele>1092.2</ele></trkpt>
        <trkpt lat="50.7994635" lon="15.5000085"><ele>1094.8</ele></trkpt>
        <trkpt lat="50.7992032" lon="15.5001104"><ele>1097.7</ele></trkpt>
        <trkpt lat="50.7989762" lon="15.5001989"><ele>1101.4</ele></trkpt>
        <trkpt lat="50.7988443" lon="15.5002757"><ele>1106.4</ele></trkpt>
        <trkpt lat="50.7986020" lon="15.5005369"><ele>1112.0</ele></trkpt>
        <trkpt lat="50.7984532" lon="15.5007337"><ele>1118.2</ele></trkpt>
        <trkpt lat="50.7983820" lon="15.5008064"><ele>1118.2</ele></trkpt>
        <trkpt lat="50.7981555" lon="15.5009682"><ele>1124.2</ele></trkpt>
        <trkpt lat="50.7978735" lon="15.5011114"><ele>1133.6</ele></trkpt>
        <trkpt lat="50.7972894" lon="15.5011166"><ele>1139.6</ele></trkpt>
        <trkpt lat="50.7971028" lon="15.5011216"><ele>1143.5</ele></trkpt>
        <trkpt lat="50.7968514" lon="15.5010963"><ele>1147.3</ele></trkpt>
        <trkpt lat="50.7967890" lon="15.5010872"><ele>1147.3</ele></trkpt>
        <trkpt lat="50.7966453" lon="15.5010875"><ele>1150.7</ele></trkpt>
        <trkpt lat="50.7959603" lon="15.5011890"><ele>1161.0</ele></trkpt>
        <trkpt lat="50.7945783" lon="15.5014366"><ele>1189.8</ele></trkpt>
        <trkpt lat="50.7944900" lon="15.5014297"><ele>1195.3</ele></trkpt>
        <trkpt lat="50.7944299" lon="15.5013911"><ele>1195.3</ele></trkpt>
        <trkpt lat="50.7941635" lon="15.5009697"><ele>1199.6</ele></trkpt>
        <trkpt lat="50.7941160" lon="15.5009335"><ele>1199.6</ele></trkpt>
        <trkpt lat="50.7940630" lon="15.5009274"><ele>1199.6</ele></trkpt>
        <trkpt lat="50.7938238" lon="15.5009769"><ele>1203.2</ele></trkpt>
        <trkpt lat="50.7936702" lon="15.5009943"><ele>1207.1</ele></trkpt>
        <trkpt lat="50.7935308" lon="15.5010307"><ele>1211.7</ele></trkpt>
        <trkpt lat="50.7934873" lon="15.5010621"><ele>1211.7</ele></trkpt>
        <trkpt lat="50.7934517" lon="15.5011042"><ele>1211.7</ele></trkpt>
        <trkpt lat="50.7934192" lon="15.5011677"><ele>1211.7</ele></trkpt>
        <trkpt lat="50.7932729" lon="15.5015720"><ele>1215.7</ele></trkpt>
        <trkpt lat="50.7932484" lon="15.5016697"><ele>1219.1</ele></trkpt>
        <trkpt lat="50.7932312" lon="15.5017696"><ele>1219.1</ele></trkpt>
        <trkpt lat="50.7932285" lon="15.5018481"><ele>1219.1</ele></trkpt>
        <trkpt lat="50.7932341" lon="15.5019776"><ele>1221.2</ele></trkpt>
        <trkpt lat="50.7932998" lon="15.5022719"><ele>1223.0</ele></trkpt>
        <trkpt lat="50.7934020" lon="15.5027189"><ele>1224.7</ele></trkpt>
        <trkpt lat="50.7934139" lon="15.5028779"><ele>1224.7</ele></trkpt>
        <trkpt lat="50.7933967" lon="15.5029752"><ele>1228.0</ele></trkpt>
        <trkpt lat="50.7929713" lon="15.5043529"><ele>1249.2</ele></trkpt>
        <trkpt lat="50.7927921" lon="15.5050816"><ele>1257.6</ele></trkpt>
        <trkpt lat="50.7927534" lon="15.5053485"><ele>1260.9</ele></trkpt>
        <trkpt lat="50.7927284" lon="15.5054946"><ele>1260.9</ele></trkpt>
        <trkpt lat="50.7927021" lon="15.5055978"><ele>1265.2</ele></trkpt>
        <trkpt lat="50.7926633" lon="15.5057197"><ele>1265.2</ele></trkpt>
        <trkpt lat="50.7926224" lon="15.5058245"><ele>1265.2</ele></trkpt>
        <trkpt lat="50.7925685" lon="15.5059120"><ele>1270.7</ele></trkpt>
        <trkpt lat="50.7921198" lon="15.5063705"><ele>1280.6</ele></trkpt>
        <trkpt lat="50.7917334" lon="15.5067652"><ele>1289.1</ele></trkpt>
        <trkpt lat="50.7916122" lon="15.5069032"><ele>1292.9</ele></trkpt>
        <trkpt lat="50.7914349" lon="15.5072664"><ele>1296.2</ele></trkpt>
        <trkpt lat="50.7910241" lon="15.5077715"><ele>1302.5</ele></trkpt>
        <trkpt lat="50.7909560" lon="15.5078743"><ele>1304.1</ele></trkpt>
        <trkpt lat="50.7909022" lon="15.5079816"><ele>1304.1</ele></trkpt>
        <trkpt lat="50.7908252" lon="15.5082717"><ele>1304.8</ele></trkpt>
        <trkpt lat="50.7906537" lon="15.5090938"><ele>1311.2</ele></trkpt>
        <trkpt lat="50.7906366" lon="15.5092472"><ele>1311.2</ele></trkpt>
        <trkpt lat="50.7906320" lon="15.5093707"><ele>1311.2</ele></trkpt>
        <trkpt lat="50.7906358" lon="15.5094656"><ele>1312.8</ele></trkpt>
        <trkpt lat="50.7906443" lon="15.5095714"><ele>1312.8</ele></trkpt>
        <trkpt lat="50.7906661" lon="15.5096946"><ele>1312.8</ele></trkpt>
        <trkpt lat="50.7904827" lon="15.5101556"><ele>1315.4</ele></trkpt>
        <trkpt lat="50.7904047" lon="15.5103080"><ele>1315.4</ele></trkpt>
        <trkpt lat="50.7903244" lon="15.5105550"><ele>1315.8</ele></trkpt>
        <trkpt lat="50.7902833" lon="15.5106943"><ele>1316.9</ele></trkpt>
        <trkpt lat="50.7902443" lon="15.5108987"><ele>1316.9</ele></trkpt>
        <trkpt lat="50.7902004" lon="15.5110356"><ele>1317.4</ele></trkpt>
        <trkpt lat="50.7900014" lon="15.5115306"><ele>1317.4</ele></trkpt>
        <trkpt lat="50.7899209" lon="15.5116451"><ele>1317.4</ele></trkpt>
        <trkpt lat="50.7892057" lon="15.5119493"><ele>1314.3</ele></trkpt>
        <trkpt lat="50.7887046" lon="15.5121465"><ele>1312.6</ele></trkpt>
        <trkpt lat="50.7886134" lon="15.5121841"><ele>1310.9</ele></trkpt>
        <trkpt lat="50.7885124" lon="15.5122573"><ele>1310.9</ele></trkpt>
        <trkpt lat="50.7884321" lon="15.5123447"><ele>1308.0</ele></trkpt>
        <trkpt lat="50.7873604" lon="15.5135442"><ele>1297.5</ele></trkpt>
        <trkpt lat="50.7873254" lon="15.5135838"><ele>1294.7</ele></trkpt>
        <trkpt lat="50.7871607" lon="15.5137841"><ele>1292.3</ele></trkpt>
        <trkpt lat="50.7869035" lon="15.5140271"><ele>1290.6</ele></trkpt>
        <trkpt lat="50.7866628" lon="15.5142490"><ele>1289.2</ele></trkpt>
        <trkpt lat="50.7858530" lon="15.5150094"><ele>1286.9</ele></trkpt>
        <trkpt lat="50.7854370" lon="15.5154284"><ele>1291.1</ele></trkpt>
        <trkpt lat="50.7853198" lon="15.5155074"><ele>1291.1</ele></trkpt>
        <trkpt lat="50.7850014" lon="15.5156691"><ele>1296.1</ele></trkpt>
        <trkpt lat="50.7849223" lon="15.5157209"><ele>1296.1</ele></trkpt>
        <trkpt lat="50.7847988" lon="15.5158958"><ele>1299.5</ele></trkpt>
        <trkpt lat="50.7847263" lon="15.5159474"><ele>1299.5</ele></trkpt>
        <trkpt lat="50.7844336" lon="15.5159900"><ele>1302.9</ele></trkpt>
        <trkpt lat="50.7843840" lon="15.5160210"><ele>1305.9</ele></trkpt>
        <trkpt lat="50.7843561" lon="15.5160766"><ele>1305.9</ele></trkpt>
        <trkpt lat="50.7843633" lon="15.5162320"><ele>1305.9</ele></trkpt>
        <trkpt lat="50.7844314" lon="15.5165478"><ele>1308.4</ele></trkpt>
        <trkpt lat="50.7844269" lon="15.5166271"><ele>1308.4</ele></trkpt>
        <trkpt lat="50.7843826" lon="15.5166806"><ele>1310.9</ele></trkpt>
        <trkpt lat="50.7842327" lon="15.5167797"><ele>1310.9</ele></trkpt>
        <trkpt lat="50.7841131" lon="15.5169582"><ele>1314.2</ele></trkpt>
        <trkpt lat="50.7840409" lon="15.5171323"><ele>1316.4</ele></trkpt>
        <trkpt lat="50.7839727" lon="15.5172300"><ele>1316.4</ele></trkpt>
        <trkpt lat="50.7838594" lon="15.5173321"><ele>1319.8</ele></trkpt>
        <trkpt lat="50.7838048" lon="15.5173576"><ele>1319.8</ele></trkpt>
        <trkpt lat="50.7836291" lon="15.5173614"><ele>1323.1</ele></trkpt>
        <trkpt lat="50.7832874" lon="15.5174415"><ele>1326.3</ele></trkpt>
        <trkpt lat="50.7830522" lon="15.5175372"><ele>1329.0</ele></trkpt>
        <trkpt lat="50.7829691" lon="15.5175887"><ele>1330.8</ele></trkpt>
        <trkpt lat="50.7828777" lon="15.5177483"><ele>1330.8</ele></trkpt>
        <trkpt lat="50.7828004" lon="15.5179423"><ele>1332.0</ele></trkpt>
        <trkpt lat="50.7825661" lon="15.5183521"><ele>1335.7</ele></trkpt>
        <trkpt lat="50.7824966" lon="15.5185733"><ele>1335.7</ele></trkpt>
        <trkpt lat="50.7822973" lon="15.5190909"><ele>1338.1</ele></trkpt>
        <trkpt lat="50.7821696" lon="15.5192496"><ele>1339.9</ele></trkpt>
        <trkpt lat="50.7820849" lon="15.5193160"><ele>1339.9</ele></trkpt>
        <trkpt lat="50.7820165" lon="15.5193900"><ele>1339.9</ele></trkpt>
        <trkpt lat="50.7819650" lon="15.5195006"><ele>1342.0</ele></trkpt>
        <trkpt lat="50.7819354" lon="15.5196399"><ele>1342.0</ele></trkpt>
        <trkpt lat="50.7815263" lon="15.5203952"><ele>1347.2</ele></trkpt>
        <trkpt lat="50.7813602" lon="15.5206469"><ele>1349.2</ele></trkpt>
        <trkpt lat="50.7813120" lon="15.5207337"><ele>1349.2</ele></trkpt>
        <trkpt lat="50.7812465" lon="15.5208950"><ele>1351.4</ele></trkpt>
        <trkpt lat="50.7811175" lon="15.5211950"><ele>1352.9</ele></trkpt>
        <trkpt lat="50.7802741" lon="15.5226142"><ele>1361.9</ele></trkpt>
        <trkpt lat="50.7799328" lon="15.5231490"><ele>1369.0</ele></trkpt>
        <trkpt lat="50.7795082" lon="15.5238910"><ele>1372.6</ele></trkpt>
        <trkpt lat="50.7794622" lon="15.5240118"><ele>1374.6</ele></trkpt>
        <trkpt lat="50.7794166" lon="15.5241564"><ele>1374.6</ele></trkpt>
        <trkpt lat="50.7790985" lon="15.5266412"><ele>1380.5</ele></trkpt>
        <trkpt lat="50.7790907" lon="15.5267601"><ele>1382.3</ele></trkpt>
        <trkpt lat="50.7790968" lon="15.5268944"><ele>1382.3</ele></trkpt>
        <trkpt lat="50.7791331" lon="15.5270527"><ele>1383.4</ele></trkpt>
        <trkpt lat="50.7792070" lon="15.5273678"><ele>1383.4</ele></trkpt>
        <trkpt lat="50.7791953" lon="15.5275018"><ele>1385.2</ele></trkpt>
        <trkpt lat="50.7791193" lon="15.5277136"><ele>1387.4</ele></trkpt>
        <trkpt lat="50.7790692" lon="15.5279379"><ele>1387.4</ele></trkpt>
        <trkpt lat="50.7790578" lon="15.5280523"><ele>1389.8</ele></trkpt>
        <trkpt lat="50.7790867" lon="15.5282775"><ele>1389.8</ele></trkpt>
        <trkpt lat="50.7791843" lon="15.5285475"><ele>1391.7</ele></trkpt>
        <trkpt lat="50.7792890" lon="15.5287588"><ele>1394.0</ele></trkpt>
        <trkpt lat="50.7793288" lon="15.5289473"><ele>1394.0</ele></trkpt>
        <trkpt lat="50.7793504" lon="15.5291814"><ele>1396.3</ele></trkpt>
        <trkpt lat="50.7794118" lon="15.5293870"><ele>1398.1</ele></trkpt>
        <trkpt lat="50.7794566" lon="15.5294997"><ele>1398.1</ele></trkpt>
        <trkpt lat="50.7795238" lon="15.5296326"><ele>1399.2</ele></trkpt>
        <trkpt lat="50.7795493" lon="15.5297822"><ele>1399.2</ele></trkpt>
        <trkpt lat="50.7795305" lon="15.5301359"><ele>1401.0</ele></trkpt>
        <trkpt lat="50.7795438" lon="15.5304195"><ele>1401.5</ele></trkpt>
        <trkpt lat="50.7795605" lon="15.5306892"><ele>1401.6</ele></trkpt>
        <trkpt lat="50.7795376" lon="15.5309073"><ele>1401.6</ele></trkpt>
        <trkpt lat="50.7794714" lon="15.5313069"><ele>1401.6</ele></trkpt>
        <trkpt lat="50.7793716" lon="15.5316869"><ele>1401.6</ele></trkpt>
        <trkpt lat="50.7793030" lon="15.5320968"><ele>1402.4</ele></trkpt>
        <trkpt lat="50.7792344" lon="15.5325434"><ele>1403.0</ele></trkpt>
        <trkpt lat="50.7791454" lon="15.5330922"><ele>1403.9</ele></trkpt>
        <trkpt lat="50.7791110" lon="15.5334033"><ele>1403.9</ele></trkpt>
        <trkpt lat="50.7791083" lon="15.5335394"><ele>1404.0</ele></trkpt>
        <trkpt lat="50.7791227" lon="15.5336891"><ele>1404.0</ele></trkpt>
        <trkpt lat="50.7792620" lon="15.5345891"><ele>1404.9</ele></trkpt>
        <trkpt lat="50.7793986" lon="15.5352922"><ele>1406.1</ele></trkpt>
        <trkpt lat="50.7796448" lon="15.5365311"><ele>1408.7</ele></trkpt>
        <trkpt lat="50.7799608" lon="15.5380397"><ele>1414.6</ele></trkpt>
        <trkpt lat="50.7800926" lon="15.5387819"><ele>1418.6</ele></trkpt>
        <trkpt lat="50.7801777" lon="15.5394089"><ele>1422.3</ele></trkpt>
        <trkpt lat="50.7801880" lon="15.5397123"><ele>1423.7</ele></trkpt>
        <trkpt lat="50.7801974" lon="15.5399410"><ele>1425.3</ele></trkpt>
        <trkpt lat="50.7802275" lon="15.5405129"><ele>1427.0</ele></trkpt>
        <trkpt lat="50.7802323" lon="15.5408510"><ele>1428.4</ele></trkpt>
        <trkpt lat="50.7802011" lon="15.5414374"><ele>1430.6</ele></trkpt>
        <trkpt lat="50.7801998" lon="15.5424620"><ele>1434.8</ele></trkpt>
        <trkpt lat="50.7802241" lon="15.5427771"><ele>1436.5</ele></trkpt>
        <trkpt lat="50.7802250" lon="15.5428846"><ele>1436.5</ele></trkpt>
        <trkpt lat="50.7802043" lon="15.5430082"><ele>1436.5</ele></trkpt>
        <trkpt lat="50.7800464" lon="15.5434667"><ele>1437.6</ele></trkpt>
        <trkpt lat="50.7800273" lon="15.5437011"><ele>1437.6</ele></trkpt>
        <trkpt lat="50.7800257" lon="15.5438767"><ele>1439.8</ele></trkpt>
        <trkpt lat="50.7799636" lon="15.5444917"><ele>1444.9</ele></trkpt>
        <trkpt lat="50.7798980" lon="15.5450384"><ele>1446.6</ele></trkpt>
        <trkpt lat="50.7798975" lon="15.5451109"><ele>1446.6</ele></trkpt>
        <trkpt lat="50.7799098" lon="15.5451865"><ele>1448.7</ele></trkpt>
        <trkpt lat="50.7799560" lon="15.5453654"><ele>1448.7</ele></trkpt>
        <trkpt lat="50.7799691" lon="15.5455661"><ele>1449.6</ele></trkpt>
        <trkpt lat="50.7800249" lon="15.5457954"><ele>1449.6</ele></trkpt>
        <trkpt lat="50.7800433" lon="15.5459395"><ele>1449.6</ele></trkpt>
        <trkpt lat="50.7800443" lon="15.5462033"><ele>1449.6</ele></trkpt>
        <trkpt lat="50.7800295" lon="15.5468391"><ele>1448.3</ele></trkpt>
        <trkpt lat="50.7800175" lon="15.5471240"><ele>1446.7</ele></trkpt>
        <trkpt lat="50.7799827" lon="15.5476016"><ele>1445.4</ele></trkpt>
        <trkpt lat="50.7799791" lon="15.5477058"><ele>1445.4</ele></trkpt>
        <trkpt lat="50.7799456" lon="15.5481939"><ele>1445.4</ele></trkpt>
        <trkpt lat="50.7799119" lon="15.5489093"><ele>1447.4</ele></trkpt>
        <trkpt lat="50.7798895" lon="15.5491776"><ele>1449.6</ele></trkpt>
        <trkpt lat="50.7798019" lon="15.5497443"><ele>1452.7</ele></trkpt>
        <trkpt lat="50.7797970" lon="15.5499937"><ele>1452.7</ele></trkpt>
        <trkpt lat="50.7798093" lon="15.5506993"><ele>1458.1</ele></trkpt>
        <trkpt lat="50.7798198" lon="15.5515195"><ele>1466.7</ele></trkpt>
        <trkpt lat="50.7797572" lon="15.5519913"><ele>1469.6</ele></trkpt>
        <trkpt lat="50.7797413" lon="15.5521517"><ele>1469.6</ele></trkpt>
        <trkpt lat="50.7797285" lon="15.5525928"><ele>1475.1</ele></trkpt>
        <trkpt lat="50.7797217" lon="15.5530609"><ele>1478.2</ele></trkpt>
        <trkpt lat="50.7797056" lon="15.5534872"><ele>1480.9</ele></trkpt>
        <trkpt lat="50.7796551" lon="15.5538517"><ele>1482.7</ele></trkpt>
        <trkpt lat="50.7794159" lon="15.5550240"><ele>1485.7</ele></trkpt>
        <trkpt lat="50.7790903" lon="15.5566067"><ele>1490.8</ele></trkpt>
        <trkpt lat="50.7790314" lon="15.5567994"><ele>1490.8</ele></trkpt>
        <trkpt lat="50.7789185" lon="15.5569450"><ele>1490.8</ele></trkpt>
        <trkpt lat="50.7787931" lon="15.5570751"><ele>1490.8</ele></trkpt>
        <trkpt lat="50.7786628" lon="15.5571605"><ele>1489.4</ele></trkpt>
        <trkpt lat="50.7786439" lon="15.5571810"><ele>1489.4</ele></trkpt>
        <trkpt lat="50.7786193" lon="15.5572464"><ele>1489.4</ele></trkpt>
        <trkpt lat="50.7786217" lon="15.5573233"><ele>1489.4</ele></trkpt>
        <trkpt lat="50.7786459" lon="15.5574082"><ele>1485.3</ele></trkpt>
        <trkpt lat="50.7787121" lon="15.5575749"><ele>1485.3</ele></trkpt>
        <trkpt lat="50.7787060" lon="15.5576036"><ele>1485.3</ele></trkpt>
        <trkpt lat="50.7786945" lon="15.5576573"><ele>1485.3</ele></trkpt>
        <trkpt lat="50.7786586" lon="15.5578249"><ele>1478.4</ele></trkpt>
        <trkpt lat="50.7785996" lon="15.5578429"><ele>1478.4</ele></trkpt>
        <trkpt lat="50.7785306" lon="15.5578487"><ele>1478.4</ele></trkpt>
        <trkpt lat="50.7784423" lon="15.5578588"><ele>1478.4</ele></trkpt>
        <trkpt lat="50.7781759" lon="15.5578935"><ele>1478.4</ele></trkpt>
        <trkpt lat="50.7781045" lon="15.5578957"><ele>1478.4</ele></trkpt>
        <trkpt lat="50.7780256" lon="15.5578253"><ele>1480.5</ele></trkpt>
        <trkpt lat="50.7779206" lon="15.5578285"><ele>1480.5</ele></trkpt>
        <trkpt lat="50.7778150" lon="15.5578317"><ele>1480.5</ele></trkpt>
        <trkpt lat="50.7774663" lon="15.5581604"><ele>1479.2</ele></trkpt>
        <trkpt lat="50.7772926" lon="15.5583358"><ele>1479.2</ele></trkpt>
        <trkpt lat="50.7771189" lon="15.5585189"><ele>1477.6</ele></trkpt>
        <trkpt lat="50.7768935" lon="15.5587936"><ele>1476.7</ele></trkpt>
        <trkpt lat="50.7768700" lon="15.5588403"><ele>1476.7</ele></trkpt>
        <trkpt lat="50.7767940" lon="15.5591828"><ele>1476.7</ele></trkpt>
        <trkpt lat="50.7767786" lon="15.5592769"><ele>1476.7</ele></trkpt>
        <trkpt lat="50.7767438" lon="15.5594894"><ele>1476.7</ele></trkpt>
        <trkpt lat="50.7767073" lon="15.5599418"><ele>1478.9</ele></trkpt>
        <trkpt lat="50.7767037" lon="15.5601580"><ele>1481.9</ele></trkpt>
        <trkpt lat="50.7767183" lon="15.5602586"><ele>1481.9</ele></trkpt>
        <trkpt lat="50.7769855" lon="15.5613616"><ele>1484.8</ele></trkpt>
        <trkpt lat="50.7770080" lon="15.5614908"><ele>1484.9</ele></trkpt>
        <trkpt lat="50.7770102" lon="15.5615355"><ele>1484.9</ele></trkpt>
        <trkpt lat="50.7768951" lon="15.5618536"><ele>1485.4</ele></trkpt>
        <trkpt lat="50.7766569" lon="15.5625390"><ele>1486.0</ele></trkpt>
        <trkpt lat="50.7766495" lon="15.5625789"><ele>1486.0</ele></trkpt>
        <trkpt lat="50.7766508" lon="15.5626198"><ele>1486.0</ele></trkpt>
        <trkpt lat="50.7766635" lon="15.5626380"><ele>1486.0</ele></trkpt>
        <trkpt lat="50.7768670" lon="15.5629286"><ele>1484.9</ele></trkpt>
        <trkpt lat="50.7770869" lon="15.5632569"><ele>1483.7</ele></trkpt>
        <trkpt lat="50.7771506" lon="15.5633564"><ele>1483.7</ele></trkpt>
        <trkpt lat="50.7775108" lon="15.5641196"><ele>1482.2</ele></trkpt>
        <trkpt lat="50.7778761" lon="15.5648967"><ele>1480.3</ele></trkpt>
        <trkpt lat="50.7779052" lon="15.5650411"><ele>1480.3</ele></trkpt>
        <trkpt lat="50.7779351" lon="15.5653349"><ele>1479.9</ele></trkpt>
        <trkpt lat="50.7779880" lon="15.5656126"><ele>1479.2</ele></trkpt>
        <trkpt lat="50.7780176" lon="15.5657437"><ele>1479.2</ele></trkpt>
        <trkpt lat="50.7780434" lon="15.5658362"><ele>1479.2</ele></trkpt>
        <trkpt lat="50.7781069" lon="15.5660817"><ele>1477.3</ele></trkpt>
        <trkpt lat="50.7781290" lon="15.5661811"><ele>1477.3</ele></trkpt>
        <trkpt lat="50.7782030" lon="15.5664528"><ele>1473.2</ele></trkpt>
        <trkpt lat="50.7782669" lon="15.5667594"><ele>1468.0</ele></trkpt>
        <trkpt lat="50.7783119" lon="15.5671369"><ele>1462.7</ele></trkpt>
        <trkpt lat="50.7783834" lon="15.5676101"><ele>1452.1</ele></trkpt>
        <trkpt lat="50.7784142" lon="15.5677708"><ele>1452.1</ele></trkpt>
        <trkpt lat="50.7784345" lon="15.5678711"><ele>1452.1</ele></trkpt>
        <trkpt lat="50.7784561" lon="15.5680092"><ele>1446.8</ele></trkpt>
        <trkpt lat="50.7785072" lon="15.5681575"><ele>1446.8</ele></trkpt>
        <trkpt lat="50.7785442" lon="15.5682715"><ele>1440.5</ele></trkpt>
        <trkpt lat="50.7785553" lon="15.5683357"><ele>1440.5</ele></trkpt>
        <trkpt lat="50.7785596" lon="15.5684205"><ele>1440.5</ele></trkpt>
        <trkpt lat="50.7785712" lon="15.5684948"><ele>1440.5</ele></trkpt>
        <trkpt lat="50.7785990" lon="15.5685715"><ele>1432.7</ele></trkpt>
        <trkpt lat="50.7786301" lon="15.5686301"><ele>1432.7</ele></trkpt>
        <trkpt lat="50.7786711" lon="15.5687575"><ele>1432.7</ele></trkpt>
        <trkpt lat="50.7786828" lon="15.5688131"><ele>1432.7</ele></trkpt>
        <trkpt lat="50.7786889" lon="15.5688958"><ele>1427.2</ele></trkpt>
        <trkpt lat="50.7786945" lon="15.5689660"><ele>1427.2</ele></trkpt>
        <trkpt lat="50.7787031" lon="15.5690390"><ele>1427.2</ele></trkpt>
        <trkpt lat="50.7786976" lon="15.5691170"><ele>1427.2</ele></trkpt>
        <trkpt lat="50.7786744" lon="15.5692603"><ele>1423.6</ele></trkpt>
        <trkpt lat="50.7786741" lon="15.5693391"><ele>1423.6</ele></trkpt>
        <trkpt lat="50.7786876" lon="15.5694012"><ele>1423.6</ele></trkpt>
        <trkpt lat="50.7787142" lon="15.5694891"><ele>1423.6</ele></trkpt>
        <trkpt lat="50.7787228" lon="15.5695602"><ele>1423.6</ele></trkpt>
        <trkpt lat="50.7787166" lon="15.5697189"><ele>1417.3</ele></trkpt>
        <trkpt lat="50.7786971" lon="15.5700274"><ele>1413.0</ele></trkpt>
        <trkpt lat="50.7786772" lon="15.5701417"><ele>1413.0</ele></trkpt>
        <trkpt lat="50.7786507" lon="15.5702557"><ele>1413.0</ele></trkpt>
        <trkpt lat="50.7786314" lon="15.5703422"><ele>1409.3</ele></trkpt>
        <trkpt lat="50.7786243" lon="15.5704398"><ele>1409.3</ele></trkpt>
        <trkpt lat="50.7786218" lon="15.5705479"><ele>1409.3</ele></trkpt>
        <trkpt lat="50.7786162" lon="15.5706404"><ele>1405.5</ele></trkpt>
        <trkpt lat="50.7786202" lon="15.5707293"><ele>1405.5</ele></trkpt>
        <trkpt lat="50.7786181" lon="15.5707856"><ele>1405.5</ele></trkpt>
        <trkpt lat="50.7786055" lon="15.5709119"><ele>1405.5</ele></trkpt>
        <trkpt lat="50.7786561" lon="15.5713478"><ele>1397.3</ele></trkpt>
        <trkpt lat="50.7786599" lon="15.5713807"><ele>1397.3</ele></trkpt>
        <trkpt lat="50.7785675" lon="15.5716972"><ele>1396.6</ele></trkpt>
        <trkpt lat="50.7785115" lon="15.5719360"><ele>1396.6</ele></trkpt>
        <trkpt lat="50.7784826" lon="15.5720772"><ele>1395.0</ele></trkpt>
        <trkpt lat="50.7784296" lon="15.5723392"><ele>1393.5</ele></trkpt>
        <trkpt lat="50.7783705" lon="15.5726811"><ele>1392.1</ele></trkpt>
        <trkpt lat="50.7783576" lon="15.5727649"><ele>1392.1</ele></trkpt>
        <trkpt lat="50.7783508" lon="15.5728487"><ele>1392.1</ele></trkpt>
        <trkpt lat="50.7783409" lon="15.5729286"><ele>1392.1</ele></trkpt>
        <trkpt lat="50.7783391" lon="15.5729714"><ele>1392.1</ele></trkpt>
        <trkpt lat="50.7783237" lon="15.5730396"><ele>1390.9</ele></trkpt>
        <trkpt lat="50.7783089" lon="15.5731059"><ele>1390.9</ele></trkpt>
        <trkpt lat="50.7783021" lon="15.5731896"><ele>1390.9</ele></trkpt>
        <trkpt lat="50.7783107" lon="15.5732773"><ele>1390.9</ele></trkpt>
        <trkpt lat="50.7783073" lon="15.5733202"><ele>1390.9</ele></trkpt>
        <trkpt lat="50.7782784" lon="15.5734126"><ele>1389.8</ele></trkpt>
        <trkpt lat="50.7782680" lon="15.5734829"><ele>1389.8</ele></trkpt>
        <trkpt lat="50.7782638" lon="15.5735535"><ele>1389.8</ele></trkpt>
        <trkpt lat="50.7782399" lon="15.5736804"><ele>1389.8</ele></trkpt>
        <trkpt lat="50.7782181" lon="15.5739467"><ele>1389.8</ele></trkpt>
        <trkpt lat="50.7782255" lon="15.5739938"><ele>1389.8</ele></trkpt>
        <trkpt lat="50.7782211" lon="15.5740486"><ele>1389.8</ele></trkpt>
        <trkpt lat="50.7782000" lon="15.5741097"><ele>1389.8</ele></trkpt>
        <trkpt lat="50.7781525" lon="15.5745467"><ele>1389.8</ele></trkpt>
        <trkpt lat="50.7780884" lon="15.5751047"><ele>1390.4</ele></trkpt>
        <trkpt lat="50.7780527" lon="15.5753572"><ele>1390.4</ele></trkpt>
        <trkpt lat="50.7787302" lon="15.5779130"><ele>1401.6</ele></trkpt>
        <trkpt lat="50.7788802" lon="15.5785022"><ele>1403.1</ele></trkpt>
        <trkpt lat="50.7789224" lon="15.5786796"><ele>1403.1</ele></trkpt>
        <trkpt lat="50.7789380" lon="15.5788064"><ele>1403.1</ele></trkpt>
        <trkpt lat="50.7789462" lon="15.5788836"><ele>1403.1</ele></trkpt>
        <trkpt lat="50.7789371" lon="15.5789640"><ele>1403.1</ele></trkpt>
        <trkpt lat="50.7788891" lon="15.5793663"><ele>1400.5</ele></trkpt>
        <trkpt lat="50.7788799" lon="15.5794082"><ele>1395.0</ele></trkpt>
        <trkpt lat="50.7788460" lon="15.5794491"><ele>1395.0</ele></trkpt>
        <trkpt lat="50.7788170" lon="15.5794774"><ele>1395.0</ele></trkpt>
        <trkpt lat="50.7787961" lon="15.5794851"><ele>1395.0</ele></trkpt>
        <trkpt lat="50.7787345" lon="15.5795056"><ele>1395.0</ele></trkpt>
        <trkpt lat="50.7787111" lon="15.5795192"><ele>1395.0</ele></trkpt>
        <trkpt lat="50.7786926" lon="15.5795485"><ele>1395.0</ele></trkpt>
        <trkpt lat="50.7786846" lon="15.5795865"><ele>1395.0</ele></trkpt>
        <trkpt lat="50.7786889" lon="15.5796205"><ele>1389.8</ele></trkpt>
        <trkpt lat="50.7786969" lon="15.5796537"><ele>1389.8</ele></trkpt>
        <trkpt lat="50.7787129" lon="15.5797150"><ele>1389.8</ele></trkpt>
        <trkpt lat="50.7787394" lon="15.5798222"><ele>1389.8</ele></trkpt>
        <trkpt lat="50.7787419" lon="15.5798563"><ele>1389.8</ele></trkpt>
        <trkpt lat="50.7787346" lon="15.5799072"><ele>1385.8</ele></trkpt>
        <trkpt lat="50.7787216" lon="15.5799254"><ele>1385.8</ele></trkpt>
        <trkpt lat="50.7787031" lon="15.5799381"><ele>1385.8</ele></trkpt>
        <trkpt lat="50.7786551" lon="15.5799605"><ele>1385.8</ele></trkpt>
        <trkpt lat="50.7785565" lon="15.5800082"><ele>1385.8</ele></trkpt>
        <trkpt lat="50.7785331" lon="15.5800355"><ele>1385.8</ele></trkpt>
        <trkpt lat="50.7785290" lon="15.5800766"><ele>1381.9</ele></trkpt>
        <trkpt lat="50.7785319" lon="15.5801095"><ele>1381.9</ele></trkpt>
        <trkpt lat="50.7785423" lon="15.5801729"><ele>1381.9</ele></trkpt>
        <trkpt lat="50.7785861" lon="15.5804544"><ele>1377.3</ele></trkpt>
        <trkpt lat="50.7785879" lon="15.5805381"><ele>1377.3</ele></trkpt>
        <trkpt lat="50.7785843" lon="15.5806125"><ele>1377.3</ele></trkpt>
        <trkpt lat="50.7785720" lon="15.5807277"><ele>1377.3</ele></trkpt>
        <trkpt lat="50.7785091" lon="15.5810174"><ele>1372.9</ele></trkpt>
        <trkpt lat="50.7784721" lon="15.5811538"><ele>1368.3</ele></trkpt>
        <trkpt lat="50.7784444" lon="15.5812229"><ele>1368.3</ele></trkpt>
        <trkpt lat="50.7784044" lon="15.5812940"><ele>1368.3</ele></trkpt>
        <trkpt lat="50.7783600" lon="15.5813476"><ele>1368.3</ele></trkpt>
        <trkpt lat="50.7783046" lon="15.5814207"><ele>1364.4</ele></trkpt>
        <trkpt lat="50.7782941" lon="15.5814450"><ele>1364.4</ele></trkpt>
        <trkpt lat="50.7783034" lon="15.5814927"><ele>1364.4</ele></trkpt>
        <trkpt lat="50.7783231" lon="15.5815414"><ele>1364.4</ele></trkpt>
        <trkpt lat="50.7783730" lon="15.5816311"><ele>1360.4</ele></trkpt>
        <trkpt lat="50.7784185" lon="15.5816798"><ele>1360.4</ele></trkpt>
        <trkpt lat="50.7784660" lon="15.5817431"><ele>1360.4</ele></trkpt>
        <trkpt lat="50.7784820" lon="15.5818035"><ele>1360.4</ele></trkpt>
        <trkpt lat="50.7785005" lon="15.5818814"><ele>1360.4</ele></trkpt>
        <trkpt lat="50.7785071" lon="15.5819817"><ele>1355.8</ele></trkpt>
        <trkpt lat="50.7785064" lon="15.5820782"><ele>1355.8</ele></trkpt>
        <trkpt lat="50.7784947" lon="15.5823287"><ele>1352.2</ele></trkpt>
        <trkpt lat="50.7784998" lon="15.5824772"><ele>1352.2</ele></trkpt>
        <trkpt lat="50.7785168" lon="15.5825856"><ele>1352.2</ele></trkpt>
        <trkpt lat="50.7785475" lon="15.5827419"><ele>1349.9</ele></trkpt>
        <trkpt lat="50.7785458" lon="15.5828156"><ele>1349.9</ele></trkpt>
        <trkpt lat="50.7785365" lon="15.5828746"><ele>1349.9</ele></trkpt>
        <trkpt lat="50.7785314" lon="15.5829263"><ele>1349.9</ele></trkpt>
        <trkpt lat="50.7785479" lon="15.5829880"><ele>1348.6</ele></trkpt>
        <trkpt lat="50.7785676" lon="15.5831107"><ele>1348.6</ele></trkpt>
        <trkpt lat="50.7785848" lon="15.5832821"><ele>1348.6</ele></trkpt>
        <trkpt lat="50.7785996" lon="15.5836254"><ele>1347.1</ele></trkpt>
        <trkpt lat="50.7786168" lon="15.5839042"><ele>1347.1</ele></trkpt>
        <trkpt lat="50.7786267" lon="15.5844491"><ele>1347.4</ele></trkpt>
        <trkpt lat="50.7786264" lon="15.5850419"><ele>1348.5</ele></trkpt>
        <trkpt lat="50.7786366" lon="15.5853706"><ele>1349.9</ele></trkpt>
        <trkpt lat="50.7786156" lon="15.5855323"><ele>1351.2</ele></trkpt>
        <trkpt lat="50.7786110" lon="15.5856288"><ele>1351.2</ele></trkpt>
        <trkpt lat="50.7785861" lon="15.5858713"><ele>1353.6</ele></trkpt>
        <trkpt lat="50.7785627" lon="15.5861148"><ele>1353.6</ele></trkpt>
        <trkpt lat="50.7785479" lon="15.5862083"><ele>1356.5</ele></trkpt>
        <trkpt lat="50.7785655" lon="15.5863972"><ele>1356.5</ele></trkpt>
        <trkpt lat="50.7785750" lon="15.5864732"><ele>1360.6</ele></trkpt>
        <trkpt lat="50.7785675" lon="15.5865417"><ele>1360.6</ele></trkpt>
        <trkpt lat="50.7785257" lon="15.5866272"><ele>1360.6</ele></trkpt>
        <trkpt lat="50.7785109" lon="15.5866856"><ele>1360.6</ele></trkpt>
        <trkpt lat="50.7785109" lon="15.5868044"><ele>1365.4</ele></trkpt>
        <trkpt lat="50.7785324" lon="15.5868979"><ele>1365.4</ele></trkpt>
        <trkpt lat="50.7785493" lon="15.5869185"><ele>1365.4</ele></trkpt>
        <trkpt lat="50.7785598" lon="15.5869496"><ele>1365.4</ele></trkpt>
        <trkpt lat="50.7785331" lon="15.5869700"><ele>1365.4</ele></trkpt>
        <trkpt lat="50.7785109" lon="15.5870031"><ele>1365.4</ele></trkpt>
        <trkpt lat="50.7784912" lon="15.5871220"><ele>1369.1</ele></trkpt>
        <trkpt lat="50.7784678" lon="15.5871726"><ele>1369.1</ele></trkpt>
        <trkpt lat="50.7783840" lon="15.5872817"><ele>1369.1</ele></trkpt>
        <trkpt lat="50.7783569" lon="15.5873343"><ele>1369.1</ele></trkpt>
        <trkpt lat="50.7782966" lon="15.5875857"><ele>1373.0</ele></trkpt>
        <trkpt lat="50.7782941" lon="15.5877551"><ele>1378.7</ele></trkpt>
        <trkpt lat="50.7782892" lon="15.5878428"><ele>1378.7</ele></trkpt>
        <trkpt lat="50.7782670" lon="15.5879324"><ele>1378.7</ele></trkpt>
        <trkpt lat="50.7782453" lon="15.5880423"><ele>1384.5</ele></trkpt>
        <trkpt lat="50.7782334" lon="15.5881175"><ele>1384.5</ele></trkpt>
        <trkpt lat="50.7781968" lon="15.5881876"><ele>1384.5</ele></trkpt>
        <trkpt lat="50.7781499" lon="15.5882313"><ele>1384.5</ele></trkpt>
        <trkpt lat="50.7780810" lon="15.5882695"><ele>1387.5</ele></trkpt>
        <trkpt lat="50.7780317" lon="15.5883240"><ele>1387.5</ele></trkpt>
        <trkpt lat="50.7779714" lon="15.5884506"><ele>1387.5</ele></trkpt>
        <trkpt lat="50.7779577" lon="15.5885375"><ele>1391.8</ele></trkpt>
        <trkpt lat="50.7779561" lon="15.5885840"><ele>1391.8</ele></trkpt>
        <trkpt lat="50.7779590" lon="15.5886630"><ele>1391.8</ele></trkpt>
        <trkpt lat="50.7778864" lon="15.5888461"><ele>1391.8</ele></trkpt>
        <trkpt lat="50.7778654" lon="15.5889299"><ele>1395.2</ele></trkpt>
        <trkpt lat="50.7778248" lon="15.5890663"><ele>1395.2</ele></trkpt>
        <trkpt lat="50.7777632" lon="15.5891812"><ele>1397.7</ele></trkpt>
        <trkpt lat="50.7776986" lon="15.5893021"><ele>1397.7</ele></trkpt>
        <trkpt lat="50.7776018" lon="15.5894793"><ele>1399.0</ele></trkpt>
        <trkpt lat="50.7774380" lon="15.5898241"><ele>1400.0</ele></trkpt>
        <trkpt lat="50.7772643" lon="15.5902313"><ele>1400.5</ele></trkpt>
        <trkpt lat="50.7771780" lon="15.5904553"><ele>1400.8</ele></trkpt>
        <trkpt lat="50.7771114" lon="15.5906363"><ele>1401.2</ele></trkpt>
        <trkpt lat="50.7771046" lon="15.5906993"><ele>1401.2</ele></trkpt>
        <trkpt lat="50.7771103" lon="15.5907592"><ele>1401.2</ele></trkpt>
        <trkpt lat="50.7771670" lon="15.5908622"><ele>1401.2</ele></trkpt>
        <trkpt lat="50.7771777" lon="15.5909211"><ele>1401.2</ele></trkpt>
        <trkpt lat="50.7771529" lon="15.5910949"><ele>1401.2</ele></trkpt>
        <trkpt lat="50.7770019" lon="15.5914937"><ele>1401.2</ele></trkpt>
        <trkpt lat="50.7769612" lon="15.5915911"><ele>1401.2</ele></trkpt>
        <trkpt lat="50.7769267" lon="15.5917002"><ele>1401.2</ele></trkpt>
        <trkpt lat="50.7769181" lon="15.5918054"><ele>1401.2</ele></trkpt>
        <trkpt lat="50.7769307" lon="15.5925152"><ele>1402.2</ele></trkpt>
        <trkpt lat="50.7769255" lon="15.5930191"><ele>1406.3</ele></trkpt>
        <trkpt lat="50.7769378" lon="15.5936542"><ele>1406.3</ele></trkpt>
        <trkpt lat="50.7769390" lon="15.5937731"><ele>1406.3</ele></trkpt>
        <trkpt lat="50.7768996" lon="15.5938627"><ele>1406.3</ele></trkpt>
        <trkpt lat="50.7768466" lon="15.5939718"><ele>1405.0</ele></trkpt>
        <trkpt lat="50.7768097" lon="15.5940614"><ele>1405.0</ele></trkpt>
        <trkpt lat="50.7767912" lon="15.5941666"><ele>1405.0</ele></trkpt>
        <trkpt lat="50.7767764" lon="15.5943458"><ele>1402.4</ele></trkpt>
        <trkpt lat="50.7767555" lon="15.5945231"><ele>1402.4</ele></trkpt>
        <trkpt lat="50.7767444" lon="15.5946517"><ele>1400.1</ele></trkpt>
        <trkpt lat="50.7767530" lon="15.5947335"><ele>1400.1</ele></trkpt>
        <trkpt lat="50.7767727" lon="15.5948504"><ele>1400.1</ele></trkpt>
        <trkpt lat="50.7768121" lon="15.5950062"><ele>1399.4</ele></trkpt>
        <trkpt lat="50.7768516" lon="15.5951894"><ele>1399.4</ele></trkpt>
        <trkpt lat="50.7769550" lon="15.5956414"><ele>1398.4</ele></trkpt>
        <trkpt lat="50.7769723" lon="15.5957310"><ele>1397.9</ele></trkpt>
        <trkpt lat="50.7769760" lon="15.5958673"><ele>1397.9</ele></trkpt>
        <trkpt lat="50.7769858" lon="15.5965005"><ele>1395.5</ele></trkpt>
        <trkpt lat="50.7769836" lon="15.5972076"><ele>1394.1</ele></trkpt>
        <trkpt lat="50.7769612" lon="15.5977123"><ele>1393.8</ele></trkpt>
        <trkpt lat="50.7769394" lon="15.5983499"><ele>1392.9</ele></trkpt>
        <trkpt lat="50.7769156" lon="15.5988149"><ele>1392.9</ele></trkpt>
        <trkpt lat="50.7768971" lon="15.5990623"><ele>1393.2</ele></trkpt>
        <trkpt lat="50.7768787" lon="15.5993663"><ele>1394.4</ele></trkpt>
        <trkpt lat="50.7768896" lon="15.5996928"><ele>1396.1</ele></trkpt>
        <trkpt lat="50.7768725" lon="15.5999566"><ele>1397.6</ele></trkpt>
        <trkpt lat="50.7768790" lon="15.6001474"><ele>1397.6</ele></trkpt>
        <trkpt lat="50.7768951" lon="15.6003928"><ele>1399.3</ele></trkpt>
        <trkpt lat="50.7768885" lon="15.6004865"><ele>1399.3</ele></trkpt>
        <trkpt lat="50.7768762" lon="15.6005527"><ele>1399.3</ele></trkpt>
        <trkpt lat="50.7768643" lon="15.6006869"><ele>1401.4</ele></trkpt>
        <trkpt lat="50.7768466" lon="15.6010962"><ele>1403.3</ele></trkpt>
        <trkpt lat="50.7768188" lon="15.6013374"><ele>1403.3</ele></trkpt>
        <trkpt lat="50.7767821" lon="15.6014556"><ele>1403.3</ele></trkpt>
        <trkpt lat="50.7767422" lon="15.6015233"><ele>1403.3</ele></trkpt>
        <trkpt lat="50.7767189" lon="15.6016057"><ele>1403.3</ele></trkpt>
        <trkpt lat="50.7766959" lon="15.6017169"><ele>1403.3</ele></trkpt>
        <trkpt lat="50.7766347" lon="15.6020080"><ele>1402.0</ele></trkpt>
        <trkpt lat="50.7765978" lon="15.6021171"><ele>1402.0</ele></trkpt>
        <trkpt lat="50.7764352" lon="15.6023431"><ele>1400.4</ele></trkpt>
        <trkpt lat="50.7763674" lon="15.6024171"><ele>1400.4</ele></trkpt>
        <trkpt lat="50.7762775" lon="15.6025613"><ele>1398.2</ele></trkpt>
        <trkpt lat="50.7762331" lon="15.6026236"><ele>1398.2</ele></trkpt>
        <trkpt lat="50.7761950" lon="15.6026470"><ele>1398.2</ele></trkpt>
        <trkpt lat="50.7760718" lon="15.6026957"><ele>1395.9</ele></trkpt>
        <trkpt lat="50.7759362" lon="15.6027463"><ele>1393.3</ele></trkpt>
        <trkpt lat="50.7758217" lon="15.6027483"><ele>1393.3</ele></trkpt>
        <trkpt lat="50.7757872" lon="15.6027814"><ele>1393.3</ele></trkpt>
        <trkpt lat="50.7757712" lon="15.6028476"><ele>1393.3</ele></trkpt>
        <trkpt lat="50.7757699" lon="15.6030775"><ele>1389.9</ele></trkpt>
        <trkpt lat="50.7757749" lon="15.6034828"><ele>1387.5</ele></trkpt>
        <trkpt lat="50.7757638" lon="15.6036211"><ele>1384.1</ele></trkpt>
        <trkpt lat="50.7757465" lon="15.6037458"><ele>1384.1</ele></trkpt>
        <trkpt lat="50.7757441" lon="15.6038334"><ele>1384.1</ele></trkpt>
        <trkpt lat="50.7757576" lon="15.6039328"><ele>1384.1</ele></trkpt>
        <trkpt lat="50.7758608" lon="15.6043293"><ele>1375.2</ele></trkpt>
        <trkpt lat="50.7758596" lon="15.6044125"><ele>1375.2</ele></trkpt>
        <trkpt lat="50.7758402" lon="15.6044822"><ele>1375.2</ele></trkpt>
        <trkpt lat="50.7757921" lon="15.6045942"><ele>1375.2</ele></trkpt>
        <trkpt lat="50.7757539" lon="15.6047335"><ele>1370.5</ele></trkpt>
        <trkpt lat="50.7757465" lon="15.6048796"><ele>1370.5</ele></trkpt>
        <trkpt lat="50.7757330" lon="15.6049731"><ele>1366.0</ele></trkpt>
        <trkpt lat="50.7756972" lon="15.6050900"><ele>1366.0</ele></trkpt>
        <trkpt lat="50.7756615" lon="15.6051504"><ele>1366.0</ele></trkpt>
        <trkpt lat="50.7755026" lon="15.6052946"><ele>1362.1</ele></trkpt>
        <trkpt lat="50.7754311" lon="15.6053842"><ele>1362.1</ele></trkpt>
        <trkpt lat="50.7753856" lon="15.6054621"><ele>1357.9</ele></trkpt>
        <trkpt lat="50.7753659" lon="15.6055283"><ele>1357.9</ele></trkpt>
        <trkpt lat="50.7753622" lon="15.6056082"><ele>1357.9</ele></trkpt>
        <trkpt lat="50.7754059" lon="15.6057901"><ele>1353.5</ele></trkpt>
        <trkpt lat="50.7755420" lon="15.6062277"><ele>1349.7</ele></trkpt>
        <trkpt lat="50.7755580" lon="15.6063290"><ele>1349.7</ele></trkpt>
        <trkpt lat="50.7755396" lon="15.6064206"><ele>1346.1</ele></trkpt>
        <trkpt lat="50.7755088" lon="15.6065589"><ele>1346.1</ele></trkpt>
        <trkpt lat="50.7754817" lon="15.6067226"><ele>1342.6</ele></trkpt>
        <trkpt lat="50.7754521" lon="15.6068219"><ele>1342.6</ele></trkpt>
        <trkpt lat="50.7754114" lon="15.6069037"><ele>1342.6</ele></trkpt>
        <trkpt lat="50.7753375" lon="15.6071512"><ele>1338.5</ele></trkpt>
        <trkpt lat="50.7750914" lon="15.6079065"><ele>1331.9</ele></trkpt>
        <trkpt lat="50.7750172" lon="15.6080941"><ele>1329.3</ele></trkpt>
        <trkpt lat="50.7749070" lon="15.6083045"><ele>1327.3</ele></trkpt>
        <trkpt lat="50.7746661" lon="15.6088675"><ele>1321.5</ele></trkpt>
        <trkpt lat="50.7746001" lon="15.6090775"><ele>1321.5</ele></trkpt>
        <trkpt lat="50.7744764" lon="15.6097344"><ele>1317.0</ele></trkpt>
        <trkpt lat="50.7744388" lon="15.6099243"><ele>1315.4</ele></trkpt>
        <trkpt lat="50.7743804" lon="15.6101192"><ele>1315.4</ele></trkpt>
        <trkpt lat="50.7743150" lon="15.6102332"><ele>1313.1</ele></trkpt>
        <trkpt lat="50.7742571" lon="15.6103131"><ele>1313.1</ele></trkpt>
        <trkpt lat="50.7741979" lon="15.6104183"><ele>1309.1</ele></trkpt>
        <trkpt lat="50.7741277" lon="15.6105254"><ele>1309.1</ele></trkpt>
        <trkpt lat="50.7739417" lon="15.6107806"><ele>1305.2</ele></trkpt>
        <trkpt lat="50.7738647" lon="15.6108833"><ele>1301.9</ele></trkpt>
        <trkpt lat="50.7738148" lon="15.6109306"><ele>1301.9</ele></trkpt>
        <trkpt lat="50.7735906" lon="15.6111313"><ele>1298.7</ele></trkpt>
        <trkpt lat="50.7734933" lon="15.6112131"><ele>1298.7</ele></trkpt>
        <trkpt lat="50.7729793" lon="15.6115723"><ele>1288.9</ele></trkpt>
        <trkpt lat="50.7727246" lon="15.6117489"><ele>1285.9</ele></trkpt>
        <trkpt lat="50.7726447" lon="15.6118042"><ele>1282.9</ele></trkpt>
        <trkpt lat="50.7725545" lon="15.6118268"><ele>1282.9</ele></trkpt>
        <trkpt lat="50.7724793" lon="15.6118287"><ele>1282.9</ele></trkpt>
        <trkpt lat="50.7723599" lon="15.6118265"><ele>1280.5</ele></trkpt>
        <trkpt lat="50.7722896" lon="15.6120014"><ele>1280.5</ele></trkpt>
        <trkpt lat="50.7722818" lon="15.6120885"><ele>1278.8</ele></trkpt>
        <trkpt lat="50.7723114" lon="15.6122108"><ele>1278.8</ele></trkpt>
        <trkpt lat="50.7727011" lon="15.6129211"><ele>1273.1</ele></trkpt>
        <trkpt lat="50.7727276" lon="15.6131054"><ele>1273.1</ele></trkpt>
        <trkpt lat="50.7728494" lon="15.6144728"><ele>1260.9</ele></trkpt>
        <trkpt lat="50.7728777" lon="15.6146408"><ele>1258.0</ele></trkpt>
        <trkpt lat="50.7729552" lon="15.6149326"><ele>1258.0</ele></trkpt>
        <trkpt lat="50.7729631" lon="15.6150086"><ele>1255.9</ele></trkpt>
        <trkpt lat="50.7729555" lon="15.6150907"><ele>1255.9</ele></trkpt>
        <trkpt lat="50.7729305" lon="15.6151813"><ele>1255.9</ele></trkpt>
        <trkpt lat="50.7728347" lon="15.6154603"><ele>1252.4</ele></trkpt>
        <trkpt lat="50.7726284" lon="15.6158898"><ele>1245.4</ele></trkpt>
        <trkpt lat="50.7723618" lon="15.6164315"><ele>1241.8</ele></trkpt>
        <trkpt lat="50.7723092" lon="15.6165038"><ele>1241.8</ele></trkpt>
        <trkpt lat="50.7715977" lon="15.6171153"><ele>1228.7</ele></trkpt>
        <trkpt lat="50.7708092" lon="15.6177737"><ele>1213.0</ele></trkpt>
        <trkpt lat="50.7704310" lon="15.6181048"><ele>1206.6</ele></trkpt>
        <trkpt lat="50.7698418" lon="15.6185931"><ele>1196.2</ele></trkpt>
        <trkpt lat="50.7692987" lon="15.6190056"><ele>1189.0</ele></trkpt>
        <trkpt lat="50.7687044" lon="15.6194233"><ele>1184.0</ele></trkpt>
        <trkpt lat="50.7685530" lon="15.6195310"><ele>1181.9</ele></trkpt>
        <trkpt lat="50.7677820" lon="15.6200430"><ele>1179.2</ele></trkpt>
        <trkpt lat="50.7666755" lon="15.6206108"><ele>1178.2</ele></trkpt>
        <trkpt lat="50.7660632" lon="15.6209615"><ele>1182.3</ele></trkpt>
        <trkpt lat="50.7659425" lon="15.6210766"><ele>1184.4</ele></trkpt>
        <trkpt lat="50.7657011" lon="15.6213881"><ele>1187.3</ele></trkpt>
        <trkpt lat="50.7653425" lon="15.6218820"><ele>1190.7</ele></trkpt>
        <trkpt lat="50.7652804" lon="15.6219718"><ele>1191.5</ele></trkpt>
        <trkpt lat="50.7652130" lon="15.6221037"><ele>1191.5</ele></trkpt>
        <trkpt lat="50.7651739" lon="15.6222917"><ele>1192.9</ele></trkpt>
        <trkpt lat="50.7650838" lon="15.6231454"><ele>1195.1</ele></trkpt>
        <trkpt lat="50.7648105" lon="15.6258502"><ele>1204.5</ele></trkpt>
        <trkpt lat="50.7647619" lon="15.6261668"><ele>1206.5</ele></trkpt>
        <trkpt lat="50.7647257" lon="15.6263039"><ele>1206.5</ele></trkpt>
        <trkpt lat="50.7646586" lon="15.6265141"><ele>1208.4</ele></trkpt>
        <trkpt lat="50.7646278" lon="15.6266231"><ele>1208.4</ele></trkpt>
        <trkpt lat="50.7645938" lon="15.6267830"><ele>1210.3</ele></trkpt>
        <trkpt lat="50.7645780" lon="15.6269264"><ele>1210.3</ele></trkpt>
        <trkpt lat="50.7645539" lon="15.6270919"><ele>1211.8</ele></trkpt>
        <trkpt lat="50.7645093" lon="15.6273468"><ele>1211.8</ele></trkpt>
        <trkpt lat="50.7644681" lon="15.6275687"><ele>1212.5</ele></trkpt>
        <trkpt lat="50.7644332" lon="15.6276701"><ele>1212.5</ele></trkpt>
        <trkpt lat="50.7641859" lon="15.6281298"><ele>1212.5</ele></trkpt>
        <trkpt lat="50.7640712" lon="15.6284462"><ele>1212.4</ele></trkpt>
        <trkpt lat="50.7639421" lon="15.6288880"><ele>1211.0</ele></trkpt>
        <trkpt lat="50.7637654" lon="15.6295008"><ele>1210.9</ele></trkpt>
        <trkpt lat="50.7635989" lon="15.6301372"><ele>1208.3</ele></trkpt>
        <trkpt lat="50.7635612" lon="15.6303286"><ele>1206.5</ele></trkpt>
        <trkpt lat="50.7635266" lon="15.6305025"><ele>1206.5</ele></trkpt>
        <trkpt lat="50.7634454" lon="15.6307826"><ele>1204.7</ele></trkpt>
        <trkpt lat="50.7633277" lon="15.6311697"><ele>1202.0</ele></trkpt>
        <trkpt lat="50.7632392" lon="15.6315525"><ele>1200.1</ele></trkpt>
        <trkpt lat="50.7628891" lon="15.6333263"><ele>1197.2</ele></trkpt>
        <trkpt lat="50.7627526" lon="15.6339326"><ele>1196.9</ele></trkpt>
        <trkpt lat="50.7626628" lon="15.6343347"><ele>1196.9</ele></trkpt>
        <trkpt lat="50.7624987" lon="15.6351201"><ele>1199.3</ele></trkpt>
        <trkpt lat="50.7623947" lon="15.6357199"><ele>1204.4</ele></trkpt>
        <trkpt lat="50.7624409" lon="15.6368062"><ele>1211.8</ele></trkpt>
        <trkpt lat="50.7624588" lon="15.6372396"><ele>1215.9</ele></trkpt>
        <trkpt lat="50.7624902" lon="15.6379019"><ele>1223.9</ele></trkpt>
        <trkpt lat="50.7625265" lon="15.6380811"><ele>1226.2</ele></trkpt>
        <trkpt lat="50.7625762" lon="15.6382419"><ele>1226.8</ele></trkpt>
        <trkpt lat="50.7626202" lon="15.6383591"><ele>1226.8</ele></trkpt>
        <trkpt lat="50.7625762" lon="15.6382419"><ele>1226.8</ele></trkpt>
        <trkpt lat="50.7625255" lon="15.6386491"><ele>1231.0</ele></trkpt>
        <trkpt lat="50.7624762" lon="15.6390790"><ele>1236.7</ele></trkpt>
        <trkpt lat="50.7624431" lon="15.6394965"><ele>1248.1</ele></trkpt>
        <trkpt lat="50.7624026" lon="15.6398763"><ele>1254.4</ele></trkpt>
        <trkpt lat="50.7623769" lon="15.6398995"><ele>1254.4</ele></trkpt>
        <trkpt lat="50.7623423" lon="15.6399343"><ele>1254.4</ele></trkpt>
        <trkpt lat="50.7623298" lon="15.6399922"><ele>1254.4</ele></trkpt>
        <trkpt lat="50.7623350" lon="15.6400253"><ele>1254.4</ele></trkpt>
        <trkpt lat="50.7623685" lon="15.6400816"><ele>1254.4</ele></trkpt>
        <trkpt lat="50.7623842" lon="15.6401512"><ele>1261.5</ele></trkpt>
        <trkpt lat="50.7623769" lon="15.6402389"><ele>1261.5</ele></trkpt>
        <trkpt lat="50.7623429" lon="15.6403526"><ele>1261.5</ele></trkpt>
        <trkpt lat="50.7622868" lon="15.6405137"><ele>1269.4</ele></trkpt>
        <trkpt lat="50.7622554" lon="15.6406179"><ele>1269.4</ele></trkpt>
        <trkpt lat="50.7622051" lon="15.6408647"><ele>1275.6</ele></trkpt>
        <trkpt lat="50.7622013" lon="15.6410343"><ele>1275.6</ele></trkpt>
        <trkpt lat="50.7622698" lon="15.6414106"><ele>1280.0</ele></trkpt>
        <trkpt lat="50.7623235" lon="15.6416180"><ele>1284.3</ele></trkpt>
        <trkpt lat="50.7624083" lon="15.6418399"><ele>1288.6</ele></trkpt>
        <trkpt lat="50.7624221" lon="15.6419746"><ele>1288.6</ele></trkpt>
        <trkpt lat="50.7624294" lon="15.6423453"><ele>1294.0</ele></trkpt>
        <trkpt lat="50.7624273" lon="15.6424491"><ele>1294.0</ele></trkpt>
        <trkpt lat="50.7624355" lon="15.6426644"><ele>1298.4</ele></trkpt>
        <trkpt lat="50.7624525" lon="15.6428227"><ele>1300.9</ele></trkpt>
        <trkpt lat="50.7625000" lon="15.6429809"><ele>1300.9</ele></trkpt>
        <trkpt lat="50.7625187" lon="15.6430828"><ele>1300.9</ele></trkpt>
        <trkpt lat="50.7625255" lon="15.6431982"><ele>1305.0</ele></trkpt>
        <trkpt lat="50.7625085" lon="15.6434128"><ele>1305.0</ele></trkpt>
        <trkpt lat="50.7625087" lon="15.6435821"><ele>1309.5</ele></trkpt>
        <trkpt lat="50.7625359" lon="15.6441057"><ele>1312.8</ele></trkpt>
        <trkpt lat="50.7625409" lon="15.6443503"><ele>1316.3</ele></trkpt>
        <trkpt lat="50.7625390" lon="15.6445420"><ele>1316.3</ele></trkpt>
        <trkpt lat="50.7625526" lon="15.6447190"><ele>1319.7</ele></trkpt>
        <trkpt lat="50.7625475" lon="15.6448531"><ele>1319.7</ele></trkpt>
        <trkpt lat="50.7625475" lon="15.6449711"><ele>1323.5</ele></trkpt>
        <trkpt lat="50.7625221" lon="15.6451267"><ele>1323.5</ele></trkpt>
        <trkpt lat="50.7625238" lon="15.6452528"><ele>1323.5</ele></trkpt>
        <trkpt lat="50.7625017" lon="15.6456631"><ele>1332.1</ele></trkpt>
        <trkpt lat="50.7625142" lon="15.6460004"><ele>1334.9</ele></trkpt>
        <trkpt lat="50.7625424" lon="15.6463042"><ele>1334.9</ele></trkpt>
        <trkpt lat="50.7625441" lon="15.6465563"><ele>1337.1</ele></trkpt>
        <trkpt lat="50.7625323" lon="15.6467307"><ele>1338.7</ele></trkpt>
        <trkpt lat="50.7625043" lon="15.6468286"><ele>1338.7</ele></trkpt>
        <trkpt lat="50.7624316" lon="15.6470227"><ele>1338.7</ele></trkpt>
        <trkpt lat="50.7623628" lon="15.6472761"><ele>1338.7</ele></trkpt>
        <trkpt lat="50.7623304" lon="15.6474388"><ele>1339.2</ele></trkpt>
        <trkpt lat="50.7623083" lon="15.6476426"><ele>1339.2</ele></trkpt>
        <trkpt lat="50.7622698" lon="15.6478221"><ele>1340.3</ele></trkpt>
        <trkpt lat="50.7620694" lon="15.6482685"><ele>1340.4</ele></trkpt>
        <trkpt lat="50.7619332" lon="15.6486204"><ele>1346.0</ele></trkpt>
        <trkpt lat="50.7618376" lon="15.6488098"><ele>1346.0</ele></trkpt>
        <trkpt lat="50.7617212" lon="15.6491251"><ele>1346.6</ele></trkpt>
        <trkpt lat="50.7616868" lon="15.6492945"><ele>1346.6</ele></trkpt>
        <trkpt lat="50.7615635" lon="15.6496113"><ele>1346.6</ele></trkpt>
        <trkpt lat="50.7615329" lon="15.6497481"><ele>1346.6</ele></trkpt>
        <trkpt lat="50.7615414" lon="15.6499010"><ele>1345.9</ele></trkpt>
        <trkpt lat="50.7615295" lon="15.6500485"><ele>1345.9</ele></trkpt>
        <trkpt lat="50.7615160" lon="15.6501961"><ele>1345.9</ele></trkpt>
        <trkpt lat="50.7615067" lon="15.6503348"><ele>1345.9</ele></trkpt>
        <trkpt lat="50.7614674" lon="15.6506100"><ele>1345.9</ele></trkpt>
        <trkpt lat="50.7613938" lon="15.6509820"><ele>1346.0</ele></trkpt>
        <trkpt lat="50.7613735" lon="15.6511992"><ele>1346.0</ele></trkpt>
        <trkpt lat="50.7613252" lon="15.6515515"><ele>1346.0</ele></trkpt>
        <trkpt lat="50.7612187" lon="15.6520772"><ele>1346.3</ele></trkpt>
        <trkpt lat="50.7611344" lon="15.6524731"><ele>1347.4</ele></trkpt>
        <trkpt lat="50.7609697" lon="15.6530392"><ele>1350.7</ele></trkpt>
        <trkpt lat="50.7609289" lon="15.6531840"><ele>1350.7</ele></trkpt>
        <trkpt lat="50.7609255" lon="15.6532538"><ele>1352.5</ele></trkpt>
        <trkpt lat="50.7608882" lon="15.6533503"><ele>1352.5</ele></trkpt>
        <trkpt lat="50.7608492" lon="15.6534442"><ele>1352.5</ele></trkpt>
        <trkpt lat="50.7608407" lon="15.6535649"><ele>1353.3</ele></trkpt>
        <trkpt lat="50.7608274" lon="15.6536772"><ele>1353.3</ele></trkpt>
        <trkpt lat="50.7607237" lon="15.6538950"><ele>1354.7</ele></trkpt>
        <trkpt lat="50.7606829" lon="15.6541604"><ele>1354.7</ele></trkpt>
        <trkpt lat="50.7606795" lon="15.6545734"><ele>1354.9</ele></trkpt>
        <trkpt lat="50.7607016" lon="15.6547558"><ele>1354.9</ele></trkpt>
        <trkpt lat="50.7607101" lon="15.6550160"><ele>1355.7</ele></trkpt>
        <trkpt lat="50.7607304" lon="15.6551394"><ele>1355.7</ele></trkpt>
        <trkpt lat="50.7607256" lon="15.6552631"><ele>1358.2</ele></trkpt>
        <trkpt lat="50.7607050" lon="15.6555980"><ele>1358.2</ele></trkpt>
        <trkpt lat="50.7607169" lon="15.6557938"><ele>1360.7</ele></trkpt>
        <trkpt lat="50.7607287" lon="15.6560084"><ele>1363.0</ele></trkpt>
        <trkpt lat="50.7606965" lon="15.6562740"><ele>1363.0</ele></trkpt>
        <trkpt lat="50.7606575" lon="15.6567728"><ele>1367.9</ele></trkpt>
        <trkpt lat="50.7606439" lon="15.6571108"><ele>1369.9</ele></trkpt>
        <trkpt lat="50.7606435" lon="15.6575784"><ele>1372.6</ele></trkpt>
        <trkpt lat="50.7606456" lon="15.6577840"><ele>1374.3</ele></trkpt>
        <trkpt lat="50.7606139" lon="15.6581819"><ele>1375.6</ele></trkpt>
        <trkpt lat="50.7605987" lon="15.6584067"><ele>1375.6</ele></trkpt>
        <trkpt lat="50.7606094" lon="15.6585562"><ele>1375.6</ele></trkpt>
        <trkpt lat="50.7606151" lon="15.6589293"><ele>1375.6</ele></trkpt>
        <trkpt lat="50.7606185" lon="15.6590822"><ele>1375.6</ele></trkpt>
        <trkpt lat="50.7606117" lon="15.6592324"><ele>1374.8</ele></trkpt>
        <trkpt lat="50.7605608" lon="15.6595409"><ele>1374.0</ele></trkpt>
        <trkpt lat="50.7605031" lon="15.6597796"><ele>1374.0</ele></trkpt>
        <trkpt lat="50.7603419" lon="15.6606781"><ele>1370.4</ele></trkpt>
        <trkpt lat="50.7603031" lon="15.6612602"><ele>1370.1</ele></trkpt>
        <trkpt lat="50.7603080" lon="15.6615284"><ele>1370.1</ele></trkpt>
        <trkpt lat="50.7602854" lon="15.6618311"><ele>1370.1</ele></trkpt>
        <trkpt lat="50.7602243" lon="15.6620859"><ele>1371.3</ele></trkpt>
        <trkpt lat="50.7602090" lon="15.6621932"><ele>1371.3</ele></trkpt>
        <trkpt lat="50.7602062" lon="15.6624430"><ele>1371.8</ele></trkpt>
        <trkpt lat="50.7601104" lon="15.6633071"><ele>1373.5</ele></trkpt>
        <trkpt lat="50.7601104" lon="15.6634224"><ele>1373.5</ele></trkpt>
        <trkpt lat="50.7600901" lon="15.6635462"><ele>1373.5</ele></trkpt>
        <trkpt lat="50.7600727" lon="15.6637244"><ele>1374.7</ele></trkpt>
        <trkpt lat="50.7598701" lon="15.6653708"><ele>1383.4</ele></trkpt>
        <trkpt lat="50.7598397" lon="15.6655008"><ele>1385.9</ele></trkpt>
        <trkpt lat="50.7597771" lon="15.6657335"><ele>1387.5</ele></trkpt>
        <trkpt lat="50.7597509" lon="15.6659859"><ele>1387.5</ele></trkpt>
        <trkpt lat="50.7597000" lon="15.6662487"><ele>1387.9</ele></trkpt>
        <trkpt lat="50.7596835" lon="15.6663738"><ele>1387.9</ele></trkpt>
        <trkpt lat="50.7596695" lon="15.6664848"><ele>1388.1</ele></trkpt>
        <trkpt lat="50.7595829" lon="15.6669300"><ele>1389.1</ele></trkpt>
        <trkpt lat="50.7595512" lon="15.6672066"><ele>1389.1</ele></trkpt>
        <trkpt lat="50.7595210" lon="15.6674235"><ele>1389.1</ele></trkpt>
        <trkpt lat="50.7593527" lon="15.6679335"><ele>1391.9</ele></trkpt>
        <trkpt lat="50.7592372" lon="15.6683861"><ele>1393.1</ele></trkpt>
        <trkpt lat="50.7589566" lon="15.6698634"><ele>1400.4</ele></trkpt>
        <trkpt lat="50.7589122" lon="15.6703184"><ele>1400.4</ele></trkpt>
        <trkpt lat="50.7588677" lon="15.6709171"><ele>1403.3</ele></trkpt>
        <trkpt lat="50.7588081" lon="15.6712407"><ele>1405.7</ele></trkpt>
        <trkpt lat="50.7586859" lon="15.6718013"><ele>1408.6</ele></trkpt>
        <trkpt lat="50.7585824" lon="15.6724530"><ele>1411.0</ele></trkpt>
        <trkpt lat="50.7585415" lon="15.6727807"><ele>1412.1</ele></trkpt>
        <trkpt lat="50.7585281" lon="15.6730726"><ele>1413.1</ele></trkpt>
        <trkpt lat="50.7584805" lon="15.6743073"><ele>1417.8</ele></trkpt>
        <trkpt lat="50.7584552" lon="15.6744942"><ele>1417.8</ele></trkpt>
        <trkpt lat="50.7584801" lon="15.6748506"><ele>1417.8</ele></trkpt>
        <trkpt lat="50.7584682" lon="15.6750249"><ele>1418.0</ele></trkpt>
        <trkpt lat="50.7585106" lon="15.6753977"><ele>1417.8</ele></trkpt>
        <trkpt lat="50.7585087" lon="15.6756115"><ele>1417.8</ele></trkpt>
        <trkpt lat="50.7585127" lon="15.6757203"><ele>1417.5</ele></trkpt>
        <trkpt lat="50.7585358" lon="15.6758566"><ele>1417.5</ele></trkpt>
        <trkpt lat="50.7586548" lon="15.6763821"><ele>1417.3</ele></trkpt>
        <trkpt lat="50.7588742" lon="15.6771818"><ele>1417.6</ele></trkpt>
        <trkpt lat="50.7589167" lon="15.6773186"><ele>1417.6</ele></trkpt>
        <trkpt lat="50.7589399" lon="15.6774738"><ele>1418.9</ele></trkpt>
        <trkpt lat="50.7589501" lon="15.6775757"><ele>1418.9</ele></trkpt>
        <trkpt lat="50.7589952" lon="15.6777659"><ele>1418.9</ele></trkpt>
        <trkpt lat="50.7590105" lon="15.6779173"><ele>1418.9</ele></trkpt>
        <trkpt lat="50.7590360" lon="15.6780608"><ele>1418.9</ele></trkpt>
        <trkpt lat="50.7590586" lon="15.6781712"><ele>1418.9</ele></trkpt>
        <trkpt lat="50.7590745" lon="15.6783093"><ele>1418.9</ele></trkpt>
        <trkpt lat="50.7591254" lon="15.6785229"><ele>1418.7</ele></trkpt>
        <trkpt lat="50.7591684" lon="15.6788248"><ele>1418.7</ele></trkpt>
        <trkpt lat="50.7592334" lon="15.6791207"><ele>1418.7</ele></trkpt>
        <trkpt lat="50.7593214" lon="15.6795338"><ele>1418.8</ele></trkpt>
        <trkpt lat="50.7593793" lon="15.6800594"><ele>1419.5</ele></trkpt>
        <trkpt lat="50.7593943" lon="15.6802752"><ele>1419.7</ele></trkpt>
        <trkpt lat="50.7594268" lon="15.6805830"><ele>1420.3</ele></trkpt>
        <trkpt lat="50.7594419" lon="15.6808765"><ele>1420.7</ele></trkpt>
        <trkpt lat="50.7594683" lon="15.6810987"><ele>1420.7</ele></trkpt>
        <trkpt lat="50.7595199" lon="15.6816733"><ele>1421.9</ele></trkpt>
        <trkpt lat="50.7595428" lon="15.6821895"><ele>1421.9</ele></trkpt>
        <trkpt lat="50.7595661" lon="15.6823869"><ele>1421.9</ele></trkpt>
        <trkpt lat="50.7595644" lon="15.6825332"><ele>1421.9</ele></trkpt>
        <trkpt lat="50.7595927" lon="15.6830018"><ele>1420.3</ele></trkpt>
        <trkpt lat="50.7595908" lon="15.6830894"><ele>1420.3</ele></trkpt>
        <trkpt lat="50.7595846" lon="15.6831540"><ele>1420.3</ele></trkpt>
        <trkpt lat="50.7595266" lon="15.6833497"><ele>1419.7</ele></trkpt>
        <trkpt lat="50.7595163" lon="15.6834906"><ele>1419.7</ele></trkpt>
        <trkpt lat="50.7594206" lon="15.6837614"><ele>1418.9</ele></trkpt>
        <trkpt lat="50.7593717" lon="15.6839251"><ele>1417.2</ele></trkpt>
        <trkpt lat="50.7593269" lon="15.6840342"><ele>1417.2</ele></trkpt>
        <trkpt lat="50.7591721" lon="15.6845389"><ele>1413.1</ele></trkpt>
        <trkpt lat="50.7591131" lon="15.6846551"><ele>1413.1</ele></trkpt>
        <trkpt lat="50.7590460" lon="15.6847328"><ele>1413.1</ele></trkpt>
        <trkpt lat="50.7587861" lon="15.6851333"><ele>1411.3</ele></trkpt>
        <trkpt lat="50.7586452" lon="15.6852939"><ele>1409.9</ele></trkpt>
        <trkpt lat="50.7584849" lon="15.6855246"><ele>1407.9</ele></trkpt>
        <trkpt lat="50.7581973" lon="15.6858612"><ele>1407.9</ele></trkpt>
        <trkpt lat="50.7576372" lon="15.6866052"><ele>1406.5</ele></trkpt>
        <trkpt lat="50.7573461" lon="15.6868930"><ele>1407.3</ele></trkpt>
        <trkpt lat="50.7570180" lon="15.6874370"><ele>1408.0</ele></trkpt>
        <trkpt lat="50.7567756" lon="15.6878853"><ele>1409.4</ele></trkpt>
        <trkpt lat="50.7566178" lon="15.6882122"><ele>1409.7</ele></trkpt>
        <trkpt lat="50.7564549" lon="15.6884749"><ele>1411.0</ele></trkpt>
        <trkpt lat="50.7562365" lon="15.6888837"><ele>1412.2</ele></trkpt>
        <trkpt lat="50.7560955" lon="15.6891241"><ele>1414.0</ele></trkpt>
        <trkpt lat="50.7560401" lon="15.6892485"><ele>1415.6</ele></trkpt>
        <trkpt lat="50.7559703" lon="15.6893644"><ele>1415.6</ele></trkpt>
        <trkpt lat="50.7559664" lon="15.6893738"><ele>1415.6</ele></trkpt>
        <trkpt lat="50.7559045" lon="15.6895239"><ele>1415.6</ele></trkpt>
        <trkpt lat="50.7558639" lon="15.6897243"><ele>1415.6</ele></trkpt>
        <trkpt lat="50.7558431" lon="15.6898270"><ele>1415.6</ele></trkpt>
        <trkpt lat="50.7558252" lon="15.6900577"><ele>1415.6</ele></trkpt>
        <trkpt lat="50.7558052" lon="15.6903213"><ele>1414.8</ele></trkpt>
        <trkpt lat="50.7557780" lon="15.6906349"><ele>1411.5</ele></trkpt>
        <trkpt lat="50.7557308" lon="15.6909678"><ele>1407.7</ele></trkpt>
        <trkpt lat="50.7557267" lon="15.6911980"><ele>1404.7</ele></trkpt>
        <trkpt lat="50.7555968" lon="15.6914911"><ele>1404.4</ele></trkpt>
        <trkpt lat="50.7555460" lon="15.6917198"><ele>1404.4</ele></trkpt>
        <trkpt lat="50.7555263" lon="15.6918087"><ele>1402.6</ele></trkpt>
        <trkpt lat="50.7554821" lon="15.6919902"><ele>1402.6</ele></trkpt>
        <trkpt lat="50.7553915" lon="15.6922667"><ele>1400.9</ele></trkpt>
        <trkpt lat="50.7552878" lon="15.6924583"><ele>1398.9</ele></trkpt>
        <trkpt lat="50.7552170" lon="15.6926447"><ele>1398.9</ele></trkpt>
        <trkpt lat="50.7551359" lon="15.6927648"><ele>1397.8</ele></trkpt>
        <trkpt lat="50.7550285" lon="15.6928367"><ele>1397.8</ele></trkpt>
        <trkpt lat="50.7549773" lon="15.6929009"><ele>1397.7</ele></trkpt>
        <trkpt lat="50.7549123" lon="15.6930324"><ele>1397.7</ele></trkpt>
        <trkpt lat="50.7548257" lon="15.6931019"><ele>1397.2</ele></trkpt>
        <trkpt lat="50.7545637" lon="15.6932908"><ele>1396.0</ele></trkpt>
        <trkpt lat="50.7544840" lon="15.6933725"><ele>1396.0</ele></trkpt>
        <trkpt lat="50.7543792" lon="15.6934245"><ele>1396.0</ele></trkpt>
        <trkpt lat="50.7543149" lon="15.6934951"><ele>1396.0</ele></trkpt>
        <trkpt lat="50.7542615" lon="15.6935457"><ele>1396.0</ele></trkpt>
        <trkpt lat="50.7542136" lon="15.6935912"><ele>1396.0</ele></trkpt>
        <trkpt lat="50.7541178" lon="15.6936189"><ele>1396.0</ele></trkpt>
        <trkpt lat="50.7539679" lon="15.6936274"><ele>1397.0</ele></trkpt>
        <trkpt lat="50.7538872" lon="15.6936588"><ele>1397.0</ele></trkpt>
        <trkpt lat="50.7537769" lon="15.6937696"><ele>1397.2</ele></trkpt>
        <trkpt lat="50.7535015" lon="15.6941457"><ele>1397.2</ele></trkpt>
        <trkpt lat="50.7533415" lon="15.6942705"><ele>1397.0</ele></trkpt>
        <trkpt lat="50.7530823" lon="15.6945090"><ele>1396.2</ele></trkpt>
        <trkpt lat="50.7528534" lon="15.6946375"><ele>1395.5</ele></trkpt>
        <trkpt lat="50.7527409" lon="15.6947007"><ele>1394.2</ele></trkpt>
        <trkpt lat="50.7525232" lon="15.6948405"><ele>1391.0</ele></trkpt>
        <trkpt lat="50.7523775" lon="15.6949116"><ele>1389.1</ele></trkpt>
        <trkpt lat="50.7522830" lon="15.6949577"><ele>1389.1</ele></trkpt>
        <trkpt lat="50.7521233" lon="15.6949377"><ele>1389.1</ele></trkpt>
        <trkpt lat="50.7520724" lon="15.6949162"><ele>1389.1</ele></trkpt>
        <trkpt lat="50.7519811" lon="15.6949164"><ele>1389.1</ele></trkpt>
        <trkpt lat="50.7519316" lon="15.6949178"><ele>1389.1</ele></trkpt>
        <trkpt lat="50.7517671" lon="15.6949056"><ele>1389.1</ele></trkpt>
        <trkpt lat="50.7517095" lon="15.6948701"><ele>1391.0</ele></trkpt>
        <trkpt lat="50.7516224" lon="15.6947991"><ele>1391.0</ele></trkpt>
        <trkpt lat="50.7515752" lon="15.6947852"><ele>1391.0</ele></trkpt>
        <trkpt lat="50.7515305" lon="15.6948060"><ele>1391.0</ele></trkpt>
        <trkpt lat="50.7515078" lon="15.6948331"><ele>1391.0</ele></trkpt>
        <trkpt lat="50.7513328" lon="15.6949294"><ele>1391.0</ele></trkpt>
        <trkpt lat="50.7512513" lon="15.6950139"><ele>1391.0</ele></trkpt>
        <trkpt lat="50.7512051" lon="15.6950468"><ele>1391.0</ele></trkpt>
        <trkpt lat="50.7510863" lon="15.6951835"><ele>1390.2</ele></trkpt>
        <trkpt lat="50.7509798" lon="15.6952506"><ele>1390.2</ele></trkpt>
        <trkpt lat="50.7508123" lon="15.6953301"><ele>1389.3</ele></trkpt>
        <trkpt lat="50.7507576" lon="15.6953684"><ele>1389.3</ele></trkpt>
        <trkpt lat="50.7506719" lon="15.6954671"><ele>1386.6</ele></trkpt>
        <trkpt lat="50.7505961" lon="15.6955411"><ele>1386.6</ele></trkpt>
        <trkpt lat="50.7505079" lon="15.6955755"><ele>1386.0</ele></trkpt>
        <trkpt lat="50.7504070" lon="15.6956007"><ele>1386.0</ele></trkpt>
        <trkpt lat="50.7502114" lon="15.6955797"><ele>1384.0</ele></trkpt>
        <trkpt lat="50.7500206" lon="15.6956372"><ele>1383.8</ele></trkpt>
        <trkpt lat="50.7499004" lon="15.6957322"><ele>1383.8</ele></trkpt>
        <trkpt lat="50.7497410" lon="15.6957300"><ele>1380.9</ele></trkpt>
        <trkpt lat="50.7495448" lon="15.6957281"><ele>1379.3</ele></trkpt>
        <trkpt lat="50.7493785" lon="15.6957255"><ele>1377.4</ele></trkpt>
        <trkpt lat="50.7492422" lon="15.6957100"><ele>1377.4</ele></trkpt>
        <trkpt lat="50.7491185" lon="15.6956769"><ele>1377.4</ele></trkpt>
        <trkpt lat="50.7490067" lon="15.6956106"><ele>1377.4</ele></trkpt>
        <trkpt lat="50.7488438" lon="15.6954604"><ele>1377.4</ele></trkpt>
        <trkpt lat="50.7486526" lon="15.6953489"><ele>1381.5</ele></trkpt>
        <trkpt lat="50.7485704" lon="15.6952792"><ele>1381.5</ele></trkpt>
        <trkpt lat="50.7485005" lon="15.6952205"><ele>1381.5</ele></trkpt>
        <trkpt lat="50.7483195" lon="15.6950664"><ele>1381.5</ele></trkpt>
        <trkpt lat="50.7481424" lon="15.6949359"><ele>1381.7</ele></trkpt>
        <trkpt lat="50.7481058" lon="15.6948893"><ele>1381.7</ele></trkpt>
        <trkpt lat="50.7480603" lon="15.6948506"><ele>1381.7</ele></trkpt>
        <trkpt lat="50.7478114" lon="15.6946731"><ele>1381.7</ele></trkpt>
        <trkpt lat="50.7476313" lon="15.6945491"><ele>1381.7</ele></trkpt>
        <trkpt lat="50.7473567" lon="15.6943702"><ele>1386.3</ele></trkpt>
        <trkpt lat="50.7472667" lon="15.6943156"><ele>1386.3</ele></trkpt>
        <trkpt lat="50.7471756" lon="15.6942907"><ele>1386.3</ele></trkpt>
        <trkpt lat="50.7471227" lon="15.6942937"><ele>1386.6</ele></trkpt>
        <trkpt lat="50.7470967" lon="15.6942951"><ele>1386.6</ele></trkpt>
        <trkpt lat="50.7470024" lon="15.6943370"><ele>1386.6</ele></trkpt>
        <trkpt lat="50.7468140" lon="15.6943788"><ele>1386.8</ele></trkpt>
        <trkpt lat="50.7466341" lon="15.6944022"><ele>1387.4</ele></trkpt>
        <trkpt lat="50.7465322" lon="15.6944432"><ele>1387.4</ele></trkpt>
        <trkpt lat="50.7464770" lon="15.6944880"><ele>1387.6</ele></trkpt>
        <trkpt lat="50.7463197" lon="15.6947202"><ele>1388.0</ele></trkpt>
        <trkpt lat="50.7462123" lon="15.6948347"><ele>1388.0</ele></trkpt>
        <trkpt lat="50.7460779" lon="15.6949561"><ele>1389.1</ele></trkpt>
        <trkpt lat="50.7459870" lon="15.6950233"><ele>1389.1</ele></trkpt>
        <trkpt lat="50.7459177" lon="15.6950587"><ele>1391.8</ele></trkpt>
        <trkpt lat="50.7458703" lon="15.6950647"><ele>1391.8</ele></trkpt>
        <trkpt lat="50.7457485" lon="15.6950597"><ele>1391.8</ele></trkpt>
        <trkpt lat="50.7456370" lon="15.6951308"><ele>1394.3</ele></trkpt>
        <trkpt lat="50.7455190" lon="15.6952706"><ele>1394.9</ele></trkpt>
        <trkpt lat="50.7454196" lon="15.6954061"><ele>1394.9</ele></trkpt>
        <trkpt lat="50.7452676" lon="15.6955065"><ele>1394.9</ele></trkpt>
        <trkpt lat="50.7451597" lon="15.6956105"><ele>1394.9</ele></trkpt>
        <trkpt lat="50.7450799" lon="15.6957072"><ele>1394.9</ele></trkpt>
        <trkpt lat="50.7448470" lon="15.6961368"><ele>1395.3</ele></trkpt>
        <trkpt lat="50.7447903" lon="15.6961883"><ele>1395.3</ele></trkpt>
        <trkpt lat="50.7447366" lon="15.6961942"><ele>1395.3</ele></trkpt>
        <trkpt lat="50.7446452" lon="15.6961387"><ele>1395.3</ele></trkpt>
        <trkpt lat="50.7445598" lon="15.6961596"><ele>1396.9</ele></trkpt>
        <trkpt lat="50.7443908" lon="15.6962884"><ele>1397.2</ele></trkpt>
        <trkpt lat="50.7441959" lon="15.6963512"><ele>1397.2</ele></trkpt>
        <trkpt lat="50.7440253" lon="15.6965461"><ele>1397.2</ele></trkpt>
        <trkpt lat="50.7438723" lon="15.6967184"><ele>1397.2</ele></trkpt>
        <trkpt lat="50.7437032" lon="15.6968906"><ele>1396.6</ele></trkpt>
        <trkpt lat="50.7434649" lon="15.6971724"><ele>1396.6</ele></trkpt>
        <trkpt lat="50.7433120" lon="15.6973898"><ele>1396.6</ele></trkpt>
        <trkpt lat="50.7431622" lon="15.6975798"><ele>1398.3</ele></trkpt>
        <trkpt lat="50.7429932" lon="15.6977746"><ele>1400.0</ele></trkpt>
        <trkpt lat="50.7428355" lon="15.6979067"><ele>1402.0</ele></trkpt>
        <trkpt lat="50.7426647" lon="15.6980806"><ele>1403.5</ele></trkpt>
        <trkpt lat="50.7424941" lon="15.6984140"><ele>1404.1</ele></trkpt>
        <trkpt lat="50.7422274" lon="15.6988137"><ele>1404.6</ele></trkpt>
        <trkpt lat="50.7419625" lon="15.6992181"><ele>1405.9</ele></trkpt>
        <trkpt lat="50.7417979" lon="15.6995456"><ele>1408.9</ele></trkpt>
        <trkpt lat="50.7416769" lon="15.6998819"><ele>1409.6</ele></trkpt>
        <trkpt lat="50.7415919" lon="15.7001243"><ele>1409.6</ele></trkpt>
        <trkpt lat="50.7415097" lon="15.7004621"><ele>1410.4</ele></trkpt>
        <trkpt lat="50.7414896" lon="15.7005940"><ele>1410.4</ele></trkpt>
        <trkpt lat="50.7414763" lon="15.7007458"><ele>1410.4</ele></trkpt>
        <trkpt lat="50.7414718" lon="15.7009104"><ele>1410.5</ele></trkpt>
        <trkpt lat="50.7414767" lon="15.7010650"><ele>1410.5</ele></trkpt>
        <trkpt lat="50.7414854" lon="15.7012481"><ele>1411.0</ele></trkpt>
        <trkpt lat="50.7414695" lon="15.7014095"><ele>1411.0</ele></trkpt>
        <trkpt lat="50.7413500" lon="15.7018662"><ele>1415.8</ele></trkpt>
        <trkpt lat="50.7412424" lon="15.7022037"><ele>1418.2</ele></trkpt>
        <trkpt lat="50.7411782" lon="15.7024683"><ele>1418.2</ele></trkpt>
        <trkpt lat="50.7409628" lon="15.7034831"><ele>1423.2</ele></trkpt>
        <trkpt lat="50.7408488" lon="15.7040202"><ele>1423.8</ele></trkpt>
        <trkpt lat="50.7408005" lon="15.7043827"><ele>1425.0</ele></trkpt>
        <trkpt lat="50.7407751" lon="15.7046287"><ele>1426.0</ele></trkpt>
        <trkpt lat="50.7407827" lon="15.7047209"><ele>1426.0</ele></trkpt>
        <trkpt lat="50.7408056" lon="15.7048292"><ele>1426.0</ele></trkpt>
        <trkpt lat="50.7408533" lon="15.7050830"><ele>1426.1</ele></trkpt>
        <trkpt lat="50.7409240" lon="15.7054885"><ele>1426.1</ele></trkpt>
        <trkpt lat="50.7409580" lon="15.7056498"><ele>1426.1</ele></trkpt>
        <trkpt lat="50.7409912" lon="15.7058326"><ele>1426.1</ele></trkpt>
        <trkpt lat="50.7410362" lon="15.7060369"><ele>1426.6</ele></trkpt>
        <trkpt lat="50.7411545" lon="15.7064425"><ele>1428.3</ele></trkpt>
        <trkpt lat="50.7411512" lon="15.7064579"><ele>1428.3</ele></trkpt>
        <trkpt lat="50.7411340" lon="15.7066090"><ele>1429.4</ele></trkpt>
        <trkpt lat="50.7411352" lon="15.7067149"><ele>1429.4</ele></trkpt>
        <trkpt lat="50.7413446" lon="15.7088561"><ele>1432.9</ele></trkpt>
        <trkpt lat="50.7414825" lon="15.7099121"><ele>1435.7</ele></trkpt>
        <trkpt lat="50.7415659" lon="15.7103858"><ele>1437.2</ele></trkpt>
        <trkpt lat="50.7416695" lon="15.7109206"><ele>1437.4</ele></trkpt>
        <trkpt lat="50.7418482" lon="15.7116191"><ele>1437.1</ele></trkpt>
        <trkpt lat="50.7419627" lon="15.7121927"><ele>1436.8</ele></trkpt>
        <trkpt lat="50.7420311" lon="15.7127616"><ele>1436.2</ele></trkpt>
        <trkpt lat="50.7419847" lon="15.7135119"><ele>1433.3</ele></trkpt>
        <trkpt lat="50.7418483" lon="15.7143860"><ele>1431.7</ele></trkpt>
        <trkpt lat="50.7416735" lon="15.7154312"><ele>1427.6</ele></trkpt>
        <trkpt lat="50.7414988" lon="15.7164781"><ele>1427.1</ele></trkpt>
        <trkpt lat="50.7413784" lon="15.7173467"><ele>1424.0</ele></trkpt>
        <trkpt lat="50.7413472" lon="15.7179902"><ele>1421.9</ele></trkpt>
        <trkpt lat="50.7413058" lon="15.7182677"><ele>1421.9</ele></trkpt>
        <trkpt lat="50.7412216" lon="15.7185689"><ele>1420.9</ele></trkpt>
        <trkpt lat="50.7411906" lon="15.7188064"><ele>1418.7</ele></trkpt>
        <trkpt lat="50.7411690" lon="15.7192361"><ele>1415.0</ele></trkpt>
        <trkpt lat="50.7411793" lon="15.7195482"><ele>1411.9</ele></trkpt>
        <trkpt lat="50.7411745" lon="15.7196389"><ele>1411.9</ele></trkpt>
        <trkpt lat="50.7411517" lon="15.7197822"><ele>1410.5</ele></trkpt>
        <trkpt lat="50.7410454" lon="15.7202363"><ele>1409.1</ele></trkpt>
        <trkpt lat="50.7409285" lon="15.7215593"><ele>1398.5</ele></trkpt>
        <trkpt lat="50.7407423" lon="15.7223056"><ele>1393.6</ele></trkpt>
        <trkpt lat="50.7405854" lon="15.7233979"><ele>1386.4</ele></trkpt>
        <trkpt lat="50.7404524" lon="15.7242483"><ele>1385.5</ele></trkpt>
        <trkpt lat="50.7403942" lon="15.7244830"><ele>1385.5</ele></trkpt>
        <trkpt lat="50.7403228" lon="15.7246410"><ele>1385.9</ele></trkpt>
        <trkpt lat="50.7402509" lon="15.7247930"><ele>1388.5</ele></trkpt>
        <trkpt lat="50.7401799" lon="15.7249510"><ele>1388.5</ele></trkpt>
        <trkpt lat="50.7401132" lon="15.7251380"><ele>1390.2</ele></trkpt>
        <trkpt lat="50.7400061" lon="15.7254530"><ele>1391.7</ele></trkpt>
        <trkpt lat="50.7399538" lon="15.7256095"><ele>1391.7</ele></trkpt>
        <trkpt lat="50.7399165" lon="15.7257711"><ele>1392.8</ele></trkpt>
        <trkpt lat="50.7398828" lon="15.7258944"><ele>1392.8</ele></trkpt>
        <trkpt lat="50.7398495" lon="15.7260243"><ele>1392.8</ele></trkpt>
        <trkpt lat="50.7398277" lon="15.7261631"><ele>1393.9</ele></trkpt>
        <trkpt lat="50.7398169" lon="15.7263108"><ele>1393.9</ele></trkpt>
        <trkpt lat="50.7397912" lon="15.7266681"><ele>1394.0</ele></trkpt>
        <trkpt lat="50.7397856" lon="15.7268556"><ele>1394.0</ele></trkpt>
        <trkpt lat="50.7397800" lon="15.7270422"><ele>1394.0</ele></trkpt>
        <trkpt lat="50.7397669" lon="15.7272926"><ele>1394.0</ele></trkpt>
        <trkpt lat="50.7397476" lon="15.7275104"><ele>1392.8</ele></trkpt>
        <trkpt lat="50.7397090" lon="15.7276823"><ele>1392.8</ele></trkpt>
        <trkpt lat="50.7396557" lon="15.7278433"><ele>1391.7</ele></trkpt>
        <trkpt lat="50.7394794" lon="15.7283379"><ele>1391.7</ele></trkpt>
        <trkpt lat="50.7393864" lon="15.7286167"><ele>1391.7</ele></trkpt>
        <trkpt lat="50.7392841" lon="15.7289070"><ele>1392.1</ele></trkpt>
        <trkpt lat="50.7394032" lon="15.7290070"><ele>1392.1</ele></trkpt>
        <trkpt lat="50.7392841" lon="15.7289070"><ele>1392.1</ele></trkpt>
        <trkpt lat="50.7392217" lon="15.7290843"><ele>1392.1</ele></trkpt>
        <trkpt lat="50.7391727" lon="15.7292098"><ele>1392.1</ele></trkpt>
        <trkpt lat="50.7389049" lon="15.7299665"><ele>1392.0</ele></trkpt>
        <trkpt lat="50.7387953" lon="15.7302762"><ele>1394.5</ele></trkpt>
        <trkpt lat="50.7387355" lon="15.7304504"><ele>1394.5</ele></trkpt>
        <trkpt lat="50.7387075" lon="15.7305360"><ele>1397.1</ele></trkpt>
        <trkpt lat="50.7386828" lon="15.7305892"><ele>1397.1</ele></trkpt>
        <trkpt lat="50.7386458" lon="15.7306571"><ele>1397.1</ele></trkpt>
        <trkpt lat="50.7385982" lon="15.7307279"><ele>1397.1</ele></trkpt>
        <trkpt lat="50.7385141" lon="15.7308121"><ele>1400.7</ele></trkpt>
        <trkpt lat="50.7384112" lon="15.7309158"><ele>1400.7</ele></trkpt>
        <trkpt lat="50.7382646" lon="15.7310454"><ele>1404.2</ele></trkpt>
        <trkpt lat="50.7381908" lon="15.7311177"><ele>1404.2</ele></trkpt>
        <trkpt lat="50.7381511" lon="15.7311659"><ele>1407.9</ele></trkpt>
        <trkpt lat="50.7381187" lon="15.7312145"><ele>1407.9</ele></trkpt>
        <trkpt lat="50.7380848" lon="15.7312836"><ele>1407.9</ele></trkpt>
        <trkpt lat="50.7380430" lon="15.7313902"><ele>1407.9</ele></trkpt>
        <trkpt lat="50.7380130" lon="15.7314040"><ele>1410.0</ele></trkpt>
        <trkpt lat="50.7379404" lon="15.7314451"><ele>1410.0</ele></trkpt>
        <trkpt lat="50.7377574" lon="15.7316347"><ele>1411.5</ele></trkpt>
        <trkpt lat="50.7376835" lon="15.7317784"><ele>1411.5</ele></trkpt>
        <trkpt lat="50.7374383" lon="15.7320790"><ele>1417.8</ele></trkpt>
        <trkpt lat="50.7373093" lon="15.7322293"><ele>1417.8</ele></trkpt>
        <trkpt lat="50.7371915" lon="15.7323772"><ele>1422.1</ele></trkpt>
        <trkpt lat="50.7371275" lon="15.7324492"><ele>1422.1</ele></trkpt>
        <trkpt lat="50.7370635" lon="15.7325238"><ele>1427.6</ele></trkpt>
        <trkpt lat="50.7370182" lon="15.7325747"><ele>1427.6</ele></trkpt>
        <trkpt lat="50.7369807" lon="15.7326175"><ele>1427.6</ele></trkpt>
        <trkpt lat="50.7369524" lon="15.7326532"><ele>1427.6</ele></trkpt>
        <trkpt lat="50.7368926" lon="15.7327639"><ele>1434.3</ele></trkpt>
        <trkpt lat="50.7368877" lon="15.7327993"><ele>1434.3</ele></trkpt>
        <trkpt lat="50.7368480" lon="15.7328852"><ele>1434.3</ele></trkpt>
        <trkpt lat="50.7368280" lon="15.7329301"><ele>1434.3</ele></trkpt>
        <trkpt lat="50.7368208" lon="15.7329559"><ele>1434.3</ele></trkpt>
        <trkpt lat="50.7368196" lon="15.7329979"><ele>1441.6</ele></trkpt>
        <trkpt lat="50.7368163" lon="15.7330709"><ele>1441.6</ele></trkpt>
        <trkpt lat="50.7368151" lon="15.7332003"><ele>1441.6</ele></trkpt>
        <trkpt lat="50.7368176" lon="15.7334644"><ele>1450.1</ele></trkpt>
        <trkpt lat="50.7368148" lon="15.7335011"><ele>1450.1</ele></trkpt>
        <trkpt lat="50.7368107" lon="15.7335176"><ele>1450.1</ele></trkpt>
        <trkpt lat="50.7368000" lon="15.7335324"><ele>1450.1</ele></trkpt>
        <trkpt lat="50.7367884" lon="15.7335370"><ele>1450.1</ele></trkpt>
        <trkpt lat="50.7367644" lon="15.7335195"><ele>1450.1</ele></trkpt>
        <trkpt lat="50.7367409" lon="15.7335047"><ele>1450.1</ele></trkpt>
        <trkpt lat="50.7367232" lon="15.7334971"><ele>1450.1</ele></trkpt>
        <trkpt lat="50.7367095" lon="15.7335016"><ele>1450.1</ele></trkpt>
        <trkpt lat="50.7367044" lon="15.7335171"><ele>1450.1</ele></trkpt>
        <trkpt lat="50.7367051" lon="15.7335325"><ele>1457.4</ele></trkpt>
        <trkpt lat="50.7367042" lon="15.7335891"><ele>1457.4</ele></trkpt>
        <trkpt lat="50.7367080" lon="15.7337037"><ele>1457.4</ele></trkpt>
        <trkpt lat="50.7367164" lon="15.7338851"><ele>1463.9</ele></trkpt>
        <trkpt lat="50.7367275" lon="15.7340710"><ele>1463.9</ele></trkpt>
        <trkpt lat="50.7367377" lon="15.7342662"><ele>1469.8</ele></trkpt>
        <trkpt lat="50.7367435" lon="15.7344771"><ele>1469.8</ele></trkpt>
        <trkpt lat="50.7367544" lon="15.7346342"><ele>1476.4</ele></trkpt>
        <trkpt lat="50.7367619" lon="15.7347166"><ele>1476.4</ele></trkpt>
        <trkpt lat="50.7367656" lon="15.7347988"><ele>1476.4</ele></trkpt>
        <trkpt lat="50.7367640" lon="15.7348145"><ele>1476.4</ele></trkpt>
        <trkpt lat="50.7367598" lon="15.7348226"><ele>1476.4</ele></trkpt>
        <trkpt lat="50.7367513" lon="15.7348202"><ele>1476.4</ele></trkpt>
        <trkpt lat="50.7367447" lon="15.7348121"><ele>1476.4</ele></trkpt>
        <trkpt lat="50.7367252" lon="15.7347891"><ele>1476.4</ele></trkpt>
        <trkpt lat="50.7367044" lon="15.7347566"><ele>1476.4</ele></trkpt>
        <trkpt lat="50.7366512" lon="15.7346797"><ele>1480.5</ele></trkpt>
        <trkpt lat="50.7365998" lon="15.7346184"><ele>1480.5</ele></trkpt>
        <trkpt lat="50.7365457" lon="15.7345843"><ele>1481.2</ele></trkpt>
        <trkpt lat="50.7364913" lon="15.7345413"><ele>1481.2</ele></trkpt>
        <trkpt lat="50.7363911" lon="15.7344968"><ele>1481.2</ele></trkpt>
        <trkpt lat="50.7362906" lon="15.7344439"><ele>1481.4</ele></trkpt>
        <trkpt lat="50.7361805" lon="15.7344038"><ele>1481.4</ele></trkpt>
        <trkpt lat="50.7361488" lon="15.7343992"><ele>1481.4</ele></trkpt>
        <trkpt lat="50.7361305" lon="15.7344095"><ele>1481.4</ele></trkpt>
        <trkpt lat="50.7361227" lon="15.7344378"><ele>1481.4</ele></trkpt>
        <trkpt lat="50.7361229" lon="15.7344986"><ele>1484.8</ele></trkpt>
        <trkpt lat="50.7361313" lon="15.7345474"><ele>1484.8</ele></trkpt>
        <trkpt lat="50.7361522" lon="15.7345803"><ele>1484.8</ele></trkpt>
        <trkpt lat="50.7361757" lon="15.7346267"><ele>1484.8</ele></trkpt>
        <trkpt lat="50.7362114" lon="15.7346952"><ele>1484.8</ele></trkpt>
        <trkpt lat="50.7362417" lon="15.7347786"><ele>1492.4</ele></trkpt>
        <trkpt lat="50.7362856" lon="15.7348692"><ele>1492.4</ele></trkpt>
        <trkpt lat="50.7363162" lon="15.7349609"><ele>1492.4</ele></trkpt>
        <trkpt lat="50.7363279" lon="15.7350245"><ele>1492.4</ele></trkpt>
        <trkpt lat="50.7363362" lon="15.7350877"><ele>1500.3</ele></trkpt>
        <trkpt lat="50.7363402" lon="15.7352910"><ele>1500.3</ele></trkpt>
        <trkpt lat="50.7363406" lon="15.7354691"><ele>1506.7</ele></trkpt>
        <trkpt lat="50.7363399" lon="15.7357889"><ele>1508.1</ele></trkpt>
        <trkpt lat="50.7363341" lon="15.7358002"><ele>1508.1</ele></trkpt>
        <trkpt lat="50.7363267" lon="15.7358004"><ele>1508.1</ele></trkpt>
        <trkpt lat="50.7363111" lon="15.7357876"><ele>1508.1</ele></trkpt>
        <trkpt lat="50.7362874" lon="15.7357674"><ele>1508.1</ele></trkpt>
        <trkpt lat="50.7362642" lon="15.7357684"><ele>1508.1</ele></trkpt>
        <trkpt lat="50.7362300" lon="15.7357737"><ele>1508.1</ele></trkpt>
        <trkpt lat="50.7362269" lon="15.7357906"><ele>1508.1</ele></trkpt>
        <trkpt lat="50.7362250" lon="15.7358080"><ele>1508.1</ele></trkpt>
        <trkpt lat="50.7362293" lon="15.7358294"><ele>1508.1</ele></trkpt>
        <trkpt lat="50.7362622" lon="15.7360678"><ele>1513.4</ele></trkpt>
        <trkpt lat="50.7362971" lon="15.7362771"><ele>1523.2</ele></trkpt>
        <trkpt lat="50.7363505" lon="15.7365666"><ele>1523.2</ele></trkpt>
        <trkpt lat="50.7364196" lon="15.7368757"><ele>1536.3</ele></trkpt>
        <trkpt lat="50.7364378" lon="15.7369829"><ele>1548.9</ele></trkpt>
        <trkpt lat="50.7364602" lon="15.7371414"><ele>1548.9</ele></trkpt>
        <trkpt lat="50.7364673" lon="15.7373034"><ele>1559.2</ele></trkpt>
        <trkpt lat="50.7364724" lon="15.7374595"><ele>1559.2</ele></trkpt>
        <trkpt lat="50.7364594" lon="15.7375610"><ele>1559.2</ele></trkpt>
        <trkpt lat="50.7364481" lon="15.7376616"><ele>1567.9</ele></trkpt>
        <trkpt lat="50.7364359" lon="15.7377872"><ele>1567.9</ele></trkpt>
        <trkpt lat="50.7364249" lon="15.7379169"><ele>1567.9</ele></trkpt>
        <trkpt lat="50.7364293" lon="15.7380616"><ele>1575.8</ele></trkpt>
        <trkpt lat="50.7364266" lon="15.7381949"><ele>1575.8</ele></trkpt>
        <trkpt lat="50.7364258" lon="15.7384455"><ele>1582.9</ele></trkpt>
        <trkpt lat="50.7364140" lon="15.7386182"><ele>1582.9</ele></trkpt>
        <trkpt lat="50.7364043" lon="15.7387088"><ele>1588.5</ele></trkpt>
        <trkpt lat="50.7363872" lon="15.7388606"><ele>1588.5</ele></trkpt>
        <trkpt lat="50.7363636" lon="15.7390260"><ele>1593.8</ele></trkpt>
        <trkpt lat="50.7363008" lon="15.7393596"><ele>1594.2</ele></trkpt>
        <trkpt lat="50.7362857" lon="15.7394372"><ele>1594.2</ele></trkpt>
        <trkpt lat="50.7362246" lon="15.7394732"><ele>1594.2</ele></trkpt>
        <trkpt lat="50.7361148" lon="15.7395311"><ele>1594.2</ele></trkpt>
    </trkseg>
  </trk>
</gpx>
