<?xml version="1.0" encoding="UTF-8"?>
<gpx version="1.1" creator="wdobrymkierunku.eu — 04-sniezka" xmlns="http://www.topografix.com/GPX/1/1">
  <metadata>
    <name>Karpacz → Łomniczka → Śnieżka</name>
    <desc>5.6 km, suma podejść ok. 886 m (liczby jak w odcinku; z samej geometrii OSM/DEM wychodzi 5.6 km i +886 m). Geometria: OpenStreetMap (ODbL). Wysokości: GUGiK / ČÚZK.</desc>
    <copyright author="OpenStreetMap contributors"><license>https://opendatacommons.org/licenses/odbl/</license></copyright>
  </metadata>
  <trk>
    <name>Karpacz → Łomniczka → Śnieżka</name>
    <desc>5.6 km, suma podejść ok. 886 m (liczby jak w odcinku; z samej geometrii OSM/DEM wychodzi 5.6 km i +886 m). Geometria: OpenStreetMap (ODbL). Wysokości: GUGiK / ČÚZK.</desc>
    <trkseg>
        <trkpt lat="50.7636029" lon="15.7621335"><ele>709.5</ele></trkpt>
        <trkpt lat="50.7635778" lon="15.7621857"><ele>709.5</ele></trkpt>
        <trkpt lat="50.7634314" lon="15.7621810"><ele>713.2</ele></trkpt>
        <trkpt lat="50.7632075" lon="15.7621273"><ele>713.2</ele></trkpt>
        <trkpt lat="50.7629030" lon="15.7620241"><ele>718.5</ele></trkpt>
        <trkpt lat="50.7626984" lon="15.7619967"><ele>723.3</ele></trkpt>
        <trkpt lat="50.7624644" lon="15.7619503"><ele>726.6</ele></trkpt>
        <trkpt lat="50.7623270" lon="15.7619423"><ele>729.8</ele></trkpt>
        <trkpt lat="50.7619893" lon="15.7619208"><ele>732.2</ele></trkpt>
        <trkpt lat="50.7615441" lon="15.7618443"><ele>734.9</ele></trkpt>
        <trkpt lat="50.7611308" lon="15.7618242"><ele>737.9</ele></trkpt>
        <trkpt lat="50.7602469" lon="15.7618457"><ele>745.1</ele></trkpt>
        <trkpt lat="50.7600925" lon="15.7618618"><ele>748.0</ele></trkpt>
        <trkpt lat="50.7600009" lon="15.7619074"><ele>748.0</ele></trkpt>
        <trkpt lat="50.7599092" lon="15.7619932"><ele>748.9</ele></trkpt>
        <trkpt lat="50.7597362" lon="15.7620925"><ele>748.9</ele></trkpt>
        <trkpt lat="50.7596446" lon="15.7621461"><ele>750.1</ele></trkpt>
        <trkpt lat="50.7595275" lon="15.7621998"><ele>750.1</ele></trkpt>
        <trkpt lat="50.7594698" lon="15.7622024"><ele>752.7</ele></trkpt>
        <trkpt lat="50.7594247" lon="15.7621793"><ele>752.7</ele></trkpt>
        <trkpt lat="50.7592815" lon="15.7620951"><ele>755.4</ele></trkpt>
        <trkpt lat="50.7591209" lon="15.7619576"><ele>755.4</ele></trkpt>
        <trkpt lat="50.7590311" lon="15.7618531"><ele>758.2</ele></trkpt>
        <trkpt lat="50.7584336" lon="15.7610848"><ele>765.4</ele></trkpt>
        <trkpt lat="50.7584518" lon="15.7608130"><ele>765.9</ele></trkpt>
        <trkpt lat="50.7584783" lon="15.7605387"><ele>766.6</ele></trkpt>
        <trkpt lat="50.7585170" lon="15.7602379"><ele>766.6</ele></trkpt>
        <trkpt lat="50.7585839" lon="15.7597614"><ele>768.0</ele></trkpt>
        <trkpt lat="50.7586494" lon="15.7591627"><ele>771.9</ele></trkpt>
        <trkpt lat="50.7585739" lon="15.7590777"><ele>771.9</ele></trkpt>
        <trkpt lat="50.7585179" lon="15.7590187"><ele>775.2</ele></trkpt>
        <trkpt lat="50.7584382" lon="15.7589757"><ele>775.2</ele></trkpt>
        <trkpt lat="50.7583381" lon="15.7589650"><ele>775.2</ele></trkpt>
        <trkpt lat="50.7582023" lon="15.7589570"><ele>777.9</ele></trkpt>
        <trkpt lat="50.7580937" lon="15.7589355"><ele>777.9</ele></trkpt>
        <trkpt lat="50.7580191" lon="15.7589140"><ele>779.7</ele></trkpt>
        <trkpt lat="50.7579553" lon="15.7588768"><ele>779.7</ele></trkpt>
        <trkpt lat="50.7572968" lon="15.7581666"><ele>786.3</ele></trkpt>
        <trkpt lat="50.7569168" lon="15.7578535"><ele>794.6</ele></trkpt>
        <trkpt lat="50.7566990" lon="15.7577151"><ele>798.2</ele></trkpt>
        <trkpt lat="50.7566175" lon="15.7576829"><ele>798.2</ele></trkpt>
        <trkpt lat="50.7564343" lon="15.7574898"><ele>801.1</ele></trkpt>
        <trkpt lat="50.7563308" lon="15.7574120"><ele>801.1</ele></trkpt>
        <trkpt lat="50.7562476" lon="15.7573718"><ele>803.5</ele></trkpt>
        <trkpt lat="50.7560675" lon="15.7572003"><ele>805.9</ele></trkpt>
        <trkpt lat="50.7558339" lon="15.7567659"><ele>809.8</ele></trkpt>
        <trkpt lat="50.7556571" lon="15.7564813"><ele>816.4</ele></trkpt>
        <trkpt lat="50.7554739" lon="15.7562372"><ele>819.7</ele></trkpt>
        <trkpt lat="50.7553297" lon="15.7561085"><ele>819.7</ele></trkpt>
        <trkpt lat="50.7552329" lon="15.7560119"><ele>822.8</ele></trkpt>
        <trkpt lat="50.7551549" lon="15.7558966"><ele>822.8</ele></trkpt>
        <trkpt lat="50.7550632" lon="15.7557866"><ele>826.2</ele></trkpt>
        <trkpt lat="50.7549224" lon="15.7556686"><ele>830.3</ele></trkpt>
        <trkpt lat="50.7547951" lon="15.7555640"><ele>830.3</ele></trkpt>
        <trkpt lat="50.7546848" lon="15.7554146"><ele>833.5</ele></trkpt>
        <trkpt lat="50.7542975" lon="15.7547464"><ele>841.8</ele></trkpt>
        <trkpt lat="50.7539433" lon="15.7542121"><ele>853.9</ele></trkpt>
        <trkpt lat="50.7536582" lon="15.7537910"><ele>857.5</ele></trkpt>
        <trkpt lat="50.7535903" lon="15.7537079"><ele>860.1</ele></trkpt>
        <trkpt lat="50.7534834" lon="15.7535630"><ele>860.1</ele></trkpt>
        <trkpt lat="50.7533537" lon="15.7533757"><ele>862.1</ele></trkpt>
        <trkpt lat="50.7532119" lon="15.7531902"><ele>865.7</ele></trkpt>
        <trkpt lat="50.7531407" lon="15.7531178"><ele>865.7</ele></trkpt>
        <trkpt lat="50.7530338" lon="15.7529166"><ele>869.2</ele></trkpt>
        <trkpt lat="50.7529133" lon="15.7526323"><ele>873.1</ele></trkpt>
        <trkpt lat="50.7527622" lon="15.7523507"><ele>876.7</ele></trkpt>
        <trkpt lat="50.7526412" lon="15.7520768"><ele>880.9</ele></trkpt>
        <trkpt lat="50.7525484" lon="15.7518276"><ele>883.4</ele></trkpt>
        <trkpt lat="50.7525009" lon="15.7516292"><ele>883.4</ele></trkpt>
        <trkpt lat="50.7524279" lon="15.7514307"><ele>887.4</ele></trkpt>
        <trkpt lat="50.7523414" lon="15.7512322"><ele>890.8</ele></trkpt>
        <trkpt lat="50.7522447" lon="15.7510444"><ele>890.8</ele></trkpt>
        <trkpt lat="50.7521615" lon="15.7508352"><ele>896.1</ele></trkpt>
        <trkpt lat="50.7520139" lon="15.7504043"><ele>901.9</ele></trkpt>
        <trkpt lat="50.7516493" lon="15.7495131"><ele>912.5</ele></trkpt>
        <trkpt lat="50.7513443" lon="15.7488947"><ele>927.7</ele></trkpt>
        <trkpt lat="50.7510927" lon="15.7484079"><ele>932.6</ele></trkpt>
        <trkpt lat="50.7507926" lon="15.7479324"><ele>943.4</ele></trkpt>
        <trkpt lat="50.7501242" lon="15.7470327"><ele>960.0</ele></trkpt>
        <trkpt lat="50.7499367" lon="15.7467717"><ele>965.0</ele></trkpt>
        <trkpt lat="50.7498739" lon="15.7466188"><ele>969.4</ele></trkpt>
        <trkpt lat="50.7498129" lon="15.7463832"><ele>973.5</ele></trkpt>
        <trkpt lat="50.7495396" lon="15.7458275"><ele>979.6</ele></trkpt>
        <trkpt lat="50.7490918" lon="15.7450910"><ele>985.6</ele></trkpt>
        <trkpt lat="50.7487406" lon="15.7445958"><ele>993.8</ele></trkpt>
        <trkpt lat="50.7486259" lon="15.7443629"><ele>999.1</ele></trkpt>
        <trkpt lat="50.7485171" lon="15.7442280"><ele>1002.5</ele></trkpt>
        <trkpt lat="50.7484027" lon="15.7440425"><ele>1006.0</ele></trkpt>
        <trkpt lat="50.7483248" lon="15.7438775"><ele>1006.0</ele></trkpt>
        <trkpt lat="50.7482697" lon="15.7437154"><ele>1010.8</ele></trkpt>
        <trkpt lat="50.7481744" lon="15.7434096"><ele>1016.3</ele></trkpt>
        <trkpt lat="50.7481285" lon="15.7432446"><ele>1016.3</ele></trkpt>
        <trkpt lat="50.7480753" lon="15.7430930"><ele>1020.0</ele></trkpt>
        <trkpt lat="50.7480473" lon="15.7429640"><ele>1020.0</ele></trkpt>
        <trkpt lat="50.7480215" lon="15.7428780"><ele>1020.0</ele></trkpt>
        <trkpt lat="50.7479776" lon="15.7427633"><ele>1021.4</ele></trkpt>
        <trkpt lat="50.7479288" lon="15.7426566"><ele>1021.4</ele></trkpt>
        <trkpt lat="50.7478936" lon="15.7425641"><ele>1021.4</ele></trkpt>
        <trkpt lat="50.7478430" lon="15.7424570"><ele>1023.9</ele></trkpt>
        <trkpt lat="50.7477279" lon="15.7422744"><ele>1023.9</ele></trkpt>
        <trkpt lat="50.7476473" lon="15.7421266"><ele>1026.9</ele></trkpt>
        <trkpt lat="50.7475946" lon="15.7419965"><ele>1026.9</ele></trkpt>
        <trkpt lat="50.7475614" lon="15.7419124"><ele>1030.4</ele></trkpt>
        <trkpt lat="50.7475404" lon="15.7418158"><ele>1030.4</ele></trkpt>
        <trkpt lat="50.7475058" lon="15.7416498"><ele>1034.9</ele></trkpt>
        <trkpt lat="50.7474735" lon="15.7414406"><ele>1034.9</ele></trkpt>
        <trkpt lat="50.7474265" lon="15.7411341"><ele>1038.2</ele></trkpt>
        <trkpt lat="50.7474198" lon="15.7410037"><ele>1038.2</ele></trkpt>
        <trkpt lat="50.7474086" lon="15.7409241"><ele>1041.2</ele></trkpt>
        <trkpt lat="50.7473995" lon="15.7408727"><ele>1041.2</ele></trkpt>
        <trkpt lat="50.7473714" lon="15.7408140"><ele>1041.2</ele></trkpt>
        <trkpt lat="50.7473371" lon="15.7407219"><ele>1041.2</ele></trkpt>
        <trkpt lat="50.7473139" lon="15.7405940"><ele>1045.2</ele></trkpt>
        <trkpt lat="50.7473017" lon="15.7404926"><ele>1045.2</ele></trkpt>
        <trkpt lat="50.7472884" lon="15.7403825"><ele>1045.2</ele></trkpt>
        <trkpt lat="50.7472731" lon="15.7402814"><ele>1050.3</ele></trkpt>
        <trkpt lat="50.7472616" lon="15.7402346"><ele>1050.3</ele></trkpt>
        <trkpt lat="50.7472339" lon="15.7401788"><ele>1050.3</ele></trkpt>
        <trkpt lat="50.7472129" lon="15.7401079"><ele>1050.3</ele></trkpt>
        <trkpt lat="50.7471926" lon="15.7400341"><ele>1050.3</ele></trkpt>
        <trkpt lat="50.7471585" lon="15.7399419"><ele>1053.9</ele></trkpt>
        <trkpt lat="50.7471118" lon="15.7398529"><ele>1053.9</ele></trkpt>
        <trkpt lat="50.7470736" lon="15.7397594"><ele>1053.9</ele></trkpt>
        <trkpt lat="50.7470370" lon="15.7396540"><ele>1057.5</ele></trkpt>
        <trkpt lat="50.7470029" lon="15.7395662"><ele>1057.5</ele></trkpt>
        <trkpt lat="50.7469733" lon="15.7394863"><ele>1057.5</ele></trkpt>
        <trkpt lat="50.7469374" lon="15.7393651"><ele>1059.8</ele></trkpt>
        <trkpt lat="50.7468788" lon="15.7392328"><ele>1059.8</ele></trkpt>
        <trkpt lat="50.7468176" lon="15.7390997"><ele>1059.8</ele></trkpt>
        <trkpt lat="50.7467415" lon="15.7389553"><ele>1061.0</ele></trkpt>
        <trkpt lat="50.7466956" lon="15.7388785"><ele>1061.0</ele></trkpt>
        <trkpt lat="50.7466591" lon="15.7387934"><ele>1062.4</ele></trkpt>
        <trkpt lat="50.7465775" lon="15.7386481"><ele>1062.4</ele></trkpt>
        <trkpt lat="50.7465051" lon="15.7385062"><ele>1063.8</ele></trkpt>
        <trkpt lat="50.7464566" lon="15.7383654"><ele>1063.8</ele></trkpt>
        <trkpt lat="50.7464128" lon="15.7382320"><ele>1069.6</ele></trkpt>
        <trkpt lat="50.7463373" lon="15.7380165"><ele>1069.6</ele></trkpt>
        <trkpt lat="50.7462582" lon="15.7378053"><ele>1075.5</ele></trkpt>
        <trkpt lat="50.7461487" lon="15.7375848"><ele>1080.5</ele></trkpt>
        <trkpt lat="50.7460436" lon="15.7373860"><ele>1080.5</ele></trkpt>
        <trkpt lat="50.7459563" lon="15.7372805"><ele>1086.5</ele></trkpt>
        <trkpt lat="50.7459044" lon="15.7371694"><ele>1086.5</ele></trkpt>
        <trkpt lat="50.7458441" lon="15.7370860"><ele>1090.6</ele></trkpt>
        <trkpt lat="50.7457741" lon="15.7369881"><ele>1090.6</ele></trkpt>
        <trkpt lat="50.7457117" lon="15.7369029"><ele>1090.6</ele></trkpt>
        <trkpt lat="50.7456560" lon="15.7368109"><ele>1093.4</ele></trkpt>
        <trkpt lat="50.7456115" lon="15.7367576"><ele>1093.4</ele></trkpt>
        <trkpt lat="50.7455668" lon="15.7367078"><ele>1093.4</ele></trkpt>
        <trkpt lat="50.7455041" lon="15.7366264"><ele>1096.4</ele></trkpt>
        <trkpt lat="50.7454408" lon="15.7365354"><ele>1096.4</ele></trkpt>
        <trkpt lat="50.7453603" lon="15.7364365"><ele>1096.4</ele></trkpt>
        <trkpt lat="50.7452776" lon="15.7363443"><ele>1098.2</ele></trkpt>
        <trkpt lat="50.7452111" lon="15.7362615"><ele>1098.2</ele></trkpt>
        <trkpt lat="50.7451465" lon="15.7361731"><ele>1100.6</ele></trkpt>
        <trkpt lat="50.7450937" lon="15.7360599"><ele>1100.6</ele></trkpt>
        <trkpt lat="50.7450349" lon="15.7359393"><ele>1103.7</ele></trkpt>
        <trkpt lat="50.7449411" lon="15.7357287"><ele>1103.7</ele></trkpt>
        <trkpt lat="50.7448768" lon="15.7356049"><ele>1106.0</ele></trkpt>
        <trkpt lat="50.7448385" lon="15.7355350"><ele>1106.0</ele></trkpt>
        <trkpt lat="50.7447924" lon="15.7354644"><ele>1106.0</ele></trkpt>
        <trkpt lat="50.7447291" lon="15.7353654"><ele>1107.5</ele></trkpt>
        <trkpt lat="50.7446617" lon="15.7352656"><ele>1107.5</ele></trkpt>
        <trkpt lat="50.7446112" lon="15.7351673"><ele>1107.5</ele></trkpt>
        <trkpt lat="50.7445685" lon="15.7350912"><ele>1109.5</ele></trkpt>
        <trkpt lat="50.7445185" lon="15.7350005"><ele>1109.5</ele></trkpt>
        <trkpt lat="50.7444760" lon="15.7349258"><ele>1109.5</ele></trkpt>
        <trkpt lat="50.7444276" lon="15.7348537"><ele>1109.6</ele></trkpt>
        <trkpt lat="50.7443735" lon="15.7347663"><ele>1109.6</ele></trkpt>
        <trkpt lat="50.7443531" lon="15.7347658"><ele>1109.6</ele></trkpt>
        <trkpt lat="50.7443194" lon="15.7347733"><ele>1109.6</ele></trkpt>
        <trkpt lat="50.7442601" lon="15.7347588"><ele>1109.6</ele></trkpt>
        <trkpt lat="50.7441683" lon="15.7347443"><ele>1110.8</ele></trkpt>
        <trkpt lat="50.7441237" lon="15.7347063"><ele>1110.8</ele></trkpt>
        <trkpt lat="50.7440520" lon="15.7345321"><ele>1114.6</ele></trkpt>
        <trkpt lat="50.7437989" lon="15.7338771"><ele>1123.9</ele></trkpt>
        <trkpt lat="50.7437685" lon="15.7337982"><ele>1123.9</ele></trkpt>
        <trkpt lat="50.7437260" lon="15.7337245"><ele>1123.9</ele></trkpt>
        <trkpt lat="50.7436883" lon="15.7336495"><ele>1130.1</ele></trkpt>
        <trkpt lat="50.7436395" lon="15.7335592"><ele>1130.1</ele></trkpt>
        <trkpt lat="50.7436017" lon="15.7334834"><ele>1130.1</ele></trkpt>
        <trkpt lat="50.7435606" lon="15.7334077"><ele>1135.2</ele></trkpt>
        <trkpt lat="50.7435178" lon="15.7333624"><ele>1135.2</ele></trkpt>
        <trkpt lat="50.7434640" lon="15.7332903"><ele>1135.2</ele></trkpt>
        <trkpt lat="50.7434174" lon="15.7332221"><ele>1135.2</ele></trkpt>
        <trkpt lat="50.7433167" lon="15.7331193"><ele>1140.8</ele></trkpt>
        <trkpt lat="50.7432473" lon="15.7330407"><ele>1140.8</ele></trkpt>
        <trkpt lat="50.7431802" lon="15.7329708"><ele>1148.2</ele></trkpt>
        <trkpt lat="50.7431292" lon="15.7329326"><ele>1148.2</ele></trkpt>
        <trkpt lat="50.7431211" lon="15.7329265"><ele>1148.2</ele></trkpt>
        <trkpt lat="50.7430826" lon="15.7328935"><ele>1148.2</ele></trkpt>
        <trkpt lat="50.7430326" lon="15.7328465"><ele>1148.2</ele></trkpt>
        <trkpt lat="50.7430076" lon="15.7328145"><ele>1154.9</ele></trkpt>
        <trkpt lat="50.7429773" lon="15.7327889"><ele>1154.9</ele></trkpt>
        <trkpt lat="50.7429315" lon="15.7327608"><ele>1154.9</ele></trkpt>
        <trkpt lat="50.7428522" lon="15.7326847"><ele>1154.9</ele></trkpt>
        <trkpt lat="50.7427896" lon="15.7326139"><ele>1161.9</ele></trkpt>
        <trkpt lat="50.7427464" lon="15.7325558"><ele>1161.9</ele></trkpt>
        <trkpt lat="50.7427119" lon="15.7325158"><ele>1161.9</ele></trkpt>
        <trkpt lat="50.7426876" lon="15.7324710"><ele>1161.9</ele></trkpt>
        <trkpt lat="50.7426575" lon="15.7324457"><ele>1161.9</ele></trkpt>
        <trkpt lat="50.7426100" lon="15.7324490"><ele>1164.1</ele></trkpt>
        <trkpt lat="50.7425592" lon="15.7324741"><ele>1164.1</ele></trkpt>
        <trkpt lat="50.7424657" lon="15.7325351"><ele>1164.1</ele></trkpt>
        <trkpt lat="50.7424162" lon="15.7325574"><ele>1166.5</ele></trkpt>
        <trkpt lat="50.7423629" lon="15.7325713"><ele>1166.5</ele></trkpt>
        <trkpt lat="50.7423379" lon="15.7325638"><ele>1166.5</ele></trkpt>
        <trkpt lat="50.7423130" lon="15.7325702"><ele>1166.5</ele></trkpt>
        <trkpt lat="50.7422858" lon="15.7326160"><ele>1166.5</ele></trkpt>
        <trkpt lat="50.7421817" lon="15.7326710"><ele>1172.8</ele></trkpt>
        <trkpt lat="50.7421418" lon="15.7326837"><ele>1172.8</ele></trkpt>
        <trkpt lat="50.7420458" lon="15.7326473"><ele>1172.8</ele></trkpt>
        <trkpt lat="50.7419804" lon="15.7326628"><ele>1185.3</ele></trkpt>
        <trkpt lat="50.7418695" lon="15.7327224"><ele>1185.3</ele></trkpt>
        <trkpt lat="50.7418393" lon="15.7327728"><ele>1185.3</ele></trkpt>
        <trkpt lat="50.7417830" lon="15.7328072"><ele>1195.7</ele></trkpt>
        <trkpt lat="50.7416853" lon="15.7328350"><ele>1195.7</ele></trkpt>
        <trkpt lat="50.7416437" lon="15.7328857"><ele>1195.7</ele></trkpt>
        <trkpt lat="50.7415417" lon="15.7329482"><ele>1204.3</ele></trkpt>
        <trkpt lat="50.7415155" lon="15.7329356"><ele>1204.3</ele></trkpt>
        <trkpt lat="50.7415073" lon="15.7329084"><ele>1204.3</ele></trkpt>
        <trkpt lat="50.7415892" lon="15.7326582"><ele>1208.7</ele></trkpt>
        <trkpt lat="50.7415907" lon="15.7326288"><ele>1208.7</ele></trkpt>
        <trkpt lat="50.7415790" lon="15.7326268"><ele>1208.7</ele></trkpt>
        <trkpt lat="50.7415186" lon="15.7326766"><ele>1208.7</ele></trkpt>
        <trkpt lat="50.7414487" lon="15.7327623"><ele>1209.0</ele></trkpt>
        <trkpt lat="50.7413548" lon="15.7329072"><ele>1209.0</ele></trkpt>
        <trkpt lat="50.7412900" lon="15.7329870"><ele>1209.0</ele></trkpt>
        <trkpt lat="50.7411903" lon="15.7331499"><ele>1210.4</ele></trkpt>
        <trkpt lat="50.7411265" lon="15.7332367"><ele>1211.7</ele></trkpt>
        <trkpt lat="50.7410914" lon="15.7332751"><ele>1211.7</ele></trkpt>
        <trkpt lat="50.7410413" lon="15.7332998"><ele>1211.7</ele></trkpt>
        <trkpt lat="50.7409454" lon="15.7333310"><ele>1211.7</ele></trkpt>
        <trkpt lat="50.7408561" lon="15.7333546"><ele>1218.5</ele></trkpt>
        <trkpt lat="50.7407678" lon="15.7333627"><ele>1218.5</ele></trkpt>
        <trkpt lat="50.7405063" lon="15.7333315"><ele>1227.3</ele></trkpt>
        <trkpt lat="50.7404428" lon="15.7333143"><ele>1234.3</ele></trkpt>
        <trkpt lat="50.7404281" lon="15.7332789"><ele>1234.3</ele></trkpt>
        <trkpt lat="50.7404155" lon="15.7332262"><ele>1234.3</ele></trkpt>
        <trkpt lat="50.7403911" lon="15.7330508"><ele>1234.3</ele></trkpt>
        <trkpt lat="50.7403831" lon="15.7330256"><ele>1234.7</ele></trkpt>
        <trkpt lat="50.7403868" lon="15.7329584"><ele>1234.7</ele></trkpt>
        <trkpt lat="50.7404422" lon="15.7329042"><ele>1234.7</ele></trkpt>
        <trkpt lat="50.7405901" lon="15.7327407"><ele>1235.7</ele></trkpt>
        <trkpt lat="50.7405949" lon="15.7327298"><ele>1235.7</ele></trkpt>
        <trkpt lat="50.7405711" lon="15.7324254"><ele>1240.8</ele></trkpt>
        <trkpt lat="50.7405817" lon="15.7323884"><ele>1240.8</ele></trkpt>
        <trkpt lat="50.7406946" lon="15.7321467"><ele>1246.3</ele></trkpt>
        <trkpt lat="50.7407112" lon="15.7320809"><ele>1246.3</ele></trkpt>
        <trkpt lat="50.7407068" lon="15.7319672"><ele>1246.3</ele></trkpt>
        <trkpt lat="50.7406999" lon="15.7319045"><ele>1246.3</ele></trkpt>
        <trkpt lat="50.7406989" lon="15.7318580"><ele>1246.3</ele></trkpt>
        <trkpt lat="50.7407033" lon="15.7318162"><ele>1254.3</ele></trkpt>
        <trkpt lat="50.7407141" lon="15.7317907"><ele>1254.3</ele></trkpt>
        <trkpt lat="50.7407386" lon="15.7317730"><ele>1254.3</ele></trkpt>
        <trkpt lat="50.7407726" lon="15.7317098"><ele>1254.3</ele></trkpt>
        <trkpt lat="50.7408084" lon="15.7316044"><ele>1254.3</ele></trkpt>
        <trkpt lat="50.7408500" lon="15.7315303"><ele>1258.7</ele></trkpt>
        <trkpt lat="50.7410412" lon="15.7313105"><ele>1261.6</ele></trkpt>
        <trkpt lat="50.7411403" lon="15.7311720"><ele>1261.6</ele></trkpt>
        <trkpt lat="50.7411659" lon="15.7310975"><ele>1261.6</ele></trkpt>
        <trkpt lat="50.7412009" lon="15.7310369"><ele>1266.8</ele></trkpt>
        <trkpt lat="50.7412283" lon="15.7309606"><ele>1266.8</ele></trkpt>
        <trkpt lat="50.7412628" lon="15.7309216"><ele>1266.8</ele></trkpt>
        <trkpt lat="50.7413054" lon="15.7308934"><ele>1266.8</ele></trkpt>
        <trkpt lat="50.7413454" lon="15.7308527"><ele>1269.9</ele></trkpt>
        <trkpt lat="50.7413718" lon="15.7308061"><ele>1269.9</ele></trkpt>
        <trkpt lat="50.7414336" lon="15.7307426"><ele>1269.9</ele></trkpt>
        <trkpt lat="50.7414709" lon="15.7306543"><ele>1269.9</ele></trkpt>
        <trkpt lat="50.7414967" lon="15.7306070"><ele>1277.2</ele></trkpt>
        <trkpt lat="50.7415208" lon="15.7305379"><ele>1277.2</ele></trkpt>
        <trkpt lat="50.7415700" lon="15.7304308"><ele>1277.2</ele></trkpt>
        <trkpt lat="50.7415788" lon="15.7303211"><ele>1287.4</ele></trkpt>
        <trkpt lat="50.7415899" lon="15.7302547"><ele>1287.4</ele></trkpt>
        <trkpt lat="50.7416144" lon="15.7302277"><ele>1287.4</ele></trkpt>
        <trkpt lat="50.7416443" lon="15.7302138"><ele>1287.4</ele></trkpt>
        <trkpt lat="50.7416507" lon="15.7301971"><ele>1287.4</ele></trkpt>
        <trkpt lat="50.7416447" lon="15.7301767"><ele>1287.4</ele></trkpt>
        <trkpt lat="50.7416512" lon="15.7301515"><ele>1287.4</ele></trkpt>
        <trkpt lat="50.7416823" lon="15.7301071"><ele>1287.4</ele></trkpt>
        <trkpt lat="50.7416869" lon="15.7300846"><ele>1287.4</ele></trkpt>
        <trkpt lat="50.7416853" lon="15.7300709"><ele>1295.5</ele></trkpt>
        <trkpt lat="50.7416765" lon="15.7300633"><ele>1295.5</ele></trkpt>
        <trkpt lat="50.7416058" lon="15.7300700"><ele>1295.5</ele></trkpt>
        <trkpt lat="50.7415518" lon="15.7300638"><ele>1295.5</ele></trkpt>
        <trkpt lat="50.7415197" lon="15.7300314"><ele>1295.5</ele></trkpt>
        <trkpt lat="50.7415062" lon="15.7300298"><ele>1295.5</ele></trkpt>
        <trkpt lat="50.7414685" lon="15.7300565"><ele>1295.5</ele></trkpt>
        <trkpt lat="50.7414094" lon="15.7300659"><ele>1302.1</ele></trkpt>
        <trkpt lat="50.7413636" lon="15.7300573"><ele>1302.1</ele></trkpt>
        <trkpt lat="50.7413417" lon="15.7300387"><ele>1302.1</ele></trkpt>
        <trkpt lat="50.7413209" lon="15.7300314"><ele>1302.1</ele></trkpt>
        <trkpt lat="50.7412908" lon="15.7300361"><ele>1302.1</ele></trkpt>
        <trkpt lat="50.7412773" lon="15.7300284"><ele>1302.1</ele></trkpt>
        <trkpt lat="50.7412595" lon="15.7299860"><ele>1302.1</ele></trkpt>
        <trkpt lat="50.7412591" lon="15.7299515"><ele>1302.1</ele></trkpt>
        <trkpt lat="50.7412677" lon="15.7299176"><ele>1311.3</ele></trkpt>
        <trkpt lat="50.7412974" lon="15.7298696"><ele>1311.3</ele></trkpt>
        <trkpt lat="50.7413982" lon="15.7297694"><ele>1311.3</ele></trkpt>
        <trkpt lat="50.7414497" lon="15.7297381"><ele>1313.4</ele></trkpt>
        <trkpt lat="50.7414844" lon="15.7297067"><ele>1313.4</ele></trkpt>
        <trkpt lat="50.7415345" lon="15.7296484"><ele>1313.4</ele></trkpt>
        <trkpt lat="50.7415362" lon="15.7296286"><ele>1313.4</ele></trkpt>
        <trkpt lat="50.7415194" lon="15.7295606"><ele>1313.4</ele></trkpt>
        <trkpt lat="50.7415202" lon="15.7295277"><ele>1313.4</ele></trkpt>
        <trkpt lat="50.7415893" lon="15.7293954"><ele>1325.7</ele></trkpt>
        <trkpt lat="50.7415986" lon="15.7293614"><ele>1325.7</ele></trkpt>
        <trkpt lat="50.7415969" lon="15.7293485"><ele>1325.7</ele></trkpt>
        <trkpt lat="50.7415897" lon="15.7293401"><ele>1325.7</ele></trkpt>
        <trkpt lat="50.7415399" lon="15.7293437"><ele>1325.7</ele></trkpt>
        <trkpt lat="50.7413995" lon="15.7293776"><ele>1330.3</ele></trkpt>
        <trkpt lat="50.7413806" lon="15.7293799"><ele>1330.3</ele></trkpt>
        <trkpt lat="50.7413727" lon="15.7293732"><ele>1330.3</ele></trkpt>
        <trkpt lat="50.7413751" lon="15.7293467"><ele>1330.3</ele></trkpt>
        <trkpt lat="50.7414111" lon="15.7292428"><ele>1337.5</ele></trkpt>
        <trkpt lat="50.7414280" lon="15.7292099"><ele>1337.5</ele></trkpt>
        <trkpt lat="50.7414304" lon="15.7291900"><ele>1337.5</ele></trkpt>
        <trkpt lat="50.7414269" lon="15.7291765"><ele>1337.5</ele></trkpt>
        <trkpt lat="50.7414202" lon="15.7291734"><ele>1337.5</ele></trkpt>
        <trkpt lat="50.7414096" lon="15.7291772"><ele>1337.5</ele></trkpt>
        <trkpt lat="50.7413706" lon="15.7292173"><ele>1337.5</ele></trkpt>
        <trkpt lat="50.7413597" lon="15.7292074"><ele>1337.5</ele></trkpt>
        <trkpt lat="50.7413620" lon="15.7291636"><ele>1337.5</ele></trkpt>
        <trkpt lat="50.7413740" lon="15.7291303"><ele>1337.5</ele></trkpt>
        <trkpt lat="50.7413722" lon="15.7291064"><ele>1337.5</ele></trkpt>
        <trkpt lat="50.7413624" lon="15.7291020"><ele>1337.5</ele></trkpt>
        <trkpt lat="50.7413508" lon="15.7291103"><ele>1337.5</ele></trkpt>
        <trkpt lat="50.7413382" lon="15.7291338"><ele>1337.5</ele></trkpt>
        <trkpt lat="50.7412448" lon="15.7292539"><ele>1340.3</ele></trkpt>
        <trkpt lat="50.7412391" lon="15.7292388"><ele>1340.3</ele></trkpt>
        <trkpt lat="50.7412385" lon="15.7291559"><ele>1340.3</ele></trkpt>
        <trkpt lat="50.7412322" lon="15.7291427"><ele>1340.3</ele></trkpt>
        <trkpt lat="50.7412177" lon="15.7291505"><ele>1340.3</ele></trkpt>
        <trkpt lat="50.7411914" lon="15.7291789"><ele>1340.3</ele></trkpt>
        <trkpt lat="50.7411723" lon="15.7292237"><ele>1346.9</ele></trkpt>
        <trkpt lat="50.7411088" lon="15.7292454"><ele>1346.9</ele></trkpt>
        <trkpt lat="50.7410695" lon="15.7292815"><ele>1346.9</ele></trkpt>
        <trkpt lat="50.7410594" lon="15.7292751"><ele>1346.9</ele></trkpt>
        <trkpt lat="50.7410626" lon="15.7291721"><ele>1353.5</ele></trkpt>
        <trkpt lat="50.7410565" lon="15.7291398"><ele>1353.5</ele></trkpt>
        <trkpt lat="50.7410449" lon="15.7291391"><ele>1353.5</ele></trkpt>
        <trkpt lat="50.7410351" lon="15.7291517"><ele>1353.5</ele></trkpt>
        <trkpt lat="50.7410178" lon="15.7291971"><ele>1353.5</ele></trkpt>
        <trkpt lat="50.7409946" lon="15.7292117"><ele>1353.5</ele></trkpt>
        <trkpt lat="50.7409596" lon="15.7292200"><ele>1353.5</ele></trkpt>
        <trkpt lat="50.7409213" lon="15.7292430"><ele>1353.5</ele></trkpt>
        <trkpt lat="50.7408872" lon="15.7292844"><ele>1359.1</ele></trkpt>
        <trkpt lat="50.7408022" lon="15.7293542"><ele>1359.1</ele></trkpt>
        <trkpt lat="50.7406065" lon="15.7295447"><ele>1361.6</ele></trkpt>
        <trkpt lat="50.7405223" lon="15.7295823"><ele>1361.6</ele></trkpt>
        <trkpt lat="50.7404622" lon="15.7296233"><ele>1367.1</ele></trkpt>
        <trkpt lat="50.7403988" lon="15.7296560"><ele>1367.1</ele></trkpt>
        <trkpt lat="50.7403466" lon="15.7296734"><ele>1367.1</ele></trkpt>
        <trkpt lat="50.7402076" lon="15.7297491"><ele>1372.2</ele></trkpt>
        <trkpt lat="50.7401571" lon="15.7297611"><ele>1372.2</ele></trkpt>
        <trkpt lat="50.7400757" lon="15.7297942"><ele>1372.2</ele></trkpt>
        <trkpt lat="50.7399739" lon="15.7298203"><ele>1375.5</ele></trkpt>
        <trkpt lat="50.7398630" lon="15.7298639"><ele>1375.5</ele></trkpt>
        <trkpt lat="50.7398282" lon="15.7298595"><ele>1381.5</ele></trkpt>
        <trkpt lat="50.7397931" lon="15.7298248"><ele>1381.5</ele></trkpt>
        <trkpt lat="50.7397592" lon="15.7297838"><ele>1381.5</ele></trkpt>
        <trkpt lat="50.7397248" lon="15.7297274"><ele>1381.5</ele></trkpt>
        <trkpt lat="50.7396413" lon="15.7296398"><ele>1388.5</ele></trkpt>
        <trkpt lat="50.7396205" lon="15.7295595"><ele>1388.5</ele></trkpt>
        <trkpt lat="50.7395996" lon="15.7295010"><ele>1388.5</ele></trkpt>
        <trkpt lat="50.7395570" lon="15.7294779"><ele>1388.5</ele></trkpt>
        <trkpt lat="50.7395159" lon="15.7294410"><ele>1388.5</ele></trkpt>
        <trkpt lat="50.7393786" lon="15.7292908"><ele>1392.5</ele></trkpt>
        <trkpt lat="50.7392829" lon="15.7291912"><ele>1392.6</ele></trkpt>
        <trkpt lat="50.7392217" lon="15.7290843"><ele>1392.6</ele></trkpt>
        <trkpt lat="50.7392841" lon="15.7289070"><ele>1392.6</ele></trkpt>
        <trkpt lat="50.7394032" lon="15.7290070"><ele>1392.6</ele></trkpt>
        <trkpt lat="50.7392841" lon="15.7289070"><ele>1392.6</ele></trkpt>
        <trkpt lat="50.7392217" lon="15.7290843"><ele>1392.6</ele></trkpt>
        <trkpt lat="50.7391727" lon="15.7292098"><ele>1392.0</ele></trkpt>
        <trkpt lat="50.7389049" lon="15.7299665"><ele>1392.0</ele></trkpt>
        <trkpt lat="50.7387953" lon="15.7302762"><ele>1392.8</ele></trkpt>
        <trkpt lat="50.7387355" lon="15.7304504"><ele>1395.1</ele></trkpt>
        <trkpt lat="50.7387075" lon="15.7305360"><ele>1395.1</ele></trkpt>
        <trkpt lat="50.7386828" lon="15.7305892"><ele>1395.1</ele></trkpt>
        <trkpt lat="50.7386458" lon="15.7306571"><ele>1398.3</ele></trkpt>
        <trkpt lat="50.7385982" lon="15.7307279"><ele>1398.3</ele></trkpt>
        <trkpt lat="50.7385141" lon="15.7308121"><ele>1398.3</ele></trkpt>
        <trkpt lat="50.7384112" lon="15.7309158"><ele>1402.2</ele></trkpt>
        <trkpt lat="50.7382646" lon="15.7310454"><ele>1405.7</ele></trkpt>
        <trkpt lat="50.7381908" lon="15.7311177"><ele>1405.7</ele></trkpt>
        <trkpt lat="50.7381511" lon="15.7311659"><ele>1405.7</ele></trkpt>
        <trkpt lat="50.7381187" lon="15.7312145"><ele>1405.7</ele></trkpt>
        <trkpt lat="50.7380848" lon="15.7312836"><ele>1409.4</ele></trkpt>
        <trkpt lat="50.7380430" lon="15.7313902"><ele>1409.4</ele></trkpt>
        <trkpt lat="50.7380130" lon="15.7314040"><ele>1409.4</ele></trkpt>
        <trkpt lat="50.7379404" lon="15.7314451"><ele>1410.3</ele></trkpt>
        <trkpt lat="50.7377574" lon="15.7316347"><ele>1410.3</ele></trkpt>
        <trkpt lat="50.7376835" lon="15.7317784"><ele>1412.6</ele></trkpt>
        <trkpt lat="50.7374383" lon="15.7320790"><ele>1415.9</ele></trkpt>
        <trkpt lat="50.7373093" lon="15.7322293"><ele>1419.0</ele></trkpt>
        <trkpt lat="50.7371915" lon="15.7323772"><ele>1424.1</ele></trkpt>
        <trkpt lat="50.7371275" lon="15.7324492"><ele>1424.1</ele></trkpt>
        <trkpt lat="50.7370635" lon="15.7325238"><ele>1424.1</ele></trkpt>
        <trkpt lat="50.7370182" lon="15.7325747"><ele>1429.8</ele></trkpt>
        <trkpt lat="50.7369807" lon="15.7326175"><ele>1429.8</ele></trkpt>
        <trkpt lat="50.7369524" lon="15.7326532"><ele>1429.8</ele></trkpt>
        <trkpt lat="50.7368926" lon="15.7327639"><ele>1437.0</ele></trkpt>
        <trkpt lat="50.7368877" lon="15.7327993"><ele>1437.0</ele></trkpt>
        <trkpt lat="50.7368480" lon="15.7328852"><ele>1437.0</ele></trkpt>
        <trkpt lat="50.7368280" lon="15.7329301"><ele>1437.0</ele></trkpt>
        <trkpt lat="50.7368208" lon="15.7329559"><ele>1437.0</ele></trkpt>
        <trkpt lat="50.7368196" lon="15.7329979"><ele>1437.0</ele></trkpt>
        <trkpt lat="50.7368163" lon="15.7330709"><ele>1437.0</ele></trkpt>
        <trkpt lat="50.7368151" lon="15.7332003"><ele>1444.7</ele></trkpt>
        <trkpt lat="50.7368176" lon="15.7334644"><ele>1452.5</ele></trkpt>
        <trkpt lat="50.7368148" lon="15.7335011"><ele>1452.5</ele></trkpt>
        <trkpt lat="50.7368107" lon="15.7335176"><ele>1452.5</ele></trkpt>
        <trkpt lat="50.7368000" lon="15.7335324"><ele>1452.5</ele></trkpt>
        <trkpt lat="50.7367884" lon="15.7335370"><ele>1452.5</ele></trkpt>
        <trkpt lat="50.7367644" lon="15.7335195"><ele>1452.5</ele></trkpt>
        <trkpt lat="50.7367409" lon="15.7335047"><ele>1452.5</ele></trkpt>
        <trkpt lat="50.7367232" lon="15.7334971"><ele>1452.5</ele></trkpt>
        <trkpt lat="50.7367095" lon="15.7335016"><ele>1452.5</ele></trkpt>
        <trkpt lat="50.7367044" lon="15.7335171"><ele>1452.5</ele></trkpt>
        <trkpt lat="50.7367051" lon="15.7335325"><ele>1452.5</ele></trkpt>
        <trkpt lat="50.7367042" lon="15.7335891"><ele>1452.5</ele></trkpt>
        <trkpt lat="50.7367080" lon="15.7337037"><ele>1460.3</ele></trkpt>
        <trkpt lat="50.7367164" lon="15.7338851"><ele>1460.3</ele></trkpt>
        <trkpt lat="50.7367275" lon="15.7340710"><ele>1465.8</ele></trkpt>
        <trkpt lat="50.7367377" lon="15.7342662"><ele>1465.8</ele></trkpt>
        <trkpt lat="50.7367435" lon="15.7344771"><ele>1472.1</ele></trkpt>
        <trkpt lat="50.7367544" lon="15.7346342"><ele>1472.1</ele></trkpt>
        <trkpt lat="50.7367619" lon="15.7347166"><ele>1479.4</ele></trkpt>
        <trkpt lat="50.7367656" lon="15.7347988"><ele>1479.4</ele></trkpt>
        <trkpt lat="50.7367640" lon="15.7348145"><ele>1479.4</ele></trkpt>
        <trkpt lat="50.7367598" lon="15.7348226"><ele>1479.4</ele></trkpt>
        <trkpt lat="50.7367513" lon="15.7348202"><ele>1479.4</ele></trkpt>
        <trkpt lat="50.7367447" lon="15.7348121"><ele>1479.4</ele></trkpt>
        <trkpt lat="50.7367252" lon="15.7347891"><ele>1479.4</ele></trkpt>
        <trkpt lat="50.7367044" lon="15.7347566"><ele>1479.4</ele></trkpt>
        <trkpt lat="50.7366512" lon="15.7346797"><ele>1479.4</ele></trkpt>
        <trkpt lat="50.7365998" lon="15.7346184"><ele>1479.4</ele></trkpt>
        <trkpt lat="50.7365457" lon="15.7345843"><ele>1479.4</ele></trkpt>
        <trkpt lat="50.7364913" lon="15.7345413"><ele>1479.4</ele></trkpt>
        <trkpt lat="50.7363911" lon="15.7344968"><ele>1482.3</ele></trkpt>
        <trkpt lat="50.7362906" lon="15.7344439"><ele>1482.3</ele></trkpt>
        <trkpt lat="50.7361805" lon="15.7344038"><ele>1483.4</ele></trkpt>
        <trkpt lat="50.7361488" lon="15.7343992"><ele>1483.4</ele></trkpt>
        <trkpt lat="50.7361305" lon="15.7344095"><ele>1483.4</ele></trkpt>
        <trkpt lat="50.7361227" lon="15.7344378"><ele>1483.4</ele></trkpt>
        <trkpt lat="50.7361229" lon="15.7344986"><ele>1483.4</ele></trkpt>
        <trkpt lat="50.7361313" lon="15.7345474"><ele>1483.4</ele></trkpt>
        <trkpt lat="50.7361522" lon="15.7345803"><ele>1486.2</ele></trkpt>
        <trkpt lat="50.7361757" lon="15.7346267"><ele>1486.2</ele></trkpt>
        <trkpt lat="50.7362114" lon="15.7346952"><ele>1486.2</ele></trkpt>
        <trkpt lat="50.7362417" lon="15.7347786"><ele>1486.2</ele></trkpt>
        <trkpt lat="50.7362856" lon="15.7348692"><ele>1495.2</ele></trkpt>
        <trkpt lat="50.7363162" lon="15.7349609"><ele>1495.2</ele></trkpt>
        <trkpt lat="50.7363279" lon="15.7350245"><ele>1495.2</ele></trkpt>
        <trkpt lat="50.7363362" lon="15.7350877"><ele>1495.2</ele></trkpt>
        <trkpt lat="50.7363402" lon="15.7352910"><ele>1502.7</ele></trkpt>
        <trkpt lat="50.7363406" lon="15.7354691"><ele>1502.7</ele></trkpt>
        <trkpt lat="50.7363399" lon="15.7357889"><ele>1508.4</ele></trkpt>
        <trkpt lat="50.7363341" lon="15.7358002"><ele>1508.4</ele></trkpt>
        <trkpt lat="50.7363267" lon="15.7358004"><ele>1508.5</ele></trkpt>
        <trkpt lat="50.7363111" lon="15.7357876"><ele>1508.4</ele></trkpt>
        <trkpt lat="50.7362874" lon="15.7357674"><ele>1508.4</ele></trkpt>
        <trkpt lat="50.7362642" lon="15.7357684"><ele>1508.5</ele></trkpt>
        <trkpt lat="50.7362300" lon="15.7357737"><ele>1508.5</ele></trkpt>
        <trkpt lat="50.7362269" lon="15.7357906"><ele>1508.5</ele></trkpt>
        <trkpt lat="50.7362250" lon="15.7358080"><ele>1508.5</ele></trkpt>
        <trkpt lat="50.7362293" lon="15.7358294"><ele>1508.5</ele></trkpt>
        <trkpt lat="50.7362622" lon="15.7360678"><ele>1516.4</ele></trkpt>
        <trkpt lat="50.7362971" lon="15.7362771"><ele>1516.4</ele></trkpt>
        <trkpt lat="50.7363505" lon="15.7365666"><ele>1527.3</ele></trkpt>
        <trkpt lat="50.7364196" lon="15.7368757"><ele>1541.3</ele></trkpt>
        <trkpt lat="50.7364378" lon="15.7369829"><ele>1541.3</ele></trkpt>
        <trkpt lat="50.7364602" lon="15.7371414"><ele>1552.3</ele></trkpt>
        <trkpt lat="50.7364673" lon="15.7373034"><ele>1552.3</ele></trkpt>
        <trkpt lat="50.7364724" lon="15.7374595"><ele>1563.1</ele></trkpt>
        <trkpt lat="50.7364594" lon="15.7375610"><ele>1563.1</ele></trkpt>
        <trkpt lat="50.7364481" lon="15.7376616"><ele>1563.1</ele></trkpt>
        <trkpt lat="50.7364359" lon="15.7377872"><ele>1570.7</ele></trkpt>
        <trkpt lat="50.7364249" lon="15.7379169"><ele>1570.7</ele></trkpt>
        <trkpt lat="50.7364293" lon="15.7380616"><ele>1570.7</ele></trkpt>
        <trkpt lat="50.7364266" lon="15.7381949"><ele>1578.5</ele></trkpt>
        <trkpt lat="50.7364258" lon="15.7384455"><ele>1578.5</ele></trkpt>
        <trkpt lat="50.7364140" lon="15.7386182"><ele>1585.2</ele></trkpt>
        <trkpt lat="50.7364043" lon="15.7387088"><ele>1585.2</ele></trkpt>
        <trkpt lat="50.7363872" lon="15.7388606"><ele>1590.4</ele></trkpt>
        <trkpt lat="50.7363636" lon="15.7390260"><ele>1590.4</ele></trkpt>
        <trkpt lat="50.7363008" lon="15.7393596"><ele>1594.2</ele></trkpt>
        <trkpt lat="50.7362857" lon="15.7394372"><ele>1594.2</ele></trkpt>
        <trkpt lat="50.7362246" lon="15.7394732"><ele>1594.9</ele></trkpt>
        <trkpt lat="50.7361148" lon="15.7395311"><ele>1594.9</ele></trkpt>
    </trkseg>
  </trk>
</gpx>
