<?xml version="1.0" encoding="UTF-8"?>
<gpx creator="W Dobrym Kierunku — GPX uproszczony z Garmin Connect" version="1.1" xmlns="http://www.topografix.com/GPX/1/1" xmlns:xsi="http://www.w3.org/2001/XMLSchema-instance" xsi:schemaLocation="http://www.topografix.com/GPX/1/1 http://www.topografix.com/GPX/11.xsd">
  <metadata>
    <time>2026-04-04T08:07:35.000Z</time>
  </metadata>
  <trk>
    <name>Grań Karkonoszy - Podgórzyn Piesze wędrówki</name>
    <type>hiking</type>
    <trkseg>
      <trkpt lat="50.763650" lon="15.639197"><ele>1232.2</ele><time>2026-04-04T08:07:40.000Z</time></trkpt>
      <trkpt lat="50.763267" lon="15.639151"><ele>1233.6</ele><time>2026-04-04T08:08:05.000Z</time></trkpt>
      <trkpt lat="50.762730" lon="15.638633"><ele>1230.8</ele><time>2026-04-04T08:08:58.000Z</time></trkpt>
      <trkpt lat="50.762519" lon="15.638563"><ele>1230.2</ele><time>2026-04-04T08:09:43.000Z</time></trkpt>
      <trkpt lat="50.762486" lon="15.638956"><ele>1236.0</ele><time>2026-04-04T08:10:16.000Z</time></trkpt>
      <trkpt lat="50.762458" lon="15.639399"><ele>1241.8</ele><time>2026-04-04T08:10:59.000Z</time></trkpt>
      <trkpt lat="50.762433" lon="15.639737"><ele>1247.2</ele><time>2026-04-04T08:11:40.000Z</time></trkpt>
      <trkpt lat="50.762341" lon="15.639980"><ele>1250.2</ele><time>2026-04-04T08:12:22.000Z</time></trkpt>
      <trkpt lat="50.762367" lon="15.640336"><ele>1256.4</ele><time>2026-04-04T08:13:04.000Z</time></trkpt>
      <trkpt lat="50.762289" lon="15.640627"><ele>1261.8</ele><time>2026-04-04T08:13:50.000Z</time></trkpt>
      <trkpt lat="50.762235" lon="15.640819"><ele>1265.2</ele><time>2026-04-04T08:14:16.000Z</time></trkpt>
      <trkpt lat="50.762277" lon="15.641365"><ele>1272.8</ele><time>2026-04-04T08:15:22.000Z</time></trkpt>
      <trkpt lat="50.762365" lon="15.641687"><ele>1278.4</ele><time>2026-04-04T08:16:01.000Z</time></trkpt>
      <trkpt lat="50.762337" lon="15.641665"><ele>1278.8</ele><time>2026-04-04T08:17:16.000Z</time></trkpt>
      <trkpt lat="50.762328" lon="15.641648"><ele>1276.8</ele><time>2026-04-04T08:18:21.000Z</time></trkpt>
      <trkpt lat="50.762345" lon="15.641664"><ele>1277.6</ele><time>2026-04-04T08:19:31.000Z</time></trkpt>
      <trkpt lat="50.762436" lon="15.641945"><ele>1281.8</ele><time>2026-04-04T08:20:42.000Z</time></trkpt>
      <trkpt lat="50.762426" lon="15.642341"><ele>1287.2</ele><time>2026-04-04T08:21:22.000Z</time></trkpt>
      <trkpt lat="50.762479" lon="15.642692"><ele>1292.0</ele><time>2026-04-04T08:21:55.000Z</time></trkpt>
      <trkpt lat="50.762528" lon="15.643159"><ele>1296.4</ele><time>2026-04-04T08:22:39.000Z</time></trkpt>
      <trkpt lat="50.762540" lon="15.643584"><ele>1302.0</ele><time>2026-04-04T08:23:19.000Z</time></trkpt>
      <trkpt lat="50.762564" lon="15.644165"><ele>1308.0</ele><time>2026-04-04T08:24:09.000Z</time></trkpt>
      <trkpt lat="50.762567" lon="15.644710"><ele>1312.4</ele><time>2026-04-04T08:24:59.000Z</time></trkpt>
      <trkpt lat="50.762544" lon="15.645324"><ele>1317.6</ele><time>2026-04-04T08:25:56.000Z</time></trkpt>
      <trkpt lat="50.762528" lon="15.645756"><ele>1323.0</ele><time>2026-04-04T08:26:36.000Z</time></trkpt>
      <trkpt lat="50.762553" lon="15.646248"><ele>1328.6</ele><time>2026-04-04T08:27:25.000Z</time></trkpt>
      <trkpt lat="50.762511" lon="15.646860"><ele>1330.8</ele><time>2026-04-04T08:28:24.000Z</time></trkpt>
      <trkpt lat="50.762325" lon="15.647633"><ele>1332.0</ele><time>2026-04-04T08:29:28.000Z</time></trkpt>
      <trkpt lat="50.762242" lon="15.647870"><ele>1331.6</ele><time>2026-04-04T08:31:07.000Z</time></trkpt>
      <trkpt lat="50.761994" lon="15.648540"><ele>1334.2</ele><time>2026-04-04T08:33:19.000Z</time></trkpt>
      <trkpt lat="50.761712" lon="15.649228"><ele>1336.8</ele><time>2026-04-04T08:34:22.000Z</time></trkpt>
      <trkpt lat="50.761631" lon="15.649510"><ele>1336.0</ele><time>2026-04-04T08:34:50.000Z</time></trkpt>
      <trkpt lat="50.761569" lon="15.650036"><ele>1337.2</ele><time>2026-04-04T08:36:54.000Z</time></trkpt>
      <trkpt lat="50.761469" lon="15.650754"><ele>1337.0</ele><time>2026-04-04T08:37:39.000Z</time></trkpt>
      <trkpt lat="50.761319" lon="15.651784"><ele>1337.6</ele><time>2026-04-04T08:38:46.000Z</time></trkpt>
      <trkpt lat="50.761167" lon="15.652457"><ele>1339.4</ele><time>2026-04-04T08:39:34.000Z</time></trkpt>
      <trkpt lat="50.760942" lon="15.653241"><ele>1342.4</ele><time>2026-04-04T08:40:32.000Z</time></trkpt>
      <trkpt lat="50.760752" lon="15.653864"><ele>1345.2</ele><time>2026-04-04T08:41:21.000Z</time></trkpt>
      <trkpt lat="50.760703" lon="15.654920"><ele>1346.8</ele><time>2026-04-04T08:42:32.000Z</time></trkpt>
      <trkpt lat="50.760732" lon="15.655676"><ele>1350.2</ele><time>2026-04-04T08:43:26.000Z</time></trkpt>
      <trkpt lat="50.760716" lon="15.656210"><ele>1355.8</ele><time>2026-04-04T08:44:07.000Z</time></trkpt>
      <trkpt lat="50.760681" lon="15.656688"><ele>1359.8</ele><time>2026-04-04T08:44:43.000Z</time></trkpt>
      <trkpt lat="50.760660" lon="15.657256"><ele>1364.2</ele><time>2026-04-04T08:45:26.000Z</time></trkpt>
      <trkpt lat="50.760667" lon="15.657709"><ele>1368.4</ele><time>2026-04-04T08:46:00.000Z</time></trkpt>
      <trkpt lat="50.760638" lon="15.658406"><ele>1371.0</ele><time>2026-04-04T08:46:48.000Z</time></trkpt>
      <trkpt lat="50.760571" lon="15.659459"><ele>1371.2</ele><time>2026-04-04T08:47:55.000Z</time></trkpt>
      <trkpt lat="50.760449" lon="15.660139"><ele>1369.0</ele><time>2026-04-04T08:48:41.000Z</time></trkpt>
      <trkpt lat="50.760365" lon="15.660676"><ele>1365.4</ele><time>2026-04-04T08:49:16.000Z</time></trkpt>
      <trkpt lat="50.760306" lon="15.661612"><ele>1363.0</ele><time>2026-04-04T08:50:14.000Z</time></trkpt>
      <trkpt lat="50.760200" lon="15.662621"><ele>1364.2</ele><time>2026-04-04T08:51:16.000Z</time></trkpt>
      <trkpt lat="50.760122" lon="15.663545"><ele>1364.8</ele><time>2026-04-04T08:52:12.000Z</time></trkpt>
      <trkpt lat="50.760058" lon="15.664097"><ele>1366.6</ele><time>2026-04-04T08:52:50.000Z</time></trkpt>
      <trkpt lat="50.759964" lon="15.664892"><ele>1371.4</ele><time>2026-04-04T08:53:48.000Z</time></trkpt>
      <trkpt lat="50.759840" lon="15.665534"><ele>1374.0</ele><time>2026-04-04T08:54:36.000Z</time></trkpt>
      <trkpt lat="50.759738" lon="15.666197"><ele>1376.6</ele><time>2026-04-04T08:55:28.000Z</time></trkpt>
      <trkpt lat="50.759623" lon="15.666771"><ele>1378.8</ele><time>2026-04-04T08:56:09.000Z</time></trkpt>
      <trkpt lat="50.759491" lon="15.667644"><ele>1379.8</ele><time>2026-04-04T08:57:08.000Z</time></trkpt>
      <trkpt lat="50.759320" lon="15.668284"><ele>1381.8</ele><time>2026-04-04T08:57:57.000Z</time></trkpt>
      <trkpt lat="50.759202" lon="15.668803"><ele>1384.6</ele><time>2026-04-04T08:58:36.000Z</time></trkpt>
      <trkpt lat="50.759023" lon="15.669629"><ele>1388.2</ele><time>2026-04-04T08:59:35.000Z</time></trkpt>
      <trkpt lat="50.758920" lon="15.670495"><ele>1392.0</ele><time>2026-04-04T09:00:36.000Z</time></trkpt>
      <trkpt lat="50.758852" lon="15.671163"><ele>1394.8</ele><time>2026-04-04T09:01:23.000Z</time></trkpt>
      <trkpt lat="50.758762" lon="15.671684"><ele>1395.4</ele><time>2026-04-04T09:02:04.000Z</time></trkpt>
      <trkpt lat="50.758666" lon="15.672151"><ele>1397.4</ele><time>2026-04-04T09:02:40.000Z</time></trkpt>
      <trkpt lat="50.758575" lon="15.672712"><ele>1399.6</ele><time>2026-04-04T09:03:33.000Z</time></trkpt>
      <trkpt lat="50.758524" lon="15.673299"><ele>1403.0</ele><time>2026-04-04T09:04:15.000Z</time></trkpt>
      <trkpt lat="50.758510" lon="15.674065"><ele>1404.0</ele><time>2026-04-04T09:05:07.000Z</time></trkpt>
      <trkpt lat="50.758493" lon="15.674395"><ele>1404.2</ele><time>2026-04-04T09:05:30.000Z</time></trkpt>
      <trkpt lat="50.758489" lon="15.674791"><ele>1405.8</ele><time>2026-04-04T09:05:57.000Z</time></trkpt>
      <trkpt lat="50.758519" lon="15.675573"><ele>1406.2</ele><time>2026-04-04T09:06:52.000Z</time></trkpt>
      <trkpt lat="50.758633" lon="15.676336"><ele>1405.6</ele><time>2026-04-04T09:07:44.000Z</time></trkpt>
      <trkpt lat="50.758817" lon="15.676982"><ele>1406.8</ele><time>2026-04-04T09:08:28.000Z</time></trkpt>
      <trkpt lat="50.758959" lon="15.677581"><ele>1410.2</ele><time>2026-04-04T09:09:08.000Z</time></trkpt>
      <trkpt lat="50.759150" lon="15.678658"><ele>1413.0</ele><time>2026-04-04T09:10:15.000Z</time></trkpt>
      <trkpt lat="50.759288" lon="15.679363"><ele>1414.2</ele><time>2026-04-04T09:11:02.000Z</time></trkpt>
      <trkpt lat="50.759395" lon="15.680260"><ele>1417.0</ele><time>2026-04-04T09:11:55.000Z</time></trkpt>
      <trkpt lat="50.759506" lon="15.681487"><ele>1419.0</ele><time>2026-04-04T09:13:08.000Z</time></trkpt>
      <trkpt lat="50.759580" lon="15.682760"><ele>1419.4</ele><time>2026-04-04T09:14:19.000Z</time></trkpt>
      <trkpt lat="50.759569" lon="15.683291"><ele>1420.8</ele><time>2026-04-04T09:14:53.000Z</time></trkpt>
      <trkpt lat="50.759489" lon="15.683664"><ele>1419.6</ele><time>2026-04-04T09:15:35.000Z</time></trkpt>
      <trkpt lat="50.759147" lon="15.684636"><ele>1414.2</ele><time>2026-04-04T09:16:34.000Z</time></trkpt>
      <trkpt lat="50.758744" lon="15.685230"><ele>1408.4</ele><time>2026-04-04T09:17:22.000Z</time></trkpt>
      <trkpt lat="50.758019" lon="15.686143"><ele>1404.2</ele><time>2026-04-04T09:18:40.000Z</time></trkpt>
      <trkpt lat="50.757682" lon="15.686578"><ele>1402.4</ele><time>2026-04-04T09:19:26.000Z</time></trkpt>
      <trkpt lat="50.757352" lon="15.686955"><ele>1404.6</ele><time>2026-04-04T09:20:05.000Z</time></trkpt>
      <trkpt lat="50.756954" lon="15.687623"><ele>1405.0</ele><time>2026-04-04T09:21:01.000Z</time></trkpt>
      <trkpt lat="50.756402" lon="15.688623"><ele>1407.0</ele><time>2026-04-04T09:22:20.000Z</time></trkpt>
      <trkpt lat="50.755908" lon="15.689601"><ele>1408.4</ele><time>2026-04-04T09:23:33.000Z</time></trkpt>
      <trkpt lat="50.755497" lon="15.690273"><ele>1411.4</ele><time>2026-04-04T09:24:27.000Z</time></trkpt>
      <trkpt lat="50.755290" lon="15.690734"><ele>1412.0</ele><time>2026-04-04T09:25:01.000Z</time></trkpt>
      <trkpt lat="50.754970" lon="15.691180"><ele>1411.4</ele><time>2026-04-04T09:25:37.000Z</time></trkpt>
      <trkpt lat="50.754303" lon="15.691528"><ele>1408.2</ele><time>2026-04-04T09:26:32.000Z</time></trkpt>
      <trkpt lat="50.753753" lon="15.691783"><ele>1406.4</ele><time>2026-04-04T09:27:17.000Z</time></trkpt>
      <trkpt lat="50.752673" lon="15.692254"><ele>1405.0</ele><time>2026-04-04T09:28:53.000Z</time></trkpt>
      <trkpt lat="50.751968" lon="15.692567"><ele>1402.2</ele><time>2026-04-04T09:30:03.000Z</time></trkpt>
      <trkpt lat="50.751210" lon="15.692928"><ele>1399.2</ele><time>2026-04-04T09:31:15.000Z</time></trkpt>
      <trkpt lat="50.750379" lon="15.693304"><ele>1399.2</ele><time>2026-04-04T09:32:36.000Z</time></trkpt>
      <trkpt lat="50.749403" lon="15.693449"><ele>1397.4</ele><time>2026-04-04T09:34:07.000Z</time></trkpt>
      <trkpt lat="50.748761" lon="15.693583"><ele>1392.8</ele><time>2026-04-04T09:35:03.000Z</time></trkpt>
      <trkpt lat="50.748236" lon="15.693681"><ele>1387.6</ele><time>2026-04-04T09:35:54.000Z</time></trkpt>
      <trkpt lat="50.747839" lon="15.693981"><ele>1383.4</ele><time>2026-04-04T09:36:36.000Z</time></trkpt>
      <trkpt lat="50.747054" lon="15.694342"><ele>1379.6</ele><time>2026-04-04T09:37:46.000Z</time></trkpt>
      <trkpt lat="50.746471" lon="15.694534"><ele>1383.0</ele><time>2026-04-04T09:38:39.000Z</time></trkpt>
      <trkpt lat="50.746065" lon="15.694990"><ele>1384.4</ele><time>2026-04-04T09:39:38.000Z</time></trkpt>
      <trkpt lat="50.745738" lon="15.695096"><ele>1385.6</ele><time>2026-04-04T09:40:20.000Z</time></trkpt>
      <trkpt lat="50.745165" lon="15.695646"><ele>1389.4</ele><time>2026-04-04T09:41:17.000Z</time></trkpt>
      <trkpt lat="50.744531" lon="15.696225"><ele>1391.6</ele><time>2026-04-04T09:42:23.000Z</time></trkpt>
      <trkpt lat="50.743828" lon="15.696788"><ele>1392.4</ele><time>2026-04-04T09:43:40.000Z</time></trkpt>
      <trkpt lat="50.743132" lon="15.697631"><ele>1392.2</ele><time>2026-04-04T09:44:53.000Z</time></trkpt>
      <trkpt lat="50.742449" lon="15.698517"><ele>1393.6</ele><time>2026-04-04T09:46:11.000Z</time></trkpt>
      <trkpt lat="50.741970" lon="15.699227"><ele>1396.0</ele><time>2026-04-04T09:47:14.000Z</time></trkpt>
      <trkpt lat="50.741596" lon="15.700144"><ele>1398.8</ele><time>2026-04-04T09:48:14.000Z</time></trkpt>
      <trkpt lat="50.741461" lon="15.701031"><ele>1400.8</ele><time>2026-04-04T09:49:04.000Z</time></trkpt>
      <trkpt lat="50.741417" lon="15.701661"><ele>1402.0</ele><time>2026-04-04T09:49:41.000Z</time></trkpt>
      <trkpt lat="50.741247" lon="15.702220"><ele>1406.0</ele><time>2026-04-04T09:50:21.000Z</time></trkpt>
      <trkpt lat="50.741221" lon="15.702320"><ele>1408.6</ele><time>2026-04-04T09:51:38.000Z</time></trkpt>
      <trkpt lat="50.741087" lon="15.702996"><ele>1411.6</ele><time>2026-04-04T09:52:38.000Z</time></trkpt>
      <trkpt lat="50.740946" lon="15.703615"><ele>1415.8</ele><time>2026-04-04T09:53:14.000Z</time></trkpt>
      <trkpt lat="50.740819" lon="15.704325"><ele>1418.2</ele><time>2026-04-04T09:53:59.000Z</time></trkpt>
      <trkpt lat="50.740952" lon="15.705516"><ele>1417.8</ele><time>2026-04-04T09:55:02.000Z</time></trkpt>
      <trkpt lat="50.741073" lon="15.706154"><ele>1419.4</ele><time>2026-04-04T09:55:35.000Z</time></trkpt>
      <trkpt lat="50.741154" lon="15.706605"><ele>1421.0</ele><time>2026-04-04T09:56:04.000Z</time></trkpt>
      <trkpt lat="50.741158" lon="15.707057"><ele>1423.2</ele><time>2026-04-04T09:56:44.000Z</time></trkpt>
      <trkpt lat="50.741275" lon="15.708358"><ele>1425.8</ele><time>2026-04-04T09:57:50.000Z</time></trkpt>
      <trkpt lat="50.741409" lon="15.709370"><ele>1428.2</ele><time>2026-04-04T09:58:42.000Z</time></trkpt>
      <trkpt lat="50.741558" lon="15.710411"><ele>1430.4</ele><time>2026-04-04T09:59:37.000Z</time></trkpt>
      <trkpt lat="50.741689" lon="15.711045"><ele>1430.8</ele><time>2026-04-04T10:00:11.000Z</time></trkpt>
      <trkpt lat="50.741871" lon="15.711720"><ele>1431.0</ele><time>2026-04-04T10:00:49.000Z</time></trkpt>
      <trkpt lat="50.741983" lon="15.712321"><ele>1429.6</ele><time>2026-04-04T10:01:22.000Z</time></trkpt>
      <trkpt lat="50.742032" lon="15.712881"><ele>1429.6</ele><time>2026-04-04T10:01:52.000Z</time></trkpt>
      <trkpt lat="50.741985" lon="15.713445"><ele>1428.8</ele><time>2026-04-04T10:02:23.000Z</time></trkpt>
      <trkpt lat="50.741870" lon="15.714211"><ele>1425.8</ele><time>2026-04-04T10:03:05.000Z</time></trkpt>
      <trkpt lat="50.741686" lon="15.715282"><ele>1422.6</ele><time>2026-04-04T10:04:03.000Z</time></trkpt>
      <trkpt lat="50.741545" lon="15.716211"><ele>1420.0</ele><time>2026-04-04T10:04:50.000Z</time></trkpt>
      <trkpt lat="50.741457" lon="15.716875"><ele>1418.6</ele><time>2026-04-04T10:05:24.000Z</time></trkpt>
      <trkpt lat="50.741390" lon="15.717314"><ele>1417.6</ele><time>2026-04-04T10:05:46.000Z</time></trkpt>
      <trkpt lat="50.741327" lon="15.718110"><ele>1413.4</ele><time>2026-04-04T10:06:22.000Z</time></trkpt>
      <trkpt lat="50.741202" lon="15.718757"><ele>1409.8</ele><time>2026-04-04T10:06:55.000Z</time></trkpt>
      <trkpt lat="50.741157" lon="15.719324"><ele>1404.6</ele><time>2026-04-04T10:07:24.000Z</time></trkpt>
      <trkpt lat="50.741147" lon="15.719847"><ele>1402.6</ele><time>2026-04-04T10:07:51.000Z</time></trkpt>
      <trkpt lat="50.741039" lon="15.720338"><ele>1400.6</ele><time>2026-04-04T10:08:19.000Z</time></trkpt>
      <trkpt lat="50.740995" lon="15.720713"><ele>1398.0</ele><time>2026-04-04T10:08:39.000Z</time></trkpt>
      <trkpt lat="50.740940" lon="15.721326"><ele>1394.4</ele><time>2026-04-04T10:09:10.000Z</time></trkpt>
      <trkpt lat="50.740792" lon="15.722136"><ele>1387.0</ele><time>2026-04-04T10:09:49.000Z</time></trkpt>
      <trkpt lat="50.740655" lon="15.723123"><ele>1379.8</ele><time>2026-04-04T10:10:34.000Z</time></trkpt>
      <trkpt lat="50.740553" lon="15.723679"><ele>1378.2</ele><time>2026-04-04T10:11:02.000Z</time></trkpt>
      <trkpt lat="50.740457" lon="15.724100"><ele>1377.0</ele><time>2026-04-04T10:11:27.000Z</time></trkpt>
      <trkpt lat="50.740337" lon="15.724633"><ele>1378.0</ele><time>2026-04-04T10:11:58.000Z</time></trkpt>
      <trkpt lat="50.740149" lon="15.725070"><ele>1381.0</ele><time>2026-04-04T10:12:27.000Z</time></trkpt>
      <trkpt lat="50.740025" lon="15.725467"><ele>1383.6</ele><time>2026-04-04T10:12:52.000Z</time></trkpt>
      <trkpt lat="50.739933" lon="15.725834"><ele>1386.4</ele><time>2026-04-04T10:13:16.000Z</time></trkpt>
      <trkpt lat="50.739834" lon="15.726554"><ele>1388.4</ele><time>2026-04-04T10:14:01.000Z</time></trkpt>
      <trkpt lat="50.739783" lon="15.727156"><ele>1390.0</ele><time>2026-04-04T10:14:36.000Z</time></trkpt>
      <trkpt lat="50.739655" lon="15.727803"><ele>1388.2</ele><time>2026-04-04T10:15:23.000Z</time></trkpt>
      <trkpt lat="50.739477" lon="15.728361"><ele>1386.6</ele><time>2026-04-04T10:16:30.000Z</time></trkpt>
      <trkpt lat="50.739457" lon="15.728792"><ele>1385.0</ele><time>2026-04-04T10:17:05.000Z</time></trkpt>
      <trkpt lat="50.739409" lon="15.729253"><ele>1374.6</ele><time>2026-04-04T11:27:28.000Z</time></trkpt>
      <trkpt lat="50.739402" lon="15.729229"><ele>1377.0</ele><time>2026-04-04T11:27:58.000Z</time></trkpt>
      <trkpt lat="50.739201" lon="15.729239"><ele>1380.6</ele><time>2026-04-04T11:28:43.000Z</time></trkpt>
      <trkpt lat="50.739425" lon="15.729222"><ele>1383.4</ele><time>2026-04-04T11:29:16.000Z</time></trkpt>
      <trkpt lat="50.739508" lon="15.728948"><ele>1382.6</ele><time>2026-04-04T11:31:25.000Z</time></trkpt>
      <trkpt lat="50.739457" lon="15.729008"><ele>1382.6</ele><time>2026-04-04T11:32:18.000Z</time></trkpt>
      <trkpt lat="50.739438" lon="15.729339"><ele>1381.4</ele><time>2026-04-04T11:33:03.000Z</time></trkpt>
      <trkpt lat="50.739498" lon="15.729155"><ele>1380.8</ele><time>2026-04-04T11:33:46.000Z</time></trkpt>
      <trkpt lat="50.739355" lon="15.729292"><ele>1379.2</ele><time>2026-04-04T11:34:45.000Z</time></trkpt>
      <trkpt lat="50.739473" lon="15.729221"><ele>1377.6</ele><time>2026-04-04T11:35:14.000Z</time></trkpt>
      <trkpt lat="50.739295" lon="15.729292"><ele>1376.2</ele><time>2026-04-04T11:35:56.000Z</time></trkpt>
      <trkpt lat="50.739308" lon="15.729302"><ele>1377.0</ele><time>2026-04-04T11:36:29.000Z</time></trkpt>
      <trkpt lat="50.739312" lon="15.729294"><ele>1379.8</ele><time>2026-04-04T11:37:08.000Z</time></trkpt>
      <trkpt lat="50.739293" lon="15.729283"><ele>1382.8</ele><time>2026-04-04T11:39:01.000Z</time></trkpt>
      <trkpt lat="50.739082" lon="15.729566"><ele>1385.0</ele><time>2026-04-04T11:40:15.000Z</time></trkpt>
      <trkpt lat="50.738847" lon="15.730258"><ele>1388.0</ele><time>2026-04-04T11:41:05.000Z</time></trkpt>
      <trkpt lat="50.738637" lon="15.730760"><ele>1391.2</ele><time>2026-04-04T11:41:57.000Z</time></trkpt>
      <trkpt lat="50.738365" lon="15.731029"><ele>1395.4</ele><time>2026-04-04T11:42:42.000Z</time></trkpt>
      <trkpt lat="50.738034" lon="15.731429"><ele>1399.0</ele><time>2026-04-04T11:43:27.000Z</time></trkpt>
      <trkpt lat="50.737800" lon="15.731583"><ele>1401.6</ele><time>2026-04-04T11:44:21.000Z</time></trkpt>
      <trkpt lat="50.737676" lon="15.731769"><ele>1407.4</ele><time>2026-04-04T11:45:05.000Z</time></trkpt>
      <trkpt lat="50.737325" lon="15.732226"><ele>1412.6</ele><time>2026-04-04T11:46:06.000Z</time></trkpt>
      <trkpt lat="50.737036" lon="15.732583"><ele>1418.2</ele><time>2026-04-04T11:47:00.000Z</time></trkpt>
      <trkpt lat="50.736880" lon="15.732880"><ele>1423.4</ele><time>2026-04-04T11:47:43.000Z</time></trkpt>
      <trkpt lat="50.736847" lon="15.733023"><ele>1426.4</ele><time>2026-04-04T11:48:28.000Z</time></trkpt>
      <trkpt lat="50.736854" lon="15.733010"><ele>1427.0</ele><time>2026-04-04T11:49:12.000Z</time></trkpt>
      <trkpt lat="50.736809" lon="15.733232"><ele>1433.8</ele><time>2026-04-04T11:49:58.000Z</time></trkpt>
      <trkpt lat="50.736722" lon="15.733417"><ele>1440.2</ele><time>2026-04-04T11:50:47.000Z</time></trkpt>
      <trkpt lat="50.736710" lon="15.733715"><ele>1443.2</ele><time>2026-04-04T11:51:14.000Z</time></trkpt>
      <trkpt lat="50.736734" lon="15.733974"><ele>1448.2</ele><time>2026-04-04T11:51:52.000Z</time></trkpt>
      <trkpt lat="50.736709" lon="15.734144"><ele>1452.2</ele><time>2026-04-04T11:52:57.000Z</time></trkpt>
      <trkpt lat="50.736586" lon="15.734282"><ele>1458.6</ele><time>2026-04-04T11:53:38.000Z</time></trkpt>
      <trkpt lat="50.736454" lon="15.734356"><ele>1466.4</ele><time>2026-04-04T11:54:20.000Z</time></trkpt>
      <trkpt lat="50.736231" lon="15.734365"><ele>1474.0</ele><time>2026-04-04T11:55:03.000Z</time></trkpt>
      <trkpt lat="50.736136" lon="15.734391"><ele>1478.8</ele><time>2026-04-04T11:55:57.000Z</time></trkpt>
      <trkpt lat="50.736122" lon="15.734444"><ele>1479.6</ele><time>2026-04-04T11:56:49.000Z</time></trkpt>
      <trkpt lat="50.736203" lon="15.734698"><ele>1485.4</ele><time>2026-04-04T11:57:33.000Z</time></trkpt>
      <trkpt lat="50.736327" lon="15.735111"><ele>1495.6</ele><time>2026-04-04T11:58:52.000Z</time></trkpt>
      <trkpt lat="50.736329" lon="15.735168"><ele>1505.4</ele><time>2026-04-04T12:00:04.000Z</time></trkpt>
      <trkpt lat="50.736322" lon="15.735246"><ele>1513.4</ele><time>2026-04-04T12:01:32.000Z</time></trkpt>
      <trkpt lat="50.736317" lon="15.735391"><ele>1522.6</ele><time>2026-04-04T12:03:26.000Z</time></trkpt>
      <trkpt lat="50.736325" lon="15.735545"><ele>1529.4</ele><time>2026-04-04T12:05:02.000Z</time></trkpt>
      <trkpt lat="50.736332" lon="15.735673"><ele>1539.0</ele><time>2026-04-04T12:06:14.000Z</time></trkpt>
      <trkpt lat="50.736335" lon="15.735811"><ele>1550.8</ele><time>2026-04-04T12:07:23.000Z</time></trkpt>
      <trkpt lat="50.736336" lon="15.735954"><ele>1559.8</ele><time>2026-04-04T12:08:27.000Z</time></trkpt>
      <trkpt lat="50.736339" lon="15.736122"><ele>1564.2</ele><time>2026-04-04T12:09:41.000Z</time></trkpt>
      <trkpt lat="50.736338" lon="15.736345"><ele>1567.0</ele><time>2026-04-04T12:11:24.000Z</time></trkpt>
      <trkpt lat="50.736330" lon="15.738656"><ele>1569.2</ele><time>2026-04-04T12:12:07.000Z</time></trkpt>
      <trkpt lat="50.736310" lon="15.739393"><ele>1573.8</ele><time>2026-04-04T12:12:27.000Z</time></trkpt>
      <trkpt lat="50.736179" lon="15.739561"><ele>1579.6</ele><time>2026-04-04T12:13:01.000Z</time></trkpt>
      <trkpt lat="50.736179" lon="15.739553"><ele>1580.6</ele><time>2026-04-04T12:13:42.000Z</time></trkpt>
      <trkpt lat="50.736110" lon="15.739866"><ele>1585.4</ele><time>2026-04-04T12:14:18.000Z</time></trkpt>
      <trkpt lat="50.736141" lon="15.740123"><ele>1582.6</ele><time>2026-04-04T12:15:08.000Z</time></trkpt>
      <trkpt lat="50.736122" lon="15.740133"><ele>1586.4</ele><time>2026-04-04T12:16:34.000Z</time></trkpt>
      <trkpt lat="50.736063" lon="15.739860"><ele>1589.2</ele><time>2026-04-04T12:17:41.000Z</time></trkpt>
      <trkpt lat="50.736012" lon="15.739793"><ele>1590.8</ele><time>2026-04-04T12:19:18.000Z</time></trkpt>
      <trkpt lat="50.736004" lon="15.739799"><ele>1591.4</ele><time>2026-04-04T12:19:45.000Z</time></trkpt>
      <trkpt lat="50.735951" lon="15.739705"><ele>1588.0</ele><time>2026-04-04T12:20:18.000Z</time></trkpt>
      <trkpt lat="50.736234" lon="15.739447"><ele>1587.2</ele><time>2026-04-04T12:20:59.000Z</time></trkpt>
      <trkpt lat="50.736349" lon="15.739094"><ele>1578.4</ele><time>2026-04-04T12:21:39.000Z</time></trkpt>
      <trkpt lat="50.736404" lon="15.738710"><ele>1571.8</ele><time>2026-04-04T12:22:13.000Z</time></trkpt>
      <trkpt lat="50.736417" lon="15.738247"><ele>1566.0</ele><time>2026-04-04T12:22:54.000Z</time></trkpt>
      <trkpt lat="50.736429" lon="15.737834"><ele>1557.0</ele><time>2026-04-04T12:23:32.000Z</time></trkpt>
      <trkpt lat="50.736455" lon="15.737568"><ele>1550.4</ele><time>2026-04-04T12:24:02.000Z</time></trkpt>
      <trkpt lat="50.736448" lon="15.737201"><ele>1541.8</ele><time>2026-04-04T12:24:42.000Z</time></trkpt>
      <trkpt lat="50.736415" lon="15.736860"><ele>1534.8</ele><time>2026-04-04T12:25:23.000Z</time></trkpt>
      <trkpt lat="50.736358" lon="15.736540"><ele>1529.2</ele><time>2026-04-04T12:26:02.000Z</time></trkpt>
      <trkpt lat="50.736275" lon="15.736146"><ele>1521.4</ele><time>2026-04-04T12:26:46.000Z</time></trkpt>
      <trkpt lat="50.736219" lon="15.735829"><ele>1514.8</ele><time>2026-04-04T12:27:26.000Z</time></trkpt>
      <trkpt lat="50.736329" lon="15.735785"><ele>1508.8</ele><time>2026-04-04T12:28:08.000Z</time></trkpt>
      <trkpt lat="50.736334" lon="15.735470"><ele>1502.2</ele><time>2026-04-04T12:28:50.000Z</time></trkpt>
      <trkpt lat="50.736340" lon="15.735147"><ele>1493.6</ele><time>2026-04-04T12:29:31.000Z</time></trkpt>
      <trkpt lat="50.736216" lon="15.734746"><ele>1486.0</ele><time>2026-04-04T12:30:25.000Z</time></trkpt>
      <trkpt lat="50.736152" lon="15.734388"><ele>1480.0</ele><time>2026-04-04T12:31:24.000Z</time></trkpt>
      <trkpt lat="50.736323" lon="15.734464"><ele>1474.8</ele><time>2026-04-04T12:32:06.000Z</time></trkpt>
      <trkpt lat="50.736457" lon="15.734518"><ele>1470.4</ele><time>2026-04-04T12:33:05.000Z</time></trkpt>
      <trkpt lat="50.736711" lon="15.734742"><ele>1464.4</ele><time>2026-04-04T12:33:43.000Z</time></trkpt>
      <trkpt lat="50.736775" lon="15.734768"><ele>1457.8</ele><time>2026-04-04T12:34:18.000Z</time></trkpt>
      <trkpt lat="50.736725" lon="15.734049"><ele>1449.4</ele><time>2026-04-04T12:35:30.000Z</time></trkpt>
      <trkpt lat="50.736702" lon="15.733650"><ele>1442.8</ele><time>2026-04-04T12:36:06.000Z</time></trkpt>
      <trkpt lat="50.736813" lon="15.733465"><ele>1435.0</ele><time>2026-04-04T12:36:54.000Z</time></trkpt>
      <trkpt lat="50.736791" lon="15.733182"><ele>1429.6</ele><time>2026-04-04T12:37:34.000Z</time></trkpt>
      <trkpt lat="50.736817" lon="15.733008"><ele>1423.4</ele><time>2026-04-04T12:38:20.000Z</time></trkpt>
      <trkpt lat="50.737017" lon="15.732611"><ele>1420.8</ele><time>2026-04-04T12:39:12.000Z</time></trkpt>
      <trkpt lat="50.737029" lon="15.732598"><ele>1421.2</ele><time>2026-04-04T12:40:46.000Z</time></trkpt>
      <trkpt lat="50.737250" lon="15.732318"><ele>1416.6</ele><time>2026-04-04T12:41:57.000Z</time></trkpt>
      <trkpt lat="50.737705" lon="15.731759"><ele>1410.8</ele><time>2026-04-04T12:42:56.000Z</time></trkpt>
      <trkpt lat="50.737925" lon="15.731462"><ele>1403.2</ele><time>2026-04-04T12:43:32.000Z</time></trkpt>
      <trkpt lat="50.738149" lon="15.731182"><ele>1400.0</ele><time>2026-04-04T12:44:09.000Z</time></trkpt>
      <trkpt lat="50.738539" lon="15.730752"><ele>1396.0</ele><time>2026-04-04T12:45:00.000Z</time></trkpt>
      <trkpt lat="50.738804" lon="15.730270"><ele>1393.2</ele><time>2026-04-04T12:45:54.000Z</time></trkpt>
      <trkpt lat="50.738962" lon="15.729846"><ele>1390.2</ele><time>2026-04-04T12:46:32.000Z</time></trkpt>
      <trkpt lat="50.739416" lon="15.729243"><ele>1388.0</ele><time>2026-04-04T12:47:49.000Z</time></trkpt>
      <trkpt lat="50.739353" lon="15.728972"><ele>1382.4</ele><time>2026-04-04T13:24:21.000Z</time></trkpt>
      <trkpt lat="50.739382" lon="15.728675"><ele>1383.6</ele><time>2026-04-04T13:24:57.000Z</time></trkpt>
      <trkpt lat="50.739392" lon="15.728681"><ele>1386.0</ele><time>2026-04-04T13:25:38.000Z</time></trkpt>
      <trkpt lat="50.739577" lon="15.728090"><ele>1388.6</ele><time>2026-04-04T13:26:57.000Z</time></trkpt>
      <trkpt lat="50.739728" lon="15.727620"><ele>1390.6</ele><time>2026-04-04T13:27:27.000Z</time></trkpt>
      <trkpt lat="50.739811" lon="15.726822"><ele>1390.6</ele><time>2026-04-04T13:28:33.000Z</time></trkpt>
      <trkpt lat="50.739795" lon="15.726854"><ele>1389.8</ele><time>2026-04-04T13:30:17.000Z</time></trkpt>
      <trkpt lat="50.739797" lon="15.726834"><ele>1390.2</ele><time>2026-04-04T13:30:54.000Z</time></trkpt>
      <trkpt lat="50.739773" lon="15.726773"><ele>1390.4</ele><time>2026-04-04T13:31:38.000Z</time></trkpt>
      <trkpt lat="50.739846" lon="15.726001"><ele>1391.2</ele><time>2026-04-04T13:32:28.000Z</time></trkpt>
      <trkpt lat="50.740103" lon="15.725144"><ele>1386.0</ele><time>2026-04-04T13:33:26.000Z</time></trkpt>
      <trkpt lat="50.740343" lon="15.724528"><ele>1382.0</ele><time>2026-04-04T13:34:16.000Z</time></trkpt>
      <trkpt lat="50.740499" lon="15.723812"><ele>1380.4</ele><time>2026-04-04T13:35:09.000Z</time></trkpt>
      <trkpt lat="50.740585" lon="15.723425"><ele>1381.0</ele><time>2026-04-04T13:35:43.000Z</time></trkpt>
      <trkpt lat="50.740695" lon="15.722759"><ele>1385.4</ele><time>2026-04-04T13:36:37.000Z</time></trkpt>
      <trkpt lat="50.740808" lon="15.722133"><ele>1390.4</ele><time>2026-04-04T13:37:36.000Z</time></trkpt>
      <trkpt lat="50.740864" lon="15.721742"><ele>1393.8</ele><time>2026-04-04T13:38:25.000Z</time></trkpt>
      <trkpt lat="50.740952" lon="15.721101"><ele>1398.2</ele><time>2026-04-04T13:39:19.000Z</time></trkpt>
      <trkpt lat="50.741034" lon="15.720375"><ele>1402.4</ele><time>2026-04-04T13:40:14.000Z</time></trkpt>
      <trkpt lat="50.741127" lon="15.719862"><ele>1405.4</ele><time>2026-04-04T13:40:54.000Z</time></trkpt>
      <trkpt lat="50.741161" lon="15.719094"><ele>1408.6</ele><time>2026-04-04T13:41:55.000Z</time></trkpt>
      <trkpt lat="50.741196" lon="15.718707"><ele>1413.0</ele><time>2026-04-04T13:42:38.000Z</time></trkpt>
      <trkpt lat="50.741346" lon="15.717958"><ele>1417.6</ele><time>2026-04-04T13:43:39.000Z</time></trkpt>
      <trkpt lat="50.741370" lon="15.717493"><ele>1418.8</ele><time>2026-04-04T13:44:45.000Z</time></trkpt>
      <trkpt lat="50.741471" lon="15.716636"><ele>1421.4</ele><time>2026-04-04T13:45:45.000Z</time></trkpt>
      <trkpt lat="50.741635" lon="15.715528"><ele>1425.0</ele><time>2026-04-04T13:47:03.000Z</time></trkpt>
      <trkpt lat="50.741820" lon="15.714537"><ele>1428.4</ele><time>2026-04-04T13:48:16.000Z</time></trkpt>
      <trkpt lat="50.741947" lon="15.713673"><ele>1430.8</ele><time>2026-04-04T13:49:22.000Z</time></trkpt>
      <trkpt lat="50.742003" lon="15.712643"><ele>1432.2</ele><time>2026-04-04T13:50:35.000Z</time></trkpt>
      <trkpt lat="50.741697" lon="15.711060"><ele>1432.4</ele><time>2026-04-04T13:52:23.000Z</time></trkpt>
      <trkpt lat="50.741493" lon="15.709956"><ele>1429.2</ele><time>2026-04-04T13:53:38.000Z</time></trkpt>
      <trkpt lat="50.741310" lon="15.708690"><ele>1427.0</ele><time>2026-04-04T13:54:58.000Z</time></trkpt>
      <trkpt lat="50.741203" lon="15.707424"><ele>1423.8</ele><time>2026-04-04T13:56:17.000Z</time></trkpt>
      <trkpt lat="50.741131" lon="15.706712"><ele>1421.8</ele><time>2026-04-04T13:57:01.000Z</time></trkpt>
      <trkpt lat="50.740959" lon="15.705602"><ele>1419.0</ele><time>2026-04-04T13:58:30.000Z</time></trkpt>
      <trkpt lat="50.740781" lon="15.704732"><ele>1417.6</ele><time>2026-04-04T13:59:32.000Z</time></trkpt>
      <trkpt lat="50.740887" lon="15.703825"><ele>1417.6</ele><time>2026-04-04T14:00:36.000Z</time></trkpt>
      <trkpt lat="50.741067" lon="15.703010"><ele>1414.0</ele><time>2026-04-04T14:01:31.000Z</time></trkpt>
      <trkpt lat="50.741251" lon="15.702195"><ele>1408.8</ele><time>2026-04-04T14:02:25.000Z</time></trkpt>
      <trkpt lat="50.741460" lon="15.701165"><ele>1403.0</ele><time>2026-04-04T14:03:35.000Z</time></trkpt>
      <trkpt lat="50.741556" lon="15.700219"><ele>1399.8</ele><time>2026-04-04T14:04:46.000Z</time></trkpt>
      <trkpt lat="50.741856" lon="15.699440"><ele>1397.0</ele><time>2026-04-04T14:05:46.000Z</time></trkpt>
      <trkpt lat="50.742210" lon="15.698801"><ele>1396.0</ele><time>2026-04-04T14:06:42.000Z</time></trkpt>
      <trkpt lat="50.742535" lon="15.698324"><ele>1396.2</ele><time>2026-04-04T14:07:31.000Z</time></trkpt>
      <trkpt lat="50.742639" lon="15.698096"><ele>1393.8</ele><time>2026-04-04T14:08:11.000Z</time></trkpt>
      <trkpt lat="50.743148" lon="15.697560"><ele>1395.0</ele><time>2026-04-04T14:09:10.000Z</time></trkpt>
      <trkpt lat="50.743907" lon="15.696636"><ele>1393.8</ele><time>2026-04-04T14:10:44.000Z</time></trkpt>
      <trkpt lat="50.744584" lon="15.696199"><ele>1392.2</ele><time>2026-04-04T14:12:17.000Z</time></trkpt>
      <trkpt lat="50.745093" lon="15.695704"><ele>1389.0</ele><time>2026-04-04T14:13:27.000Z</time></trkpt>
      <trkpt lat="50.745684" lon="15.695112"><ele>1385.0</ele><time>2026-04-04T14:14:41.000Z</time></trkpt>
      <trkpt lat="50.746235" lon="15.694821"><ele>1382.6</ele><time>2026-04-04T14:15:43.000Z</time></trkpt>
      <trkpt lat="50.746664" lon="15.694364"><ele>1379.6</ele><time>2026-04-04T14:16:37.000Z</time></trkpt>
      <trkpt lat="50.747150" lon="15.694248"><ele>1378.6</ele><time>2026-04-04T14:17:42.000Z</time></trkpt>
      <trkpt lat="50.747655" lon="15.694002"><ele>1380.8</ele><time>2026-04-04T14:18:46.000Z</time></trkpt>
      <trkpt lat="50.748125" lon="15.693709"><ele>1384.8</ele><time>2026-04-04T14:19:54.000Z</time></trkpt>
      <trkpt lat="50.748540" lon="15.693498"><ele>1390.2</ele><time>2026-04-04T14:20:52.000Z</time></trkpt>
      <trkpt lat="50.748806" lon="15.693473"><ele>1392.4</ele><time>2026-04-04T14:21:29.000Z</time></trkpt>
      <trkpt lat="50.749295" lon="15.693423"><ele>1396.8</ele><time>2026-04-04T14:22:32.000Z</time></trkpt>
      <trkpt lat="50.749901" lon="15.693459"><ele>1401.0</ele><time>2026-04-04T14:23:46.000Z</time></trkpt>
      <trkpt lat="50.750341" lon="15.693275"><ele>1400.8</ele><time>2026-04-04T14:24:38.000Z</time></trkpt>
      <trkpt lat="50.750792" lon="15.693076"><ele>1401.4</ele><time>2026-04-04T14:25:32.000Z</time></trkpt>
      <trkpt lat="50.751514" lon="15.692781"><ele>1402.2</ele><time>2026-04-04T14:26:55.000Z</time></trkpt>
      <trkpt lat="50.751992" lon="15.692507"><ele>1403.0</ele><time>2026-04-04T14:27:51.000Z</time></trkpt>
      <trkpt lat="50.752512" lon="15.692278"><ele>1404.4</ele><time>2026-04-04T14:28:54.000Z</time></trkpt>
      <trkpt lat="50.753081" lon="15.691997"><ele>1405.6</ele><time>2026-04-04T14:29:57.000Z</time></trkpt>
      <trkpt lat="50.753891" lon="15.691659"><ele>1405.4</ele><time>2026-04-04T14:31:24.000Z</time></trkpt>
      <trkpt lat="50.754428" lon="15.691409"><ele>1407.0</ele><time>2026-04-04T14:32:26.000Z</time></trkpt>
      <trkpt lat="50.754948" lon="15.691149"><ele>1409.0</ele><time>2026-04-04T14:33:34.000Z</time></trkpt>
      <trkpt lat="50.755308" lon="15.690597"><ele>1409.4</ele><time>2026-04-04T14:34:38.000Z</time></trkpt>
      <trkpt lat="50.755378" lon="15.690408"><ele>1410.6</ele><time>2026-04-04T14:35:16.000Z</time></trkpt>
      <trkpt lat="50.755529" lon="15.690173"><ele>1408.0</ele><time>2026-04-04T14:35:38.000Z</time></trkpt>
      <trkpt lat="50.755862" lon="15.689702"><ele>1407.4</ele><time>2026-04-04T14:36:29.000Z</time></trkpt>
      <trkpt lat="50.756181" lon="15.689031"><ele>1404.6</ele><time>2026-04-04T14:37:20.000Z</time></trkpt>
      <trkpt lat="50.756662" lon="15.688164"><ele>1403.6</ele><time>2026-04-04T14:38:31.000Z</time></trkpt>
      <trkpt lat="50.756942" lon="15.687624"><ele>1402.8</ele><time>2026-04-04T14:39:13.000Z</time></trkpt>
      <trkpt lat="50.757289" lon="15.687021"><ele>1401.6</ele><time>2026-04-04T14:40:06.000Z</time></trkpt>
      <trkpt lat="50.757681" lon="15.686548"><ele>1398.6</ele><time>2026-04-04T14:41:04.000Z</time></trkpt>
      <trkpt lat="50.757950" lon="15.686229"><ele>1400.0</ele><time>2026-04-04T14:42:03.000Z</time></trkpt>
      <trkpt lat="50.758202" lon="15.685879"><ele>1403.4</ele><time>2026-04-04T14:42:40.000Z</time></trkpt>
      <trkpt lat="50.758439" lon="15.685576"><ele>1404.4</ele><time>2026-04-04T14:43:13.000Z</time></trkpt>
      <trkpt lat="50.758748" lon="15.685190"><ele>1407.4</ele><time>2026-04-04T14:43:55.000Z</time></trkpt>
      <trkpt lat="50.759021" lon="15.684776"><ele>1410.6</ele><time>2026-04-04T14:44:40.000Z</time></trkpt>
      <trkpt lat="50.759239" lon="15.684361"><ele>1413.4</ele><time>2026-04-04T14:45:23.000Z</time></trkpt>
      <trkpt lat="50.759358" lon="15.683999"><ele>1415.8</ele><time>2026-04-04T14:46:22.000Z</time></trkpt>
      <trkpt lat="50.759494" lon="15.683593"><ele>1417.2</ele><time>2026-04-04T14:46:54.000Z</time></trkpt>
      <trkpt lat="50.759593" lon="15.683208"><ele>1418.8</ele><time>2026-04-04T14:47:42.000Z</time></trkpt>
      <trkpt lat="50.759577" lon="15.682625"><ele>1417.6</ele><time>2026-04-04T14:48:21.000Z</time></trkpt>
      <trkpt lat="50.759538" lon="15.681959"><ele>1417.2</ele><time>2026-04-04T14:49:06.000Z</time></trkpt>
      <trkpt lat="50.759440" lon="15.680899"><ele>1414.4</ele><time>2026-04-04T14:50:11.000Z</time></trkpt>
      <trkpt lat="50.759354" lon="15.679798"><ele>1411.4</ele><time>2026-04-04T14:51:19.000Z</time></trkpt>
      <trkpt lat="50.759166" lon="15.678810"><ele>1408.4</ele><time>2026-04-04T14:52:21.000Z</time></trkpt>
      <trkpt lat="50.759078" lon="15.678281"><ele>1407.6</ele><time>2026-04-04T14:52:54.000Z</time></trkpt>
      <trkpt lat="50.759011" lon="15.677958"><ele>1407.2</ele><time>2026-04-04T14:53:14.000Z</time></trkpt>
      <trkpt lat="50.758937" lon="15.677578"><ele>1406.0</ele><time>2026-04-04T14:53:38.000Z</time></trkpt>
      <trkpt lat="50.758699" lon="15.676610"><ele>1402.2</ele><time>2026-04-04T14:54:42.000Z</time></trkpt>
      <trkpt lat="50.758569" lon="15.676066"><ele>1401.8</ele><time>2026-04-04T14:55:21.000Z</time></trkpt>
      <trkpt lat="50.758503" lon="15.675363"><ele>1403.6</ele><time>2026-04-04T14:56:19.000Z</time></trkpt>
      <trkpt lat="50.758497" lon="15.674121"><ele>1401.4</ele><time>2026-04-04T14:57:34.000Z</time></trkpt>
      <trkpt lat="50.758541" lon="15.672879"><ele>1398.6</ele><time>2026-04-04T14:58:58.000Z</time></trkpt>
      <trkpt lat="50.758651" lon="15.672045"><ele>1393.6</ele><time>2026-04-04T14:59:51.000Z</time></trkpt>
      <trkpt lat="50.758849" lon="15.671069"><ele>1390.4</ele><time>2026-04-04T15:00:57.000Z</time></trkpt>
      <trkpt lat="50.758957" lon="15.669969"><ele>1387.2</ele><time>2026-04-04T15:02:10.000Z</time></trkpt>
      <trkpt lat="50.759100" lon="15.669136"><ele>1382.6</ele><time>2026-04-04T15:03:03.000Z</time></trkpt>
      <trkpt lat="50.759234" lon="15.668531"><ele>1380.6</ele><time>2026-04-04T15:03:42.000Z</time></trkpt>
      <trkpt lat="50.759483" lon="15.667589"><ele>1376.2</ele><time>2026-04-04T15:04:45.000Z</time></trkpt>
      <trkpt lat="50.759631" lon="15.666658"><ele>1375.4</ele><time>2026-04-04T15:05:49.000Z</time></trkpt>
      <trkpt lat="50.759759" lon="15.665901"><ele>1371.8</ele><time>2026-04-04T15:06:38.000Z</time></trkpt>
      <trkpt lat="50.759970" lon="15.664599"><ele>1367.4</ele><time>2026-04-04T15:08:00.000Z</time></trkpt>
      <trkpt lat="50.760084" lon="15.663630"><ele>1361.6</ele><time>2026-04-04T15:08:58.000Z</time></trkpt>
      <trkpt lat="50.760200" lon="15.662502"><ele>1360.0</ele><time>2026-04-04T15:10:13.000Z</time></trkpt>
      <trkpt lat="50.760269" lon="15.661741"><ele>1359.6</ele><time>2026-04-04T15:11:43.000Z</time></trkpt>
      <trkpt lat="50.760276" lon="15.661347"><ele>1360.8</ele><time>2026-04-04T15:12:29.000Z</time></trkpt>
      <trkpt lat="50.760365" lon="15.660492"><ele>1362.2</ele><time>2026-04-04T15:13:37.000Z</time></trkpt>
      <trkpt lat="50.760482" lon="15.659907"><ele>1366.4</ele><time>2026-04-04T15:14:24.000Z</time></trkpt>
      <trkpt lat="50.760589" lon="15.659126"><ele>1370.8</ele><time>2026-04-04T15:15:29.000Z</time></trkpt>
      <trkpt lat="50.760625" lon="15.657955"><ele>1370.4</ele><time>2026-04-04T15:16:45.000Z</time></trkpt>
      <trkpt lat="50.760632" lon="15.657281"><ele>1366.8</ele><time>2026-04-04T15:17:28.000Z</time></trkpt>
      <trkpt lat="50.760650" lon="15.656686"><ele>1361.4</ele><time>2026-04-04T15:18:15.000Z</time></trkpt>
      <trkpt lat="50.760721" lon="15.656009"><ele>1355.0</ele><time>2026-04-04T15:19:02.000Z</time></trkpt>
      <trkpt lat="50.760676" lon="15.655308"><ele>1350.2</ele><time>2026-04-04T15:19:48.000Z</time></trkpt>
      <trkpt lat="50.760681" lon="15.654686"><ele>1347.2</ele><time>2026-04-04T15:20:26.000Z</time></trkpt>
      <trkpt lat="50.760762" lon="15.653723"><ele>1346.0</ele><time>2026-04-04T15:21:30.000Z</time></trkpt>
      <trkpt lat="50.760972" lon="15.652985"><ele>1341.4</ele><time>2026-04-04T15:22:24.000Z</time></trkpt>
      <trkpt lat="50.761159" lon="15.652370"><ele>1339.6</ele><time>2026-04-04T15:23:28.000Z</time></trkpt>
      <trkpt lat="50.761348" lon="15.651398"><ele>1338.0</ele><time>2026-04-04T15:24:49.000Z</time></trkpt>
      <trkpt lat="50.761425" lon="15.650891"><ele>1336.6</ele><time>2026-04-04T15:25:23.000Z</time></trkpt>
      <trkpt lat="50.761520" lon="15.650184"><ele>1336.2</ele><time>2026-04-04T15:26:15.000Z</time></trkpt>
      <trkpt lat="50.761679" lon="15.649286"><ele>1336.8</ele><time>2026-04-04T15:27:34.000Z</time></trkpt>
      <trkpt lat="50.761915" lon="15.648683"><ele>1336.4</ele><time>2026-04-04T15:28:49.000Z</time></trkpt>
      <trkpt lat="50.762194" lon="15.648019"><ele>1332.0</ele><time>2026-04-04T15:29:47.000Z</time></trkpt>
      <trkpt lat="50.762389" lon="15.647199"><ele>1331.2</ele><time>2026-04-04T15:30:53.000Z</time></trkpt>
      <trkpt lat="50.762540" lon="15.646370"><ele>1328.6</ele><time>2026-04-04T15:31:55.000Z</time></trkpt>
      <trkpt lat="50.762536" lon="15.646182"><ele>1326.8</ele><time>2026-04-04T15:32:51.000Z</time></trkpt>
      <trkpt lat="50.762541" lon="15.646147"><ele>1324.8</ele><time>2026-04-04T15:34:02.000Z</time></trkpt>
      <trkpt lat="50.762516" lon="15.645660"><ele>1319.4</ele><time>2026-04-04T15:34:34.000Z</time></trkpt>
      <trkpt lat="50.762524" lon="15.645159"><ele>1313.4</ele><time>2026-04-04T15:35:13.000Z</time></trkpt>
      <trkpt lat="50.762548" lon="15.644674"><ele>1308.6</ele><time>2026-04-04T15:35:49.000Z</time></trkpt>
      <trkpt lat="50.762541" lon="15.644233"><ele>1304.2</ele><time>2026-04-04T15:36:39.000Z</time></trkpt>
      <trkpt lat="50.762504" lon="15.643763"><ele>1299.0</ele><time>2026-04-04T15:37:17.000Z</time></trkpt>
      <trkpt lat="50.762530" lon="15.643303"><ele>1294.6</ele><time>2026-04-04T15:38:12.000Z</time></trkpt>
      <trkpt lat="50.762438" lon="15.642934"><ele>1290.2</ele><time>2026-04-04T15:38:46.000Z</time></trkpt>
      <trkpt lat="50.762416" lon="15.642491"><ele>1285.2</ele><time>2026-04-04T15:39:25.000Z</time></trkpt>
      <trkpt lat="50.762412" lon="15.642212"><ele>1279.0</ele><time>2026-04-04T15:40:20.000Z</time></trkpt>
      <trkpt lat="50.762379" lon="15.641742"><ele>1275.4</ele><time>2026-04-04T15:41:03.000Z</time></trkpt>
      <trkpt lat="50.762259" lon="15.641414"><ele>1270.0</ele><time>2026-04-04T15:41:39.000Z</time></trkpt>
      <trkpt lat="50.762187" lon="15.641061"><ele>1264.8</ele><time>2026-04-04T15:42:29.000Z</time></trkpt>
      <trkpt lat="50.762249" lon="15.640596"><ele>1256.4</ele><time>2026-04-04T15:43:11.000Z</time></trkpt>
      <trkpt lat="50.762341" lon="15.640288"><ele>1249.8</ele><time>2026-04-04T15:43:53.000Z</time></trkpt>
      <trkpt lat="50.762422" lon="15.639883"><ele>1243.0</ele><time>2026-04-04T15:44:44.000Z</time></trkpt>
      <trkpt lat="50.762752" lon="15.639691"><ele>1237.8</ele><time>2026-04-04T15:45:22.000Z</time></trkpt>
      <trkpt lat="50.762988" lon="15.639646"><ele>1234.0</ele><time>2026-04-04T15:45:53.000Z</time></trkpt>
      <trkpt lat="50.763235" lon="15.639352"><ele>1226.2</ele><time>2026-04-04T15:46:29.000Z</time></trkpt>
      <trkpt lat="50.763251" lon="15.639349"><ele>1226.2</ele><time>2026-04-04T15:47:14.000Z</time></trkpt>
      <trkpt lat="50.763482" lon="15.639402"><ele>1226.8</ele><time>2026-04-04T15:47:57.000Z</time></trkpt>
      <trkpt lat="50.763286" lon="15.639220"><ele>1226.2</ele><time>2026-04-04T15:54:55.000Z</time></trkpt>
      <trkpt lat="50.762791" lon="15.638706"><ele>1222.6</ele><time>2026-04-04T15:55:51.000Z</time></trkpt>
      <trkpt lat="50.762504" lon="15.637911"><ele>1216.0</ele><time>2026-04-04T15:56:41.000Z</time></trkpt>
      <trkpt lat="50.762466" lon="15.637417"><ele>1211.4</ele><time>2026-04-04T15:57:24.000Z</time></trkpt>
      <trkpt lat="50.762439" lon="15.636770"><ele>1205.4</ele><time>2026-04-04T15:58:14.000Z</time></trkpt>
      <trkpt lat="50.762424" lon="15.635753"><ele>1198.2</ele><time>2026-04-04T15:59:13.000Z</time></trkpt>
      <trkpt lat="50.762405" lon="15.635146"><ele>1194.4</ele><time>2026-04-04T15:59:59.000Z</time></trkpt>
      <trkpt lat="50.762321" lon="15.635218"><ele>1195.4</ele><time>2026-04-04T16:00:15.000Z</time></trkpt>
    </trkseg>
  </trk>
</gpx>
